{
"type": "FeatureCollection",
"name": "久留米",
"crs": { "type": "name", "properties": { "name": "urn:ogc:def:crs:OGC:1.3:CRS84" } },
"features": [
{ "type": "Feature", "properties": { "id": "久留米.1", "Name": null, "description": null, "timestamp": null, "begin": null, "end": null, "altitudeMode": null, "tessellate": -1, "extrude": 0, "visibility": -1, "drawOrder": null, "icon": null, "KEY_CODE": "402031018101", "PREF": "40", "CITY": "203", "K_AREA": "121002010", "S_AREA": "1018101", "PREF_NAME": "福岡県", "CITY_NAME": "久留米市", "S_NAME": "江戸屋敷二丁目", "KIGO_E": null, "HCODE": 8101, "AREA": 9275.424, "PERIMETER": 478.944, "KIHON1": "1210", "DUMMY1": "-", "KIHON2": "02", "KIHON3": "010", "C1": 40, "C2": 1018, "DUMMY2": "-", "C3": 1, "DUMMY3": "-", "C4": 1, "KIGO_A": null, "KIGO_D": null, "N_KEN": null, "N_CITY": null, "N_C1": 0, "KIGO_I": null, "KEYCODE1": "2031018-1-01", "JINKO": 56, "SETAI": 24, "KEN_OLD": "40", "CITY_OLD": "203", "X_CODE": 130.514699, "Y_CODE": 33.291185, "KCODE1": "1210-02010", "CCODE1": "1018-1- 1" }, "geometry": { "type": "MultiPolygon", "coordinates": [ [ [ [ 130.512584994386003, 33.257333853774902 ], [ 130.512419830368998, 33.257209798204897 ], [ 130.512348859599996, 33.257193598660699 ], [ 130.51230188193199, 33.257121770914402 ], [ 130.512169724105007, 33.257033686069697 ], [ 130.512046792219991, 33.256891869323098 ], [ 130.511832587359009, 33.256743775218702 ], [ 130.511938518963007, 33.256648401866798 ], [ 130.512247363634998, 33.256440053543201 ], [ 130.512259400586998, 33.256431947125897 ], [ 130.512173362809989, 33.256380904108497 ], [ 130.511487374790988, 33.2557831277093 ], [ 130.511896582495012, 33.255462317246298 ], [ 130.511460212809993, 33.255128233407397 ], [ 130.512049147782989, 33.254867835356798 ], [ 130.511965187870004, 33.254632652819602 ], [ 130.511329592009986, 33.254806707668898 ], [ 130.510741591560986, 33.255399063676698 ], [ 130.509397901645997, 33.255699597239399 ], [ 130.506906521965988, 33.256553286780097 ], [ 130.505691321038995, 33.258543777188599 ], [ 130.505029276089004, 33.259127422078599 ], [ 130.502816652176989, 33.2603121340942 ], [ 130.502561851982989, 33.260697601055199 ], [ 130.502017407122992, 33.261120090266601 ], [ 130.500884961813995, 33.261625335096802 ], [ 130.499787360976001, 33.261965068689499 ], [ 130.499020782613002, 33.262413691254203 ], [ 130.498393582134014, 33.263297869707003 ], [ 130.497766381654998, 33.264674226313304 ], [ 130.49655118072701, 33.266076716272899 ], [ 130.496429225078998, 33.2663968498507 ], [ 130.495982780292991, 33.266875961327599 ], [ 130.495203135254002, 33.267409517290503 ], [ 130.49373095635201, 33.2677579620009 ], [ 130.493495756171995, 33.267644717469999 ], [ 130.49291211128201, 33.2679539621506 ], [ 130.492358955304013, 33.2680628511226 ], [ 130.492027932830013, 33.268006228857097 ], [ 130.491723043707992, 33.268067206681501 ], [ 130.491322332290991, 33.268284984625502 ], [ 130.485241972093007, 33.269295474285897 ], [ 130.484196637961986, 33.269574230054197 ], [ 130.481147746744995, 33.271211920193402 ], [ 130.480594590766998, 33.271699742788101 ], [ 130.480186652664003, 33.272448465592298 ], [ 130.480002882103008, 33.272708332870003 ], [ 130.479982644069992, 33.2727625801977 ], [ 130.479947457776007, 33.272820250955 ], [ 130.47972216005499, 33.273047115789403 ], [ 130.479520105527996, 33.273236422181498 ], [ 130.479194528225008, 33.273537679777498 ], [ 130.479094686064997, 33.273623101062597 ], [ 130.479072854146011, 33.273641801183302 ], [ 130.478891672523986, 33.273796887095699 ], [ 130.478652196469994, 33.273988781456602 ], [ 130.478455534118012, 33.274123760233103 ], [ 130.478218803055995, 33.274234564589499 ], [ 130.478190219361011, 33.274253361133503 ], [ 130.477130832567013, 33.2747508117845 ], [ 130.475743587062993, 33.274816145167698 ], [ 130.473976639791005, 33.274652987930203 ], [ 130.47393270565999, 33.274658560373098 ], [ 130.473782064729988, 33.274683406518797 ], [ 130.473764427625014, 33.2746876296167 ], [ 130.473591885930006, 33.274707679337801 ], [ 130.473359244426007, 33.2747507407733 ], [ 130.473063724409002, 33.2748116575358 ], [ 130.472793187713989, 33.274852848847402 ], [ 130.472568957865008, 33.274926799453603 ], [ 130.472307309786004, 33.275003336721603 ], [ 130.472125433531005, 33.275069876716998 ], [ 130.471727181147003, 33.275235951627501 ], [ 130.471692056038989, 33.2752616743361 ], [ 130.471511522831008, 33.275341602952203 ], [ 130.471342513888004, 33.275429699368601 ], [ 130.471049612064007, 33.275571334712403 ], [ 130.470892209245989, 33.275667634732301 ], [ 130.470567173451997, 33.275811493098402 ], [ 130.470333127881986, 33.275906495883902 ], [ 130.470293199410008, 33.275921946600597 ], [ 130.46996626326299, 33.276130289928403 ], [ 130.469751350637011, 33.276244042255797 ], [ 130.469567182317007, 33.276342181778503 ], [ 130.469487379011014, 33.276406140667497 ], [ 130.469029843030995, 33.276680529387498 ], [ 130.468679541650999, 33.276917406109803 ], [ 130.468592761873992, 33.276976773701897 ], [ 130.468421961697999, 33.277048216571401 ], [ 130.468262505722009, 33.277143745564302 ], [ 130.46806595326899, 33.277257750299299 ], [ 130.46657892205701, 33.277701086305797 ], [ 130.466522672021995, 33.277718209827398 ], [ 130.466365563197996, 33.277778876962998 ], [ 130.466230617213995, 33.277828525072103 ], [ 130.466163501988007, 33.277853228153703 ], [ 130.466111558351002, 33.277886132484497 ], [ 130.465996496083989, 33.2779553983112 ], [ 130.465851326420989, 33.278031683794502 ], [ 130.465717585009997, 33.278110888986703 ], [ 130.465532623738994, 33.278242057666802 ], [ 130.465339856893991, 33.278367046707103 ], [ 130.465217202925999, 33.278436472591402 ], [ 130.465123294786991, 33.278460777500797 ], [ 130.465036509324989, 33.278472221748103 ], [ 130.46496158944899, 33.278603543520298 ], [ 130.464223413355995, 33.278540080417301 ], [ 130.464001149046993, 33.278336091204402 ], [ 130.463791246587988, 33.278293040198001 ], [ 130.463607996825999, 33.278252569650498 ], [ 130.463436858818, 33.278234095360197 ], [ 130.463326278463001, 33.2782142793275 ], [ 130.463222820516989, 33.278181585142001 ], [ 130.463104904343993, 33.278168290413298 ], [ 130.462944812370012, 33.278140034756198 ], [ 130.462796361799008, 33.278121042379901 ], [ 130.46263256008001, 33.278096047151301 ], [ 130.46249515601599, 33.278067291382698 ], [ 130.462316639432998, 33.278055317554603 ], [ 130.462153092791993, 33.278036661363402 ], [ 130.461989717059993, 33.278024366830202 ], [ 130.461811839098999, 33.278031450374399 ], [ 130.461740660190998, 33.278055251786803 ], [ 130.46165911768901, 33.278107892559397 ], [ 130.461540341930004, 33.278180395275903 ], [ 130.461310339264998, 33.278325258112801 ], [ 130.461102217183992, 33.2784442216849 ], [ 130.461043815334989, 33.278476726209902 ], [ 130.460980855353, 33.278507502579799 ], [ 130.460753658144, 33.278556744057603 ], [ 130.460674038119009, 33.278555307485703 ], [ 130.460529894272014, 33.278552127715798 ], [ 130.460328263180003, 33.278527951267797 ], [ 130.460050850034008, 33.278505435092001 ], [ 130.459830155716986, 33.2784784957176 ], [ 130.45962848202899, 33.278454316355997 ], [ 130.459456662390011, 33.278416777764399 ], [ 130.459345444316995, 33.2783778993076 ], [ 130.459207613654996, 33.278336439626699 ], [ 130.459072601168003, 33.278266319234802 ], [ 130.458922194606998, 33.2781901799571 ], [ 130.458840192379995, 33.2781188822117 ], [ 130.458753630232991, 33.278025443637901 ], [ 130.458663186769002, 33.277928923624501 ], [ 130.458513205479989, 33.277810816412298 ], [ 130.458509412538007, 33.277807189451302 ], [ 130.458468223973995, 33.277767964999398 ], [ 130.458313511976996, 33.277676026079199 ], [ 130.458200407410004, 33.277623506528897 ], [ 130.458009247162011, 33.277533345316897 ], [ 130.457829029858004, 33.277470564489001 ], [ 130.457680155557995, 33.2774388636862 ], [ 130.457557892855988, 33.277409781044099 ], [ 130.457425050473006, 33.277403158142498 ], [ 130.457266022281999, 33.277406637535002 ], [ 130.457140940666989, 33.277406194777399 ], [ 130.457008098307, 33.277399573631897 ], [ 130.456871546562013, 33.277396209682699 ], [ 130.456651959444997, 33.277401024137703 ], [ 130.456484703565991, 33.277385622494499 ], [ 130.456294503680994, 33.2773643593776 ], [ 130.456002166298987, 33.277348529311197 ], [ 130.455881008608998, 33.277351186747502 ], [ 130.45574901568699, 33.277369961890003 ], [ 130.45565143750099, 33.2773975198646 ], [ 130.45555449803399, 33.2774441171901 ], [ 130.455398739626986, 33.277542869817601 ], [ 130.455219996244011, 33.277635761171297 ], [ 130.455007305893986, 33.277732554923901 ], [ 130.454827076262006, 33.277780986084998 ], [ 130.454646845794002, 33.2778294191817 ], [ 130.454447552321994, 33.2778750911976 ], [ 130.454277730969011, 33.277894703369903 ], [ 130.454054857946005, 33.277915473711801 ], [ 130.453880476937996, 33.2779129262357 ], [ 130.453750836467009, 33.277890340770199 ], [ 130.453620599586998, 33.277848713718797 ], [ 130.453494244115006, 33.277810169722002 ], [ 130.45335987400199, 33.277759084854203 ], [ 130.45323241461, 33.277688780136799 ], [ 130.453146707120993, 33.277620755700198 ], [ 130.453107138061995, 33.277570775301001 ], [ 130.453086123285004, 33.277510855622701 ], [ 130.453080715893009, 33.277463316449598 ], [ 130.453080732972012, 33.277352098482098 ], [ 130.453098241421003, 33.277199182616997 ], [ 130.453092807215, 33.277040423074098 ], [ 130.453096068543999, 33.276913246117097 ], [ 130.453072888203991, 33.276789826608898 ], [ 130.453030052374999, 33.276644587006899 ], [ 130.452976168714002, 33.276509127664298 ], [ 130.452896312132992, 33.276390125282802 ], [ 130.452807379001996, 33.276226840499 ], [ 130.452733373309002, 33.276056860801901 ], [ 130.452675144035993, 33.275905602037099 ], [ 130.452628640251987, 33.275763620775798 ], [ 130.452612627381995, 33.275627341551903 ], [ 130.452616271863008, 33.275512864328199 ], [ 130.452634672898995, 33.275385366700498 ], [ 130.45266496770401, 33.275273470502697 ], [ 130.452702175441004, 33.275142374985997 ], [ 130.452763149709995, 33.274931321920498 ], [ 130.452825482007995, 33.274758367333298 ], [ 130.45284256573899, 33.274592751508202 ], [ 130.452839952286013, 33.274405333530503 ], [ 130.45281268013099, 33.274272456539599 ], [ 130.452744296301006, 33.274156391852202 ], [ 130.452677865156005, 33.274097469307002 ], [ 130.452600430381011, 33.274048308456798 ], [ 130.452457836966005, 33.273978342303401 ], [ 130.452287744733013, 33.273880391160603 ], [ 130.452094539529014, 33.273770222479101 ], [ 130.451927264689004, 33.273643594319402 ], [ 130.451774535797995, 33.273497586861701 ], [ 130.451695998815012, 33.2734166836768 ], [ 130.45167042669101, 33.273334624340698 ], [ 130.451663533349006, 33.273242625386096 ], [ 130.451679751255, 33.2731628278488 ], [ 130.451701821247013, 33.273032051484499 ], [ 130.451719968161001, 33.2728981955336 ], [ 130.451737266137002, 33.272738938048697 ], [ 130.451759335290006, 33.272608163312398 ], [ 130.451786812150004, 33.2725249459981 ], [ 130.451826184064004, 33.272457368179097 ], [ 130.451891316065996, 33.272366955521697 ], [ 130.451955558283004, 33.272251159281304 ], [ 130.452012039108013, 33.272129165712201 ], [ 130.452031288526996, 33.272027067981597 ], [ 130.452000986565992, 33.271916509069001 ], [ 130.451940832897009, 33.271819324820399 ], [ 130.451864011872999, 33.2716780028722 ], [ 130.451777249163001, 33.271578219359903 ], [ 130.451664088205007, 33.271482194236597 ], [ 130.451527563218008, 33.271367605855801 ], [ 130.451327004955004, 33.271193085360501 ], [ 130.451288384733004, 33.2711665321523 ], [ 130.451111605608986, 33.271072636817301 ], [ 130.450942459264013, 33.270944644557702 ], [ 130.450706564032998, 33.2708566852167 ], [ 130.450437455781014, 33.270756181281499 ], [ 130.450260642952003, 33.270674700862997 ], [ 130.450107604795988, 33.270950596834098 ], [ 130.449981453599008, 33.271252043719002 ], [ 130.449860302088013, 33.271477131615903 ], [ 130.449731773109988, 33.271708736577096 ], [ 130.449566053979993, 33.271960202032901 ], [ 130.449456161200999, 33.272181867747797 ], [ 130.449345165027012, 33.2723717750467 ], [ 130.449228104436997, 33.272606301618097 ], [ 130.449095481005003, 33.2728284489042 ], [ 130.449006575267987, 33.272998817992701 ], [ 130.448911141108994, 33.273201086985502 ], [ 130.448832604713999, 33.273342618207202 ], [ 130.448762507341996, 33.273509390367401 ], [ 130.448695439995987, 33.273653841519 ], [ 130.448628161670996, 33.273791953120103 ], [ 130.448557850914995, 33.273952383428799 ], [ 130.44846979346201, 33.274148134375203 ], [ 130.448400330290013, 33.274333963919503 ], [ 130.448349291705, 33.274503478831399 ], [ 130.448264476899993, 33.274683286704203 ], [ 130.448217956116991, 33.274874960690603 ], [ 130.44815561604301, 33.2750479112592 ], [ 130.448087253660987, 33.275265482381698 ], [ 130.448035748031998, 33.2754223151654 ], [ 130.448021264180994, 33.27555291158 ], [ 130.448001817413001, 33.2757598855802 ], [ 130.447984937065996, 33.275931842366901 ], [ 130.447986228953994, 33.276081178496703 ], [ 130.44797693850299, 33.2762529742174 ], [ 130.447997927601989, 33.276424095085503 ], [ 130.448011114608988, 33.276589051247598 ], [ 130.448063907980014, 33.276803973076298 ], [ 130.448111508447994, 33.276977713724598 ], [ 130.448196743294005, 33.277255478645401 ], [ 130.448260373137998, 33.277454280460397 ], [ 130.448359688924995, 33.277699964833701 ], [ 130.448422217223992, 33.2778670269835 ], [ 130.448534723985006, 33.278055214750196 ], [ 130.448632345334005, 33.278250099150299 ], [ 130.448759354949004, 33.278418927199603 ], [ 130.448931381087988, 33.278685260457102 ], [ 130.449099485635003, 33.278948510476397 ], [ 130.449281882507989, 33.279186041616299 ], [ 130.44950304131001, 33.279448119815697 ], [ 130.449695638918996, 33.2796504702482 ], [ 130.449958508484002, 33.2799148284181 ], [ 130.450216226744004, 33.280137985056697 ], [ 130.450457915561998, 33.280336078942 ], [ 130.450731454450988, 33.280577955475302 ], [ 130.450938094629009, 33.280748209055602 ], [ 130.451004741233987, 33.280813473493602 ], [ 130.451094967019998, 33.280903657290601 ], [ 130.451319590326989, 33.2811561494998 ], [ 130.451504816062993, 33.281364998359599 ], [ 130.451737415084011, 33.281630010710998 ], [ 130.451799669004004, 33.281693882663703 ], [ 130.451976970343992, 33.281875802503301 ], [ 130.452162622482007, 33.282097370141699 ], [ 130.452377284030007, 33.282368130418803 ], [ 130.452670727030011, 33.282661411160497 ], [ 130.453135342572011, 33.2831723881621 ], [ 130.45338334470199, 33.283443417923998 ], [ 130.453516831765, 33.283469084646697 ], [ 130.453813959001991, 33.283513437985803 ], [ 130.454053471509013, 33.2835367881775 ], [ 130.45425515384801, 33.283560975928403 ], [ 130.454452955492002, 33.283582064219303 ], [ 130.454601158618999, 33.283594708902498 ], [ 130.454665855053008, 33.283602831097802 ], [ 130.454787700679987, 33.283619235400401 ], [ 130.454917732949013, 33.283654519638198 ], [ 130.45498916458601, 33.283658389383199 ], [ 130.455085349971995, 33.283640196742198 ], [ 130.455188934208991, 33.283618918676801 ], [ 130.455303779534006, 33.2835666590572 ], [ 130.455389218943992, 33.283495651818598 ], [ 130.455520665188004, 33.283451214619397 ], [ 130.455624459473, 33.283395804878097 ], [ 130.455747033091001, 33.283293929970597 ], [ 130.455873162953992, 33.283213768291198 ], [ 130.456074691162996, 33.283133460450799 ], [ 130.456229119889002, 33.2830135862175 ], [ 130.456285223819009, 33.282905200814298 ], [ 130.456344903819996, 33.282815448940802 ], [ 130.456470670205988, 33.282794284633901 ], [ 130.456589032870994, 33.282769971581899 ], [ 130.456981418454006, 33.282659960344198 ], [ 130.457295994188001, 33.2825806395321 ], [ 130.457494045164992, 33.282519882024303 ], [ 130.457635986454989, 33.2824799415407 ], [ 130.457976982465993, 33.282543619656899 ], [ 130.458243525656997, 33.282617362145501 ], [ 130.458387383452987, 33.282661455099102 ], [ 130.458527604572993, 33.282690001151799 ], [ 130.458789524244992, 33.282765624351697 ], [ 130.458997802010998, 33.282842580537498 ], [ 130.459237691731005, 33.282893291682399 ], [ 130.459503336716011, 33.282956513277902 ], [ 130.459772520180991, 33.283044581246898 ], [ 130.45992735473601, 33.2831042372908 ], [ 130.460074942803004, 33.283142129741996 ], [ 130.460263181187997, 33.283177078279401 ], [ 130.460513968995997, 33.283255766226198 ], [ 130.460768636940998, 33.283303436858503 ], [ 130.46124455011801, 33.283426547391898 ], [ 130.461496715933009, 33.283403371582303 ], [ 130.461973938835996, 33.283531961664899 ], [ 130.462905628196012, 33.283821938281697 ], [ 130.463346011782988, 33.283961319874201 ], [ 130.463638496208006, 33.2840452872085 ], [ 130.464443527432991, 33.284297824413599 ], [ 130.464851944868002, 33.284426124714699 ], [ 130.465358563787987, 33.2845976780334 ], [ 130.465676958730995, 33.284703645544603 ], [ 130.465856960079009, 33.284756232719303 ], [ 130.466101806664, 33.284812991571499 ], [ 130.466399137606999, 33.284907557168601 ], [ 130.466559491003011, 33.285019112235801 ], [ 130.466692487299014, 33.2851264813537 ], [ 130.466814154155998, 33.285248681984001 ], [ 130.466979071628998, 33.2853339259335 ], [ 130.467275649253992, 33.285525475665096 ], [ 130.467373837915005, 33.285591640680401 ], [ 130.467492969478002, 33.285675859894603 ], [ 130.467648960773005, 33.2857741683423 ], [ 130.467719349980996, 33.285901997071903 ], [ 130.467809015124004, 33.286032531906102 ], [ 130.467883854191996, 33.286159744457201 ], [ 130.467970814106991, 33.286266032711197 ], [ 130.468075055635012, 33.286420299907803 ], [ 130.468127063234988, 33.286495197943303 ], [ 130.468209156764004, 33.286636672147402 ], [ 130.468269142932002, 33.286765354054097 ], [ 130.468345641125012, 33.286882041999 ], [ 130.46837814365, 33.286999740396901 ], [ 130.468404623964005, 33.2871283835253 ], [ 130.468424888178987, 33.287314274194003 ], [ 130.468430895512, 33.287493131800197 ], [ 130.468455991844991, 33.287656640902597 ], [ 130.468484297722, 33.2878789337542 ], [ 130.468496050779009, 33.288099167318698 ], [ 130.468521460397, 33.288210847842898 ], [ 130.468528150862994, 33.288276637818001 ], [ 130.468500505120005, 33.288424176939003 ], [ 130.468472472750989, 33.288510636674502 ], [ 130.468452792953002, 33.2885472907289 ], [ 130.468406427839, 33.288599910224299 ], [ 130.468360829945993, 33.288685396605999 ], [ 130.468267586524007, 33.2888065538395 ], [ 130.468176487227993, 33.288961588777198 ], [ 130.468107674359999, 33.289071721422403 ], [ 130.467988547684996, 33.289242732379797 ], [ 130.467787595966001, 33.2893386484171 ], [ 130.467719637456014, 33.2893768573689 ], [ 130.467579395658987, 33.289426291869098 ], [ 130.467348632730989, 33.289534900366299 ], [ 130.467193977704, 33.289609951792002 ], [ 130.46695159427901, 33.289712171166798 ], [ 130.466893036588999, 33.289749132133302 ], [ 130.466790934950012, 33.289760653164201 ], [ 130.466626596462987, 33.289869546935499 ], [ 130.466452756064996, 33.289982378882897 ], [ 130.466326641466992, 33.2900396218458 ], [ 130.466178932079998, 33.2901446061746 ], [ 130.466086132625009, 33.290192022583 ], [ 130.46599557143, 33.290257380114703 ], [ 130.465840938421991, 33.290328466254302 ], [ 130.465712328915004, 33.290409613084599 ], [ 130.465556504640006, 33.290483653097503 ], [ 130.46541384713899, 33.290536843773197 ], [ 130.465223622603986, 33.290605768908698 ], [ 130.465040537713008, 33.290672732699697 ], [ 130.464809854284994, 33.290767373570098 ], [ 130.464669641309996, 33.290804634695299 ], [ 130.464455710538004, 33.290875445631201 ], [ 130.464239589750008, 33.290947305129698 ], [ 130.464054043371988, 33.290998284077801 ], [ 130.463868721870995, 33.291053736576501 ], [ 130.463836535338004, 33.291071033463098 ], [ 130.463769993236014, 33.291082705427499 ], [ 130.463727216770991, 33.291096468365097 ], [ 130.463584453571002, 33.2911256169536 ], [ 130.463339898691999, 33.2912043964063 ], [ 130.461997772325986, 33.291563281808301 ], [ 130.460997320898002, 33.291857381857902 ], [ 130.459456648896008, 33.292419286170301 ], [ 130.459293305990997, 33.292520688395697 ], [ 130.458674731933002, 33.292750452895497 ], [ 130.458263540444989, 33.292911832205597 ], [ 130.45775028193799, 33.293153252905 ], [ 130.457526561680993, 33.293251869657198 ], [ 130.457336993924997, 33.2933345396996 ], [ 130.457038233562002, 33.293510144814903 ], [ 130.456733965242989, 33.293694670886701 ], [ 130.456663250374987, 33.293743128741298 ], [ 130.456511045589991, 33.293839910771503 ], [ 130.456272121081014, 33.2939758840606 ], [ 130.45610338099101, 33.2940949234195 ], [ 130.455906908912993, 33.294263102563903 ], [ 130.455813971308999, 33.294351775071497 ], [ 130.455644266384013, 33.294524879173501 ], [ 130.455468342350002, 33.294747460568701 ], [ 130.455413409736991, 33.294814198194601 ], [ 130.455265105801004, 33.294992131043699 ], [ 130.455105347802004, 33.295210451111402 ], [ 130.455050342275001, 33.295281694764903 ], [ 130.454917673985989, 33.295486906947602 ], [ 130.454745570092996, 33.295795166032804 ], [ 130.454695793138995, 33.295875487619497 ], [ 130.454535527336986, 33.296120836278298 ], [ 130.454391014989994, 33.296388957613701 ], [ 130.454262927327989, 33.296639307456502 ], [ 130.454124031741003, 33.296893997650301 ], [ 130.454017665441995, 33.297131165569297 ], [ 130.453943224726999, 33.297386858231697 ], [ 130.453906514029995, 33.297638634184501 ], [ 130.453859416278988, 33.297867712411403 ], [ 130.453805592701997, 33.298173287248297 ], [ 130.453788131941991, 33.298249609523197 ], [ 130.453769202131014, 33.298407046034299 ], [ 130.453760686478006, 33.298582667347397 ], [ 130.453757078027991, 33.298785361310301 ], [ 130.453763882967991, 33.299006278604097 ], [ 130.453781535393006, 33.299222839611502 ], [ 130.453799832023009, 33.299403370416996 ], [ 130.453828291301988, 33.299615611283201 ], [ 130.453863657690988, 33.299742324801102 ], [ 130.45393528586601, 33.299946230497198 ], [ 130.454012353341994, 33.300145687832703 ], [ 130.454074420300003, 33.300281853589901 ], [ 130.454157037815008, 33.300472388541102 ], [ 130.45424520549301, 33.300654036344703 ], [ 130.454301333303988, 33.300821629898799 ], [ 130.454373284907007, 33.301007502472302 ], [ 130.454477559330002, 33.301189361919803 ], [ 130.454608744538007, 33.301367148603397 ], [ 130.454692511002008, 33.301494637843497 ], [ 130.454813281697, 33.301654239598101 ], [ 130.454934096437995, 33.301813803484599 ], [ 130.455086729068995, 33.301996439776403 ], [ 130.455234245241996, 33.302165455536901 ], [ 130.455339696570007, 33.302279761016798 ], [ 130.455466412009002, 33.302407896412902 ], [ 130.455603654823989, 33.302549744637702 ], [ 130.455725506427996, 33.302650772709001 ], [ 130.455926820656998, 33.302816115796702 ], [ 130.456144353784993, 33.302977230288398 ], [ 130.456367366881011, 33.303133896201999 ], [ 130.456616791391014, 33.303313503471998 ], [ 130.456888165121001, 33.303470943461399 ], [ 130.457010409811005, 33.303549463496601 ], [ 130.457170094925999, 33.303637552627499 ], [ 130.457367331479986, 33.3037307383536 ], [ 130.457622812493014, 33.303874406445502 ], [ 130.457846362766986, 33.3039995465709 ], [ 130.457969252015005, 33.304042035877401 ], [ 130.458129260195989, 33.304112090782702 ], [ 130.458294428075988, 33.304195764376402 ], [ 130.458529148921997, 33.304298551041001 ], [ 130.458817806387998, 33.304388680373698 ], [ 130.459079803561991, 33.304469360109003 ], [ 130.459202695316009, 33.304511811954796 ], [ 130.45942734924401, 33.304573869206401 ], [ 130.459646818017006, 33.304626852629497 ], [ 130.459930680127002, 33.304685327723497 ], [ 130.460112779556994, 33.304724198942502 ], [ 130.460337999638, 33.304754765294298 ], [ 130.460557711255007, 33.3047942193814 ], [ 130.460868836883009, 33.304830582059303 ], [ 130.461147893299994, 33.304857434297702 ], [ 130.46146680286401, 33.304896788615302 ], [ 130.461587803778997, 33.304904815090097 ], [ 130.461856054044006, 33.304936023018499 ], [ 130.462495053554989, 33.304972957027502 ], [ 130.463472565894989, 33.305019625906098 ], [ 130.464229907879997, 33.305053890253298 ], [ 130.464815503504013, 33.305071982891398 ], [ 130.465170189517011, 33.3050774904153 ], [ 130.465745187467007, 33.305086375423699 ], [ 130.466065546094995, 33.305074015729602 ], [ 130.466245443617993, 33.305067073527297 ], [ 130.466825713725996, 33.3050850639545 ], [ 130.46745436958301, 33.305099278780602 ], [ 130.468024316356008, 33.305090060633297 ], [ 130.469045638280988, 33.3050923515477 ], [ 130.469007751448999, 33.304190489818097 ], [ 130.469770817454986, 33.304150070102899 ], [ 130.469758192114995, 33.303805936722298 ], [ 130.469770817454986, 33.304150070102899 ], [ 130.47072930089999, 33.304108928191297 ], [ 130.470718854717006, 33.305010020245 ], [ 130.471117302712997, 33.304971104662201 ], [ 130.471601340347007, 33.304956043476103 ], [ 130.472118511911987, 33.3048919153238 ], [ 130.472473900657008, 33.304856826805697 ], [ 130.472958351084998, 33.304819252127601 ], [ 130.473383520439, 33.304789732880003 ], [ 130.473502197498988, 33.304764519807698 ], [ 130.473765661708995, 33.304759574351301 ], [ 130.473959190124987, 33.304758066019197 ], [ 130.474115664886, 33.3047244181951 ], [ 130.474351672571999, 33.304674127937403 ], [ 130.474594939902005, 33.304637355893902 ], [ 130.474959755258993, 33.3045935257976 ], [ 130.475302113625986, 33.304538252463701 ], [ 130.475549914536998, 33.304493964583102 ], [ 130.475752469387004, 33.304491010877797 ], [ 130.475968703925986, 33.304457927778799 ], [ 130.476175833066009, 33.304432308248003 ], [ 130.476436936903013, 33.304422062448502 ], [ 130.476655470256986, 33.304383317800799 ], [ 130.476984235996014, 33.304343097743498 ], [ 130.477249727590987, 33.304313600454797 ], [ 130.477489125162009, 33.304321647911102 ], [ 130.47772025579701, 33.304308527438003 ], [ 130.478015741175994, 33.304329068954601 ], [ 130.478528142051005, 33.3043281462488 ], [ 130.478856313807, 33.304324338323298 ], [ 130.47921428125801, 33.304325200619601 ], [ 130.47953892431201, 33.304372522787901 ], [ 130.479825465297012, 33.304365476271599 ], [ 130.480128829573999, 33.3043868915762 ], [ 130.480460607896987, 33.3044191640397 ], [ 130.480765917919001, 33.304466720069101 ], [ 130.48111257454201, 33.304501342873301 ], [ 130.481480185381997, 33.304545670250398 ], [ 130.48183486986099, 33.304613822672998 ], [ 130.482183514312993, 33.304674588811302 ], [ 130.48246235868001, 33.304737389165098 ], [ 130.482695107257996, 33.304799467706999 ], [ 130.482914973633001, 33.304885375550001 ], [ 130.483192397631996, 33.304954403106201 ], [ 130.483462730316006, 33.3050385118894 ], [ 130.483811381002994, 33.305186452496898 ], [ 130.484050261872994, 33.3053431316199 ], [ 130.484251933004998, 33.3054940568788 ], [ 130.484383058958997, 33.305607704714703 ], [ 130.484647643437, 33.306057872416702 ], [ 130.484859152088006, 33.306475554402098 ], [ 130.485166838863989, 33.307178421324799 ], [ 130.485453796072989, 33.307844890759597 ], [ 130.485785533533004, 33.308683156039798 ], [ 130.486081595280012, 33.3094307464658 ], [ 130.486367630768996, 33.310142190388 ], [ 130.486393722130003, 33.3101786472848 ], [ 130.486481327995989, 33.310154070290203 ], [ 130.486482675145993, 33.3101606622227 ], [ 130.486700310877012, 33.310708064576097 ], [ 130.486921734282987, 33.311231210695901 ], [ 130.487119741590988, 33.311683460610297 ], [ 130.487363719884996, 33.312230049916501 ], [ 130.487736899889001, 33.3129675936623 ], [ 130.488025202505014, 33.313518520579301 ], [ 130.488222268901012, 33.313878439758902 ], [ 130.488584415897009, 33.314471902124303 ], [ 130.488734925811997, 33.314714085942299 ], [ 130.488766015371993, 33.314764126563098 ], [ 130.488789512542013, 33.314799904404502 ], [ 130.489055088582006, 33.3152039240127 ], [ 130.489395614364014, 33.315655199444201 ], [ 130.489668517803011, 33.316010953753903 ], [ 130.490018977272001, 33.3164127809058 ], [ 130.490322052570008, 33.316738434899797 ], [ 130.490399227718996, 33.316799651843802 ], [ 130.490482677829988, 33.316886186302902 ], [ 130.490738091816013, 33.317059052874903 ], [ 130.490867853966989, 33.317145036709299 ], [ 130.491288350247999, 33.317434889535903 ], [ 130.491508747264987, 33.317598240104999 ], [ 130.491508689499994, 33.317608348584997 ], [ 130.491737516972989, 33.3177656790089 ], [ 130.49196036906099, 33.317917943721802 ], [ 130.491981633661993, 33.317933672074602 ], [ 130.492074116594011, 33.317995934910002 ], [ 130.492457104343998, 33.3182945392806 ], [ 130.492691685211014, 33.318487325887901 ], [ 130.493006011861013, 33.318761941913699 ], [ 130.493482901884988, 33.319220843491003 ], [ 130.493794633090999, 33.319510204384002 ], [ 130.493967676175998, 33.319673359835001 ], [ 130.493871608641996, 33.319739435929698 ], [ 130.493857838318007, 33.319748469395698 ], [ 130.494263140539005, 33.320212005770799 ], [ 130.494580292818995, 33.320596740705298 ], [ 130.494798454510999, 33.320904849430299 ], [ 130.494944651648012, 33.321127458233398 ], [ 130.495114742518012, 33.321390530373797 ], [ 130.495370319019997, 33.321730173822502 ], [ 130.495577774405007, 33.322033763955297 ], [ 130.495753357328994, 33.3222834036523 ], [ 130.495920950008014, 33.322521809572699 ], [ 130.496078348243003, 33.322730972284099 ], [ 130.496231918082998, 33.322964141522 ], [ 130.496446194312, 33.323264550909798 ], [ 130.49661827130501, 33.323482156753201 ], [ 130.49680743492101, 33.323720610802297 ], [ 130.497036718987005, 33.323986139933503 ], [ 130.497117628573989, 33.324071321744398 ], [ 130.497295327381011, 33.324289901584997 ], [ 130.49738084778599, 33.324368724661397 ], [ 130.497479750129003, 33.324454328358797 ], [ 130.497656248771989, 33.324596253874503 ], [ 130.498306453404012, 33.3250808795027 ], [ 130.498809558203988, 33.325448283001997 ], [ 130.499113387304988, 33.325628336732699 ], [ 130.499344242012995, 33.325580268156202 ], [ 130.499462958661013, 33.325553765295098 ], [ 130.499503139454987, 33.325578581798503 ], [ 130.499742052914996, 33.325738258554402 ], [ 130.49985732638001, 33.325808394745401 ], [ 130.500215695182987, 33.326018816038498 ], [ 130.500884795697999, 33.326414138888097 ], [ 130.501082751946001, 33.326531029401103 ], [ 130.501659905655998, 33.326960814551398 ], [ 130.501979381235998, 33.327157337725303 ], [ 130.502477477854001, 33.327560419826099 ], [ 130.502819029800008, 33.327860480302903 ], [ 130.503051718129001, 33.328061939825801 ], [ 130.503325571599987, 33.328330060043797 ], [ 130.503518172115008, 33.328508183641297 ], [ 130.503937055263009, 33.328928885551797 ], [ 130.504265890551011, 33.329260563008297 ], [ 130.504643429173996, 33.329648374128197 ], [ 130.504851015766008, 33.329837062170398 ], [ 130.504972971414986, 33.330011284525597 ], [ 130.505710984242, 33.330899286355901 ], [ 130.505903564029012, 33.330977511278498 ], [ 130.506188949235991, 33.331110381960102 ], [ 130.506527387282006, 33.331217396017102 ], [ 130.506992380579987, 33.331346717228399 ], [ 130.507315773456014, 33.331435353475101 ], [ 130.507701992883, 33.331544669404302 ], [ 130.508015286068002, 33.331647355115798 ], [ 130.508302588318998, 33.331737960500597 ], [ 130.508570740410988, 33.331800980755098 ], [ 130.508857391382008, 33.331865516022901 ], [ 130.509183441346011, 33.331929502610699 ], [ 130.509548920512998, 33.331995756128698 ], [ 130.509769219681999, 33.332008564461297 ], [ 130.510089916509997, 33.332046495971099 ], [ 130.510386798304012, 33.332077259017801 ], [ 130.510681209842005, 33.332100263151702 ], [ 130.511006681728986, 33.332129728603 ], [ 130.511324594190995, 33.332152786000201 ], [ 130.511544361066996, 33.332174788451702 ], [ 130.511760771846014, 33.332188322201702 ], [ 130.512059527345002, 33.332183863634 ], [ 130.512155269370993, 33.332179414448298 ], [ 130.512577427965994, 33.332161247252799 ], [ 130.512710088941986, 33.332150497339597 ], [ 130.512933020568994, 33.332137705399902 ], [ 130.513027171802008, 33.332132053848497 ], [ 130.513099557174996, 33.3321323384545 ], [ 130.513257409157006, 33.332118833787703 ], [ 130.513400146311994, 33.3321067467784 ], [ 130.513448748998997, 33.332104648670203 ], [ 130.513579746684002, 33.332098998908599 ], [ 130.513797208591996, 33.332080831427497 ], [ 130.514012181136991, 33.332057722876797 ], [ 130.514217883869009, 33.332033872003002 ], [ 130.514493261929005, 33.332006772038703 ], [ 130.514517746080998, 33.332003171069097 ], [ 130.514716682103, 33.331973831912798 ], [ 130.514777114563003, 33.331972660268001 ], [ 130.514970234023991, 33.331955098786203 ], [ 130.515196165546996, 33.331923577747297 ], [ 130.515525161038994, 33.3318741756867 ], [ 130.515887748468003, 33.331813668499997 ], [ 130.516164145141005, 33.331768746808599 ], [ 130.516381225802007, 33.331735813124901 ], [ 130.516598405406995, 33.331684105210002 ], [ 130.516862553196006, 33.331638217804603 ], [ 130.517117800762009, 33.331577251978899 ], [ 130.517309164956004, 33.331543268125301 ], [ 130.517461413782996, 33.331510079881198 ], [ 130.517613643924989, 33.331480628509802 ], [ 130.517657378681008, 33.331470933750502 ], [ 130.518052057205011, 33.331373030571903 ], [ 130.518434591240009, 33.331285189559402 ], [ 130.51869359925999, 33.331227335584998 ], [ 130.518930904168002, 33.331163304549101 ], [ 130.519177868930001, 33.331105402817101 ], [ 130.519554380193995, 33.331006403565901 ], [ 130.520029200608008, 33.330837724149802 ], [ 130.520162425926003, 33.330799703111303 ], [ 130.520304206075991, 33.330738327554897 ], [ 130.520597312342005, 33.330635938140198 ], [ 130.520880779184012, 33.330531501867199 ], [ 130.521123060144987, 33.330439059286597 ], [ 130.521458595029003, 33.330319605034603 ], [ 130.521933458724988, 33.330142817320699 ], [ 130.522147155061987, 33.330074707275003 ], [ 130.522325195827989, 33.330020654819997 ], [ 130.522348663162006, 33.330074076546602 ], [ 130.52266636144401, 33.329962898636701 ], [ 130.522999526899014, 33.329860091367202 ], [ 130.523248092308989, 33.329766398182301 ], [ 130.523553173274991, 33.329642131669601 ], [ 130.523756526183007, 33.329560098413701 ], [ 130.523846864717996, 33.329536773792498 ], [ 130.524047538942, 33.329438175326601 ], [ 130.524385140817998, 33.329289200775598 ], [ 130.524616845779008, 33.329185962674899 ], [ 130.525139435135998, 33.328967912829199 ], [ 130.525215687156987, 33.328942174414898 ], [ 130.525509687897994, 33.328777673320097 ], [ 130.525768264880014, 33.328654421362103 ], [ 130.52598020394899, 33.328551106908101 ], [ 130.526141291355003, 33.328471267405 ], [ 130.526251433960994, 33.3284314621162 ], [ 130.526353115249009, 33.328389262216 ], [ 130.526760269304987, 33.328156572371803 ], [ 130.526982067592996, 33.328054492995598 ], [ 130.527196984612004, 33.327927518836503 ], [ 130.527248312344994, 33.327886292337702 ], [ 130.527361158918012, 33.327795630115098 ], [ 130.527494089055011, 33.327708606215303 ], [ 130.527632855478004, 33.327588454662198 ], [ 130.527757648798996, 33.327476633708201 ], [ 130.527921276137988, 33.3272658061016 ], [ 130.528053979691009, 33.327087196483703 ], [ 130.528181962751006, 33.326926673959903 ], [ 130.528284684721001, 33.326807196544401 ], [ 130.528382404186999, 33.326696857757 ], [ 130.528485453011001, 33.326586364097899 ], [ 130.528563753115009, 33.326530407322899 ], [ 130.528600565386, 33.326511491345997 ], [ 130.528642379197009, 33.326483434974897 ], [ 130.528762822401006, 33.326408371502403 ], [ 130.528967634048001, 33.3262951631501 ], [ 130.529157364423014, 33.326209301628602 ], [ 130.529305095735992, 33.326146988692997 ], [ 130.529490116496987, 33.326079179316302 ], [ 130.529665038090002, 33.326023762774398 ], [ 130.529697303137993, 33.326016100957801 ], [ 130.529861066995011, 33.3259771994164 ], [ 130.53004315335599, 33.3259480194749 ], [ 130.530384885638995, 33.325887950347401 ], [ 130.531383649323999, 33.325716198694103 ], [ 130.531477918136005, 33.3257023952822 ], [ 130.531514617389007, 33.325697038730297 ], [ 130.532264454231012, 33.3255618210408 ], [ 130.532574312319014, 33.325530898171699 ], [ 130.532880680765999, 33.325477206639697 ], [ 130.533246826120006, 33.3254180673297 ], [ 130.533722103548001, 33.325342993720803 ], [ 130.533929675682998, 33.325310379654098 ], [ 130.534062736854992, 33.325291929328401 ], [ 130.534224183935009, 33.325269497094801 ], [ 130.534520572953994, 33.325206182577901 ], [ 130.534784305178988, 33.3251776532477 ], [ 130.534873179832005, 33.325168018167098 ], [ 130.536389654455007, 33.324921215345697 ], [ 130.537241183361999, 33.324755584781101 ], [ 130.537450127825991, 33.3247149356093 ], [ 130.538300015624003, 33.324549607187699 ], [ 130.538904387455005, 33.324470509593702 ], [ 130.539995611503997, 33.324327690192398 ], [ 130.540055718546, 33.324322839005397 ], [ 130.541036978027989, 33.324244099191098 ], [ 130.541186907264006, 33.324248102657897 ], [ 130.541881186337008, 33.324266645344402 ], [ 130.542851803972013, 33.324444987476497 ], [ 130.542851803972013, 33.324444987476497 ], [ 130.542946939165006, 33.324465309167998 ], [ 130.543036668437992, 33.324484516837998 ], [ 130.543302258289003, 33.324572880139499 ], [ 130.543608316774993, 33.324656530543102 ], [ 130.544093128436998, 33.324842806981401 ], [ 130.544346840027998, 33.324989383398197 ], [ 130.544403493390007, 33.325019778902103 ], [ 130.54491203039899, 33.325292470426298 ], [ 130.545488662905001, 33.325615005384201 ], [ 130.545988467211004, 33.325914573758098 ], [ 130.546318516004987, 33.326099643303102 ], [ 130.54662414039899, 33.326294063751199 ], [ 130.546979337992013, 33.326558439818399 ], [ 130.547377499015994, 33.3268804583033 ], [ 130.547568177605996, 33.327015037049797 ], [ 130.547800556401995, 33.327183083966702 ], [ 130.548050748191997, 33.327329534001699 ], [ 130.548158002870991, 33.327392584331001 ], [ 130.549754901601005, 33.325803929386602 ], [ 130.550139623655014, 33.325435848839099 ], [ 130.550284056180004, 33.325291633469597 ], [ 130.550546798265998, 33.325049323826299 ], [ 130.550976810417012, 33.3246434689419 ], [ 130.554826291745997, 33.3209185324259 ], [ 130.55560652960699, 33.320059111023198 ], [ 130.555769173561004, 33.319870258579698 ], [ 130.556360234193988, 33.319177299073303 ], [ 130.556453389031986, 33.319057343109002 ], [ 130.556881986918, 33.318541539861897 ], [ 130.557167764556993, 33.318184933823503 ], [ 130.557573469245, 33.317673345213301 ], [ 130.557878605393, 33.317253965415198 ], [ 130.558172217123001, 33.316848423840497 ], [ 130.558181796129986, 33.316895727423997 ], [ 130.558392150126991, 33.317479312518302 ], [ 130.558571192973005, 33.318024287202398 ], [ 130.558632754145009, 33.3181879409657 ], [ 130.558777099890989, 33.318583409958002 ], [ 130.558982934418992, 33.319182685299701 ], [ 130.559136952886007, 33.319582238448199 ], [ 130.559230013269001, 33.319781402899302 ], [ 130.559920018514987, 33.320620247935402 ], [ 130.559935676895009, 33.320660211591502 ], [ 130.560150447913998, 33.321211365724999 ], [ 130.560159181714994, 33.321235031807703 ], [ 130.559596861883989, 33.321453830087698 ], [ 130.559015767375996, 33.321684781340203 ], [ 130.558648391660995, 33.321831280894699 ], [ 130.558828881825008, 33.322340789217499 ], [ 130.55883223323201, 33.322350135219999 ], [ 130.558999740995006, 33.322813314278001 ], [ 130.559147046735006, 33.323289418404897 ], [ 130.559150555460008, 33.323300736343299 ], [ 130.559302564450007, 33.323759491520399 ], [ 130.560416374988989, 33.323453879448998 ], [ 130.560424899705993, 33.323452218419199 ], [ 130.560933958843009, 33.323316581181203 ], [ 130.561155556066012, 33.3237891815849 ], [ 130.561293399377007, 33.324087764224203 ], [ 130.561367363102988, 33.324282035903003 ], [ 130.56118242934599, 33.324355631605599 ], [ 130.561074475747006, 33.324372262533103 ], [ 130.561036875951004, 33.324482977425497 ], [ 130.561016897563007, 33.324609990458796 ], [ 130.561010617011988, 33.324741774145302 ], [ 130.561034256187014, 33.3248473168901 ], [ 130.561088427982014, 33.324971882743299 ], [ 130.561142776189996, 33.325053193413098 ], [ 130.561196126890991, 33.325132107560002 ], [ 130.561324778291009, 33.325306248224798 ], [ 130.561374588706997, 33.3253548220165 ], [ 130.561412125716998, 33.3253914110797 ], [ 130.561527834272994, 33.325485480170599 ], [ 130.561543672553, 33.325523365516702 ], [ 130.561636298100012, 33.325744720197697 ], [ 130.561709562552011, 33.325919791715201 ], [ 130.561892556313012, 33.326378307804703 ], [ 130.562269752492, 33.327261458555299 ], [ 130.562254183732989, 33.327262213590103 ], [ 130.562267155439002, 33.327294241173 ], [ 130.562653871211012, 33.327296067711998 ], [ 130.56302969779901, 33.327302081381802 ], [ 130.563373686826992, 33.327298259321402 ], [ 130.563711925250999, 33.327303221871503 ], [ 130.563984816169011, 33.327328841191097 ], [ 130.564285317577998, 33.327337261949701 ], [ 130.564607678815008, 33.327337270093103 ], [ 130.564934607350011, 33.327355432468401 ], [ 130.565159402847002, 33.327375209651898 ], [ 130.565416756463009, 33.327386891578499 ], [ 130.565535153236993, 33.3273968531592 ], [ 130.565577345272004, 33.327400382839599 ], [ 130.565796771235995, 33.327419997505302 ], [ 130.565946242249993, 33.327442185267998 ], [ 130.56610645116001, 33.327464657655298 ], [ 130.56628757022699, 33.327501185303497 ], [ 130.566500866534, 33.327538636763101 ], [ 130.566686743172994, 33.327588776876702 ], [ 130.566948806021998, 33.327658240681203 ], [ 130.566952324591995, 33.327659168818599 ], [ 130.56699188330299, 33.327669204648998 ], [ 130.567032028728988, 33.327679383417397 ], [ 130.567116955426997, 33.3277042327544 ], [ 130.56735568821, 33.327773859594899 ], [ 130.567695457393995, 33.327868778837299 ], [ 130.567918123330003, 33.327937960002302 ], [ 130.568061465643012, 33.327977911457999 ], [ 130.568190511984, 33.327725245748198 ], [ 130.568331058913998, 33.327454937053901 ], [ 130.568419816243988, 33.327264085995701 ], [ 130.568605979038011, 33.326932083802298 ], [ 130.569063813293013, 33.325814865818003 ], [ 130.56913167570201, 33.325674136463498 ], [ 130.569246407885998, 33.325105988401504 ], [ 130.569214186631996, 33.324823944991898 ], [ 130.569049123906012, 33.324816326482399 ], [ 130.569047868967004, 33.324678914653497 ], [ 130.569038747742013, 33.324562608626302 ], [ 130.568965537090008, 33.324382536428502 ], [ 130.568889876599997, 33.324197382931999 ], [ 130.568768480097987, 33.323842680209097 ], [ 130.568671765429997, 33.323647274322703 ], [ 130.568621888908012, 33.323492080895299 ], [ 130.568972859355995, 33.3232513140522 ], [ 130.569147058229987, 33.323106268721602 ], [ 130.569394048666993, 33.3229614417939 ], [ 130.569831466486988, 33.322784410719201 ], [ 130.570078318334993, 33.322667796472402 ], [ 130.570283321069013, 33.322520495282198 ], [ 130.570430104963009, 33.322267250925002 ], [ 130.570666285095001, 33.322033127221403 ], [ 130.570789928338002, 33.321930172115898 ], [ 130.571171853278003, 33.321654280638498 ], [ 130.571814002465004, 33.3213910154942 ], [ 130.572385518928002, 33.321261389004803 ], [ 130.573426812435997, 33.321199201605801 ], [ 130.574305096312003, 33.321010272025099 ], [ 130.574210355166997, 33.3206309718746 ], [ 130.574119630256007, 33.3201766955507 ], [ 130.574038319233011, 33.319711288366697 ], [ 130.573988941394987, 33.319469310338597 ], [ 130.573919735039993, 33.319094576523398 ], [ 130.573809523866998, 33.319008113588502 ], [ 130.573497669240993, 33.318760059753302 ], [ 130.573273214696997, 33.318579190307801 ], [ 130.573141319459012, 33.318233196865798 ], [ 130.573069594830997, 33.317997305810799 ], [ 130.573000601008005, 33.317752371084502 ], [ 130.572871140574989, 33.317294690870497 ], [ 130.572744570458013, 33.316864002123502 ], [ 130.572603777099005, 33.316399449483299 ], [ 130.572487244357006, 33.315941354618197 ], [ 130.572349193762989, 33.315474132631401 ], [ 130.572269587021992, 33.315195170986499 ], [ 130.572158167850006, 33.3148073643396 ], [ 130.569571762397004, 33.314137041851602 ], [ 130.569528751252989, 33.314076608472199 ], [ 130.569342278888001, 33.313504396924202 ], [ 130.569000367515997, 33.312658874056503 ], [ 130.568955723037988, 33.312465051686303 ], [ 130.56870854507099, 33.3124813850321 ], [ 130.568388955937991, 33.312527118400297 ], [ 130.567907122236988, 33.312619129581698 ], [ 130.566876215895007, 33.3129071409126 ], [ 130.566611071247991, 33.3129751965201 ], [ 130.566511437837988, 33.3130051409874 ], [ 130.566435215557988, 33.313033452120202 ], [ 130.566249559861006, 33.313066391034198 ], [ 130.565596770473007, 33.3130840854922 ], [ 130.564312425048996, 33.312939807604302 ], [ 130.559755421570003, 33.312326218247001 ], [ 130.559605154787988, 33.311193228493103 ], [ 130.559311154564, 33.310122305453397 ], [ 130.558109020312997, 33.308214570663701 ], [ 130.554798795564011, 33.305043723798597 ], [ 130.553614083548013, 33.301942565875599 ], [ 130.554101906142989, 33.2992246971341 ], [ 130.557603775482988, 33.292412603044802 ], [ 130.557882531251011, 33.290182556897904 ], [ 130.557568931012014, 33.287882821808999 ], [ 130.55641906346699, 33.286105753785698 ], [ 130.553320083323996, 33.283723263078002 ], [ 130.550201503164999, 33.281998461761297 ], [ 130.547448789952995, 33.280221393738003 ], [ 130.544765765682001, 33.277817125235899 ], [ 130.542370208297996, 33.274785656254998 ], [ 130.540310028947005, 33.271055120073697 ], [ 130.539255983698013, 33.267614228558003 ], [ 130.538413939688013, 33.262921663774698 ], [ 130.538312567302, 33.262911829786397 ], [ 130.538223982447988, 33.262918263631697 ], [ 130.538095645362006, 33.262679306754102 ], [ 130.538041946575987, 33.262661284100602 ], [ 130.537893696894997, 33.262676301794201 ], [ 130.537875660140003, 33.262653974313999 ], [ 130.537767319348006, 33.262622150717803 ], [ 130.537677396258999, 33.2624058433911 ], [ 130.537831530160986, 33.262348596188502 ], [ 130.537902296905997, 33.262174557804997 ], [ 130.537981209311994, 33.262181649055798 ], [ 130.538004589901988, 33.262160478598403 ], [ 130.538012187591988, 33.262087382879201 ], [ 130.537964862591991, 33.261441842680803 ], [ 130.538245494037994, 33.261468534977503 ], [ 130.538152575448009, 33.260768741850697 ], [ 130.537365451641989, 33.2609149929729 ], [ 130.53719525663999, 33.260941552511802 ], [ 130.537047376181988, 33.260966519100599 ], [ 130.536919684292997, 33.260994945247504 ], [ 130.536973402220013, 33.261175417736801 ], [ 130.537006025065011, 33.261261996513198 ], [ 130.537206850762004, 33.261619276450702 ], [ 130.537072259402009, 33.261676118990003 ], [ 130.536971525290994, 33.261720442326997 ], [ 130.537011199162009, 33.261877035428398 ], [ 130.537145167796012, 33.261835250026799 ], [ 130.537291309766005, 33.2617350184222 ], [ 130.537572077697007, 33.261563328066799 ], [ 130.537699202092, 33.261825318508599 ], [ 130.537495812451994, 33.261944514239502 ], [ 130.537387017258993, 33.261999288287399 ], [ 130.537341075575, 33.262044694554497 ], [ 130.537289408412988, 33.262094890527003 ], [ 130.537213968598991, 33.262192549152999 ], [ 130.537139015818013, 33.262237689645303 ], [ 130.53724463584399, 33.262466577890201 ], [ 130.537118933430008, 33.2624757093079 ], [ 130.537010364629992, 33.262487297975497 ], [ 130.536936111518997, 33.262487021348299 ], [ 130.536853268623986, 33.2624939153282 ], [ 130.536670176554992, 33.262548411124499 ], [ 130.536593911544998, 33.262389797019502 ], [ 130.536560317909988, 33.262264909449399 ], [ 130.536521124550006, 33.262120823412097 ], [ 130.536499278887987, 33.261931204356799 ], [ 130.536491076694006, 33.261856798436497 ], [ 130.536491203650002, 33.261832812505503 ], [ 130.536488708862009, 33.261765631084899 ], [ 130.536492016317993, 33.261679274751998 ], [ 130.536266429325991, 33.261683224596098 ], [ 130.536278519532999, 33.261553717574301 ], [ 130.536301839787001, 33.261465040765898 ], [ 130.536302182956007, 33.261400265982601 ], [ 130.536297229926987, 33.261258702308403 ], [ 130.536368706530993, 33.261244580495401 ], [ 130.536332979930989, 33.260952391033797 ], [ 130.536225605416007, 33.260952518642597 ], [ 130.536071733788987, 33.260968762886499 ], [ 130.536045218694994, 33.261122221148199 ], [ 130.535972724888012, 33.261328272559702 ], [ 130.535870687270005, 33.261721338386103 ], [ 130.535736344268997, 33.261747218987999 ], [ 130.535768376159012, 33.261897284261202 ], [ 130.535759301739006, 33.261995612158003 ], [ 130.535850060602996, 33.262108718842001 ], [ 130.536031982792991, 33.262274932891799 ], [ 130.53606897324201, 33.262296661915499 ], [ 130.536274847695012, 33.262247044902999 ], [ 130.536434446050009, 33.262575130325502 ], [ 130.536200120246008, 33.262605444932703 ], [ 130.535974374728994, 33.262630984780898 ], [ 130.53583720172, 33.2626520665535 ], [ 130.535779881509995, 33.262692639983797 ], [ 130.535745064711989, 33.262790871727503 ], [ 130.535691873973008, 33.262859041422701 ], [ 130.535414996804008, 33.262841225304101 ], [ 130.535101097076989, 33.262799261758502 ], [ 130.535024066115994, 33.262777380824097 ], [ 130.534824238558997, 33.2627694294126 ], [ 130.534584358627995, 33.262763740979402 ], [ 130.534556762942998, 33.262583696853603 ], [ 130.534506011735999, 33.262461158415597 ], [ 130.534765823735995, 33.262471730487199 ], [ 130.534772266842992, 33.262339807103899 ], [ 130.534770279663007, 33.262169456793202 ], [ 130.534860310982992, 33.262158998480601 ], [ 130.534852595502002, 33.261993418771503 ], [ 130.53509265285399, 33.261965539800798 ], [ 130.535323898041014, 33.261978399537 ], [ 130.535277471428998, 33.262114963304199 ], [ 130.53522262154101, 33.262227525917503 ], [ 130.535365370421999, 33.262237657558501 ], [ 130.535416695119011, 33.262252239361203 ], [ 130.535459876029989, 33.262284559891498 ], [ 130.535631426521007, 33.261607692813101 ], [ 130.535531538604999, 33.261595308811202 ], [ 130.535417392661998, 33.261575702329203 ], [ 130.535427138631007, 33.2615483172385 ], [ 130.535460889592997, 33.261453499460202 ], [ 130.535481233073995, 33.261388799417396 ], [ 130.535544546745001, 33.261293069000899 ], [ 130.535638217707003, 33.261133891684203 ], [ 130.535647305827013, 33.2609067332547 ], [ 130.535539178209007, 33.260906329100102 ], [ 130.535539560291994, 33.260834334428601 ], [ 130.535245573630988, 33.260802555653498 ], [ 130.535422475339004, 33.259575710620602 ], [ 130.534728665981987, 33.259499727658003 ], [ 130.534629863085996, 33.259488913795799 ], [ 130.534621813412002, 33.259488883641303 ], [ 130.534621776085999, 33.259488018598098 ], [ 130.534517020230993, 33.259476549422899 ], [ 130.534136804051002, 33.259434916516298 ], [ 130.534274485813995, 33.2583797111511 ], [ 130.533529816991006, 33.258313974820602 ], [ 130.53346134863699, 33.258393269578598 ], [ 130.533298784469991, 33.258397060024897 ], [ 130.533289329760009, 33.258109865565302 ], [ 130.533273647985993, 33.258196896898902 ], [ 130.532995839102, 33.258190640131403 ], [ 130.532731446928011, 33.258184662158698 ], [ 130.532734213834999, 33.258098496489801 ], [ 130.532880147029999, 33.258092266379798 ], [ 130.532896026813006, 33.257787640675403 ], [ 130.532926539475994, 33.257427877949702 ], [ 130.532381068196003, 33.257440213845904 ], [ 130.532277898724004, 33.2575094096306 ], [ 130.532286001927986, 33.257593414190303 ], [ 130.532296738812988, 33.257718198825799 ], [ 130.532293588258995, 33.257955030135498 ], [ 130.532311841306012, 33.258022444629297 ], [ 130.530978664032006, 33.258153119209403 ], [ 130.531067242720013, 33.258374288407303 ], [ 130.531072127235007, 33.258706833865801 ], [ 130.530740876908993, 33.258705583122698 ], [ 130.530709246758988, 33.258685861472003 ], [ 130.530509564888007, 33.258707104406497 ], [ 130.530326685162009, 33.258730398743801 ], [ 130.530134669159992, 33.258854417380803 ], [ 130.52998556570401, 33.2589666226174 ], [ 130.529940127343991, 33.258925660200902 ], [ 130.529897422667005, 33.258899101053402 ], [ 130.529832025058994, 33.258850877195499 ], [ 130.529731095666989, 33.258767721812902 ], [ 130.529597302004987, 33.258683259453697 ], [ 130.529406695890003, 33.258552984080197 ], [ 130.529200553538999, 33.258652959980701 ], [ 130.529101804829992, 33.258429463376302 ], [ 130.529025544081009, 33.258273239729903 ], [ 130.528835430060013, 33.258051807688702 ], [ 130.528752586921001, 33.258051493489099 ], [ 130.528512371005007, 33.258056182650201 ], [ 130.528477617655, 33.258211175180101 ], [ 130.528433776832998, 33.258325608533497 ], [ 130.528390161007991, 33.258436924889203 ], [ 130.528377342872005, 33.258535890664902 ], [ 130.528185220798008, 33.258679101028903 ], [ 130.52810776273401, 33.258753181312599 ], [ 130.528021808699009, 33.258800829789003 ], [ 130.527958811632004, 33.258836572098502 ], [ 130.527895719096989, 33.258881927832299 ], [ 130.527941159654006, 33.258930075488102 ], [ 130.528120749041989, 33.258988347104101 ], [ 130.528328761814009, 33.259070699014003 ], [ 130.528388597781003, 33.259092517918297 ], [ 130.528341053919007, 33.2592094204158 ], [ 130.528298542980991, 33.259317640690199 ], [ 130.528330991164012, 33.259380795829799 ], [ 130.528406396266007, 33.2594619035644 ], [ 130.528438899729991, 33.2595689297817 ], [ 130.528392852691013, 33.259633531041601 ], [ 130.528289652056003, 33.259707513140697 ], [ 130.528192292697014, 33.259755137121203 ], [ 130.528386657667994, 33.259849710038097 ], [ 130.528816486257, 33.260020976419597 ], [ 130.529128280875, 33.260210322671597 ], [ 130.529225119352986, 33.260282493937297 ], [ 130.529386147444001, 33.260300487424203 ], [ 130.529552862619994, 33.2603132886087 ], [ 130.52966688786799, 33.260347305996802 ], [ 130.529640942422986, 33.260392787277503 ], [ 130.529461430053004, 33.260327330030698 ], [ 130.52941001423801, 33.260329530471402 ], [ 130.52936723159101, 33.260317375339199 ], [ 130.529324279586007, 33.260336409704102 ], [ 130.52926125706, 33.260376960020302 ], [ 130.529178113929987, 33.260431821480097 ], [ 130.529254686430988, 33.260530473347799 ], [ 130.529527279061995, 33.260821802037597 ], [ 130.529622482887987, 33.260909728785201 ], [ 130.529719945267004, 33.260842907547101 ], [ 130.529808721656991, 33.2607928734109 ], [ 130.529871810291013, 33.260740330837301 ], [ 130.529792402801007, 33.260646458458297 ], [ 130.529908833517993, 33.260536914203399 ], [ 130.529815901088, 33.260455442998897 ], [ 130.52989675443601, 33.260389510879698 ], [ 130.530031461871999, 33.260335264497797 ], [ 130.530108947891989, 33.260303099133601 ], [ 130.530238975478994, 33.260519228774399 ], [ 130.530234602115996, 33.260701425184898 ], [ 130.530328912416991, 33.260706077407598 ], [ 130.530594451896008, 33.260703066693303 ], [ 130.530878187332007, 33.2606998588506 ], [ 130.531280581710007, 33.260695318244601 ], [ 130.531129200983003, 33.2609974948572 ], [ 130.531115087692996, 33.261025672694601 ], [ 130.531074901723002, 33.2610919357924 ], [ 130.531126599414989, 33.261115272791002 ], [ 130.531126429410989, 33.261115517888399 ], [ 130.531220146276013, 33.261160604362701 ], [ 130.53163486957601, 33.261360125502101 ], [ 130.531617102847008, 33.261389647103201 ], [ 130.531420180596001, 33.261716853697301 ], [ 130.531366879442004, 33.261718835659103 ], [ 130.531179251760989, 33.261735263931598 ], [ 130.531119727595012, 33.261842329674003 ], [ 130.53114129848899, 33.261971453148803 ], [ 130.531300155633005, 33.261996022280798 ], [ 130.53137769120201, 33.261986047696702 ], [ 130.531524512736013, 33.261979750522798 ], [ 130.53166386148601, 33.261983040482598 ], [ 130.531710185702991, 33.261968403621601 ], [ 130.531935611604013, 33.261995424906701 ], [ 130.532053993521998, 33.2620855325018 ], [ 130.532151052001012, 33.262211856455998 ], [ 130.532269286125995, 33.262274912973901 ], [ 130.532323203047014, 33.2623380585635 ], [ 130.532184393962012, 33.262500375764297 ], [ 130.532034626557987, 33.2626495632109 ], [ 130.531916869827, 33.262560074363002 ], [ 130.531664440058989, 33.2624940489967 ], [ 130.531505074357995, 33.262376346764498 ], [ 130.531441985333998, 33.262381937749403 ], [ 130.531336501173001, 33.262365337520102 ], [ 130.531132719775002, 33.262383360259399 ], [ 130.530950347332009, 33.262365358813902 ], [ 130.530724074492014, 33.262371373328698 ], [ 130.530654128289996, 33.262373238983898 ], [ 130.53060712305799, 33.262374487921697 ], [ 130.530328140646986, 33.2623655433053 ], [ 130.529898770361001, 33.262293454924198 ], [ 130.529876913280987, 33.262194288911502 ], [ 130.530045913076009, 33.262102606380402 ], [ 130.530036653612001, 33.261554545817901 ], [ 130.529865441735012, 33.261543613239901 ], [ 130.529841641637006, 33.261423656979197 ], [ 130.529588738638012, 33.261446669130201 ], [ 130.529612854285006, 33.261133359749003 ], [ 130.529290704022998, 33.2611458419684 ], [ 130.529189315916994, 33.261046127978801 ], [ 130.529103260602994, 33.261127995322802 ], [ 130.529002093848987, 33.260987193791202 ], [ 130.528827146270999, 33.2609146047593 ], [ 130.528484804573992, 33.260892750971401 ], [ 130.52829821156601, 33.260717369736902 ], [ 130.527865416873993, 33.260877947485497 ], [ 130.527704886517, 33.260977177750803 ], [ 130.527568644234009, 33.261058819073099 ], [ 130.527330260333002, 33.260660589995503 ], [ 130.527101802065005, 33.260683690120601 ], [ 130.527033017717997, 33.260587533911 ], [ 130.526915878388991, 33.260385010063402 ], [ 130.526830859217, 33.260275071260601 ], [ 130.526700316534999, 33.2602951271653 ], [ 130.526577871652989, 33.260322062562501 ], [ 130.526382031883998, 33.260345303839998 ], [ 130.526357992785989, 33.260263000529001 ], [ 130.526329908966005, 33.260184117183499 ], [ 130.526199264512002, 33.259835961884498 ], [ 130.525922202201002, 33.259807501561603 ], [ 130.525840785345991, 33.259783221246302 ], [ 130.525767751473012, 33.2597212840043 ], [ 130.525650095755992, 33.259614670352398 ], [ 130.525512178067999, 33.259487411431103 ], [ 130.52540691515, 33.259353421736101 ], [ 130.525313816916992, 33.259226333808897 ], [ 130.525253171613002, 33.259137057055597 ], [ 130.525037257664991, 33.259105391680102 ], [ 130.524678354413993, 33.259131425404398 ], [ 130.524507262947992, 33.259106801102199 ], [ 130.524316203210986, 33.259006738607503 ], [ 130.524225181381013, 33.259246139084802 ], [ 130.524008663784002, 33.259471689197099 ], [ 130.523599864782994, 33.2599065080164 ], [ 130.523505076828997, 33.260097952077601 ], [ 130.523430806280999, 33.260255224326301 ], [ 130.523422469264005, 33.260346578857003 ], [ 130.523581636193995, 33.260259236587601 ], [ 130.523952580653003, 33.260270942483501 ], [ 130.523873668351001, 33.260534375396098 ], [ 130.523681928424992, 33.260851639663102 ], [ 130.523565158558995, 33.261122130375 ], [ 130.523522745348004, 33.261257419882703 ], [ 130.523504079013009, 33.261397782933003 ], [ 130.523564933744012, 33.261456242411697 ], [ 130.523743980031014, 33.261522021702802 ], [ 130.523804829050988, 33.2615736287012 ], [ 130.523792177208009, 33.261648940291501 ], [ 130.523702534692006, 33.261641745645697 ], [ 130.523661874892014, 33.2616244535159 ], [ 130.52358034677701, 33.261620723086203 ], [ 130.523532635197, 33.261604848582301 ], [ 130.523432035537013, 33.261607844135902 ], [ 130.523323374883006, 33.2616437068557 ], [ 130.523269273223008, 33.261692866630703 ], [ 130.523190916668995, 33.261799609600303 ], [ 130.523113835163997, 33.261910849509199 ], [ 130.523088190325012, 33.261938929864698 ], [ 130.523089335750001, 33.261974984975701 ], [ 130.522966714614, 33.262087193053098 ], [ 130.522927726900008, 33.262101696305201 ], [ 130.522843201952014, 33.262109245759703 ], [ 130.522829988158009, 33.262072014936898 ], [ 130.522862759016988, 33.261967351975898 ], [ 130.522905809473002, 33.261938229528901 ], [ 130.523014029836986, 33.261914076724501 ], [ 130.523064383475997, 33.261883623957303 ], [ 130.523061878208011, 33.261850945081797 ], [ 130.523070222804989, 33.261796891967798 ], [ 130.523078352520997, 33.261782270199298 ], [ 130.523106878096996, 33.261710260947801 ], [ 130.523167026266009, 33.261628807171199 ], [ 130.523288836810991, 33.261426457888 ], [ 130.523172432314993, 33.261375307478502 ], [ 130.523120237278988, 33.261351452901202 ], [ 130.523062730014999, 33.261325307643702 ], [ 130.522983751416007, 33.261292335166701 ], [ 130.52324024932301, 33.260863453015702 ], [ 130.523343930256999, 33.260671742271697 ], [ 130.523399507546998, 33.260559293462798 ], [ 130.523406313875, 33.260541285150097 ], [ 130.523265934003007, 33.260458498572099 ], [ 130.523038924053992, 33.260277335242598 ], [ 130.522915549067989, 33.2601823756032 ], [ 130.52286532109099, 33.260143719205601 ], [ 130.522940719286993, 33.259964156544299 ], [ 130.523090754761, 33.259759908569102 ], [ 130.523136487403008, 33.259638422188601 ], [ 130.523132350942006, 33.259512675512397 ], [ 130.52311010791999, 33.259278178348602 ], [ 130.523206845776002, 33.259244753259701 ], [ 130.523295448406003, 33.259196326343798 ], [ 130.523368777277994, 33.259157790302197 ], [ 130.523457098149009, 33.259099235982497 ], [ 130.523546599950009, 33.259255285270001 ], [ 130.523582026355001, 33.259309294913102 ], [ 130.523724509157006, 33.259244484582801 ], [ 130.523648038461999, 33.259005322159297 ], [ 130.523726078593, 33.2589560442877 ], [ 130.523793367183004, 33.258917979062197 ], [ 130.523860515595004, 33.258897965855098 ], [ 130.523935865849012, 33.258857695304997 ], [ 130.524163486443996, 33.258679402430403 ], [ 130.524136948408994, 33.258625233261803 ], [ 130.524038594395989, 33.258462598893701 ], [ 130.523956212108004, 33.258315805777002 ], [ 130.523733237086986, 33.258133532020899 ], [ 130.523635318407997, 33.258060508698101 ], [ 130.523506923597012, 33.257994659685899 ], [ 130.523351702350993, 33.257935470539898 ], [ 130.523276806675995, 33.257892367368001 ], [ 130.523216816098, 33.257830161968599 ], [ 130.523166756529008, 33.257660950986903 ], [ 130.523092173180999, 33.257568273753797 ], [ 130.522974463331991, 33.257511481056603 ], [ 130.52277640494799, 33.257427346721499 ], [ 130.522578758594989, 33.257275602111498 ], [ 130.522453664889014, 33.257097083585798 ], [ 130.522198459121995, 33.2569214650417 ], [ 130.522062018565009, 33.256855600354797 ], [ 130.521965849006989, 33.256785363438702 ], [ 130.521853482289998, 33.256733099644599 ], [ 130.52173584731301, 33.2566627815903 ], [ 130.52143941846299, 33.256505564784597 ], [ 130.521327200159988, 33.256426284126199 ], [ 130.521267998912009, 33.256457598105499 ], [ 130.521109050346013, 33.256589937140603 ], [ 130.521178347144996, 33.256682807350003 ], [ 130.521258088621011, 33.256797838399898 ], [ 130.521249521600993, 33.256892450634098 ], [ 130.52100176210601, 33.257080784999502 ], [ 130.521039046309994, 33.257139735463703 ], [ 130.521187637775995, 33.257421796760298 ], [ 130.521270675165994, 33.2574401330412 ], [ 130.521327350386997, 33.257472441403898 ], [ 130.521364825715011, 33.257503757206798 ], [ 130.521391266031003, 33.257544930762798 ], [ 130.521527574959009, 33.257796054174399 ], [ 130.521615671234002, 33.257870748311397 ], [ 130.521749950127997, 33.257841977548701 ], [ 130.521849258044995, 33.257828834003099 ], [ 130.521956309079997, 33.257872059599002 ], [ 130.521767575029003, 33.2580538794668 ], [ 130.521807588790011, 33.258096847102003 ], [ 130.521852741098002, 33.258173633092298 ], [ 130.521919685162999, 33.258198688081002 ], [ 130.521852145762011, 33.258297792497899 ], [ 130.521685713166988, 33.258326441206599 ], [ 130.521659327158005, 33.258229227902603 ], [ 130.521581736569004, 33.258188369813197 ], [ 130.521307883191014, 33.2582413999531 ], [ 130.521145759008988, 33.258210360185402 ], [ 130.520950639532003, 33.258332413467798 ], [ 130.520876475709997, 33.258400867169001 ], [ 130.520682703846006, 33.258521798058403 ], [ 130.520319736126993, 33.258678145893803 ], [ 130.520153369557988, 33.2586865205718 ], [ 130.520053985037009, 33.258713170093003 ], [ 130.519900726299994, 33.258800690478701 ], [ 130.519705353167012, 33.258961063890602 ], [ 130.519530401916001, 33.259059312979403 ], [ 130.519524775727007, 33.259106614769998 ], [ 130.519615813418, 33.2591340184891 ], [ 130.519688403687013, 33.259100484662703 ], [ 130.519790996051, 33.2589859641921 ], [ 130.519960647203987, 33.2588604139426 ], [ 130.52006270276101, 33.2588360291223 ], [ 130.520097226124989, 33.258901500940397 ], [ 130.520069936865013, 33.258984787903998 ], [ 130.520042808274013, 33.2590615228141 ], [ 130.520101403875003, 33.259133851094703 ], [ 130.520114683966, 33.259158699722398 ], [ 130.520101156771005, 33.259178919670902 ], [ 130.519993440228006, 33.259241394982702 ], [ 130.519837399786013, 33.259324165307497 ], [ 130.519785877239997, 33.259429882 ], [ 130.519696564366996, 33.2595692511156 ], [ 130.519685200754992, 33.259684142440499 ], [ 130.519748881055989, 33.259815085051301 ], [ 130.519807081235001, 33.259959533080497 ], [ 130.51993084560101, 33.260150657648502 ], [ 130.520124237618006, 33.260337103596399 ], [ 130.520410898801998, 33.260396804438997 ], [ 130.520731261035991, 33.260679723323499 ], [ 130.521141410452003, 33.260721865348899 ], [ 130.521140572079986, 33.260875100717399 ], [ 130.521142897858994, 33.260940451144101 ], [ 130.521097076925997, 33.260985360518802 ], [ 130.521019286860991, 33.260980551953899 ], [ 130.520587980735002, 33.2608819862646 ], [ 130.520499680043997, 33.260836559377402 ], [ 130.520371523258007, 33.260734674925203 ], [ 130.520181769329014, 33.260603244838002 ], [ 130.520002680721007, 33.260492126236997 ], [ 130.519786421807993, 33.260308746400398 ], [ 130.519655776227012, 33.260164018230803 ], [ 130.519490064444, 33.260052952293599 ], [ 130.51940190594101, 33.259989526284599 ], [ 130.519308393584993, 33.259923806482497 ], [ 130.519190607790989, 33.2598805370463 ], [ 130.519134507534005, 33.259835251189301 ], [ 130.519045594262991, 33.259909263396402 ], [ 130.518929994653007, 33.2599797018487 ], [ 130.518716515721991, 33.260145411919503 ], [ 130.518532437700003, 33.260179764587001 ], [ 130.518258294829991, 33.260222554305301 ], [ 130.518167330817988, 33.260074844176501 ], [ 130.518291499356991, 33.260001884328403 ], [ 130.518362127241005, 33.259967093811902 ], [ 130.518560929713999, 33.259862687824899 ], [ 130.518707546564997, 33.259755893262302 ], [ 130.518942768828992, 33.259669151973803 ], [ 130.519032271890012, 33.259518301865498 ], [ 130.519035340833994, 33.259432861083603 ], [ 130.519000617680007, 33.259350569011303 ], [ 130.51876244998499, 33.259027526904298 ], [ 130.518599109704013, 33.2588516050075 ], [ 130.518518622734007, 33.258781180769603 ], [ 130.518419656806998, 33.258754502827998 ], [ 130.518252680637005, 33.2587669931875 ], [ 130.517719331951014, 33.258997187109202 ], [ 130.517717859724996, 33.258998061429303 ], [ 130.517717859724996, 33.258998061429303 ], [ 130.517667562903, 33.258926873825096 ], [ 130.517582022862001, 33.2588301350671 ], [ 130.517488708489992, 33.258728981835901 ], [ 130.51740909339199, 33.258736333666398 ], [ 130.517278476580998, 33.258777460284598 ], [ 130.51720597708001, 33.258680771950402 ], [ 130.517175942042002, 33.258653302554897 ], [ 130.517140878568995, 33.258662995260799 ], [ 130.517003500594996, 33.2585090801308 ], [ 130.516889441139995, 33.258383735902697 ], [ 130.516942149870005, 33.258283146219902 ], [ 130.517086063596992, 33.257967065073103 ], [ 130.517227119132002, 33.257925979197502 ], [ 130.517436847014011, 33.257725210765301 ], [ 130.517361407266009, 33.257689871461402 ], [ 130.51715857149199, 33.257583906580003 ], [ 130.517059654455011, 33.257548456033298 ], [ 130.516788906849001, 33.257464134427302 ], [ 130.516702666181999, 33.257494479134003 ], [ 130.516579655279003, 33.257570683079997 ], [ 130.516417565554008, 33.257640182674102 ], [ 130.516132405398992, 33.257796835396299 ], [ 130.51609151311601, 33.257647663321698 ], [ 130.516061000770009, 33.2575095037719 ], [ 130.516030641138997, 33.257336280415302 ], [ 130.516002463901998, 33.257010795676003 ], [ 130.516135459270998, 33.257009111715703 ], [ 130.516148127744003, 33.256605992861999 ], [ 130.516513146765988, 33.256624935936202 ], [ 130.516620058996011, 33.256631923880398 ], [ 130.516739952909006, 33.256641158742902 ], [ 130.516844288700014, 33.256643768213799 ], [ 130.516912032015995, 33.256652783576598 ], [ 130.516932507431989, 33.2566502214327 ], [ 130.516945974634012, 33.256648529684398 ], [ 130.516955071468004, 33.2566485650541 ], [ 130.516955146212013, 33.256635021373903 ], [ 130.516953347173001, 33.256535825114398 ], [ 130.516962871379008, 33.256518954883703 ], [ 130.517005038372986, 33.256444427471699 ], [ 130.51700315678201, 33.256443873642702 ], [ 130.516985425745986, 33.256351784516198 ], [ 130.516784565188004, 33.256359757032797 ], [ 130.516749544384993, 33.2563999692916 ], [ 130.516729420642008, 33.2564230851128 ], [ 130.516623337101009, 33.256273677735898 ], [ 130.516464125623003, 33.256292782230098 ], [ 130.516458130159009, 33.256437371554 ], [ 130.516358827230988, 33.2564720472229 ], [ 130.515762170214998, 33.256597918851298 ], [ 130.515591869280996, 33.256651270118297 ], [ 130.515578557970997, 33.2566554455804 ], [ 130.515580209337998, 33.256660312305002 ], [ 130.51559406778901, 33.256701560164601 ], [ 130.515617286733999, 33.256770724428598 ], [ 130.515542075640013, 33.256785489742001 ], [ 130.515452603102005, 33.256801748669197 ], [ 130.515434390052008, 33.256812509393697 ], [ 130.515215707174008, 33.2569416643476 ], [ 130.515210171353999, 33.256934052093499 ], [ 130.515186830142994, 33.256902030956802 ], [ 130.515185248260991, 33.256899878905401 ], [ 130.515187567683, 33.256897314443599 ], [ 130.515285015703995, 33.256789188856203 ], [ 130.515289044937987, 33.256780697563698 ], [ 130.515311313554008, 33.256733743529701 ], [ 130.515336647519007, 33.256724121792402 ], [ 130.515575240154988, 33.256633524208503 ], [ 130.515559279607999, 33.256434625598999 ], [ 130.515557199266993, 33.256408674865398 ], [ 130.515632890401008, 33.256398016040002 ], [ 130.515677289758003, 33.256322404772803 ], [ 130.515756348292001, 33.256187701995401 ], [ 130.515785595929003, 33.256137851519 ], [ 130.515814221233001, 33.256146733169203 ], [ 130.515884404064991, 33.256147006662601 ], [ 130.515887253563989, 33.256147017765798 ], [ 130.515887682757011, 33.256145100860699 ], [ 130.51591132458401, 33.256039751016701 ], [ 130.515930056884997, 33.255949985477798 ], [ 130.515723757373991, 33.255940572144297 ], [ 130.515672429803999, 33.255905217408802 ], [ 130.515634117810009, 33.255842879944304 ], [ 130.515628010867999, 33.255787433130898 ], [ 130.515324632473011, 33.255782181159503 ], [ 130.515309771606013, 33.255641880458803 ], [ 130.515479584001014, 33.255585570511101 ], [ 130.515464782795988, 33.255434333720601 ], [ 130.515420086422012, 33.255389829035799 ], [ 130.515294713411009, 33.255355525481797 ], [ 130.51517552008599, 33.255371300646402 ], [ 130.515107637743995, 33.255418339739499 ], [ 130.515083768862013, 33.2554810516515 ], [ 130.515080597815995, 33.255584013936399 ], [ 130.514910260078011, 33.255727975938903 ], [ 130.51480276606901, 33.255826164794698 ], [ 130.514737248365009, 33.255885065045703 ], [ 130.514924028086995, 33.2560654714325 ], [ 130.514813112734998, 33.256099875426699 ], [ 130.514730979527002, 33.256077855359699 ], [ 130.514776974335007, 33.256251140075399 ], [ 130.514856357232986, 33.256512209798402 ], [ 130.514442471584999, 33.256603722591798 ], [ 130.514508768823987, 33.2568734949404 ], [ 130.514539380508012, 33.257000699081402 ], [ 130.514737268862007, 33.257060630509798 ], [ 130.514907059465997, 33.257008705548998 ], [ 130.514925229038994, 33.257028502171302 ], [ 130.514943271689987, 33.257063637004002 ], [ 130.514951039994997, 33.257076805677897 ], [ 130.514958752214, 33.257092175597599 ], [ 130.514999827205997, 33.257155018274602 ], [ 130.515125268442006, 33.257404483726503 ], [ 130.515289512469991, 33.257687739945901 ], [ 130.515500628057993, 33.258062741002 ], [ 130.514995931935005, 33.258296609585798 ], [ 130.514919274692005, 33.258435636573402 ], [ 130.514712032674993, 33.258867689004397 ], [ 130.514688587422, 33.259133867825298 ], [ 130.514642421242002, 33.259331079541703 ], [ 130.514569839426997, 33.259499110515897 ], [ 130.514511569136999, 33.259550257805202 ], [ 130.514414913232997, 33.259560693041699 ], [ 130.514099255736994, 33.259582441972199 ], [ 130.513859359061001, 33.259581503339199 ], [ 130.513610025672989, 33.259588822958598 ], [ 130.513417425200998, 33.259715453041501 ], [ 130.513145264265006, 33.2600501543658 ], [ 130.512771336140986, 33.2602433151485 ], [ 130.512669990151011, 33.260147391145402 ], [ 130.512542794557987, 33.260017517029802 ], [ 130.512687946161009, 33.259904648475299 ], [ 130.512641873322991, 33.259858363027703 ], [ 130.512551363114, 33.2597588187623 ], [ 130.512194494522987, 33.260028108603898 ], [ 130.512118836892, 33.260122351081002 ], [ 130.511856627335987, 33.260235319801701 ], [ 130.511781281449998, 33.260304117130502 ], [ 130.511679445144011, 33.2603781768861 ], [ 130.51163923617699, 33.260401072519301 ], [ 130.511575121086992, 33.260432663476699 ], [ 130.511433128209006, 33.260408224142601 ], [ 130.511316422599009, 33.260517237159597 ], [ 130.511426877351994, 33.260678872089201 ], [ 130.511498500212014, 33.2607896143586 ], [ 130.511531342072004, 33.2608474570496 ], [ 130.511547753911998, 33.260881354211101 ], [ 130.511557040219998, 33.260915240961801 ], [ 130.511528450400988, 33.260937000608003 ], [ 130.511438324799002, 33.260956565521603 ], [ 130.51136136547899, 33.260848268964097 ], [ 130.511357121402995, 33.260834831054197 ], [ 130.511338053164991, 33.260810909250303 ], [ 130.511203288697999, 33.260625245388603 ], [ 130.511074960965999, 33.260698374828003 ], [ 130.511025495904988, 33.260644448477898 ], [ 130.511216209127014, 33.260436234664297 ], [ 130.511420704106001, 33.260297714701899 ], [ 130.511776532335006, 33.259997600392502 ], [ 130.511882869614993, 33.259927711289301 ], [ 130.511882415376988, 33.259926582355398 ], [ 130.512012054075001, 33.259821386830097 ], [ 130.511705777044, 33.259521647285297 ], [ 130.511599060832992, 33.259644352250099 ], [ 130.511488563357005, 33.259813359915398 ], [ 130.511407524600003, 33.259902596127802 ], [ 130.511186305089012, 33.260062942172297 ], [ 130.511095858617011, 33.2601402026161 ], [ 130.510898458084995, 33.260276760959101 ], [ 130.510664568440006, 33.2605883070269 ], [ 130.51055493867301, 33.2606993202388 ], [ 130.51052628962799, 33.260739013076197 ], [ 130.510431427160995, 33.26075853823 ], [ 130.510359532669014, 33.260816814271102 ], [ 130.510474532736993, 33.260675122472001 ], [ 130.510569974702008, 33.2605520945378 ], [ 130.510751247635994, 33.260337874989702 ], [ 130.510567416357986, 33.2601699651606 ], [ 130.510577895957994, 33.259982932266396 ], [ 130.510636015838003, 33.259764230799398 ], [ 130.510099847154009, 33.259901425814 ], [ 130.510042972968989, 33.2599051816902 ], [ 130.509962501502997, 33.259892923459603 ], [ 130.509934569242006, 33.259805247345298 ], [ 130.509852995238987, 33.259136211006101 ], [ 130.509744031888005, 33.259135780921802 ], [ 130.509852995238987, 33.259136211006101 ], [ 130.509900436555, 33.2591244558485 ], [ 130.509900436555, 33.2591244558485 ], [ 130.510114048518005, 33.259057617426699 ], [ 130.510127641858986, 33.259175529071101 ], [ 130.510149316324004, 33.2592205579612 ], [ 130.510212309644999, 33.259276934845602 ], [ 130.510236013559989, 33.2594460664696 ], [ 130.510229164186001, 33.259651180499702 ], [ 130.510372337902993, 33.2594646564242 ], [ 130.510420314034008, 33.259357378392899 ], [ 130.510487175473997, 33.259262097880502 ], [ 130.510624610650012, 33.259254678903197 ], [ 130.510762062856998, 33.259251240084602 ], [ 130.510835897003005, 33.259265584990999 ], [ 130.510893068222998, 33.259118418897103 ], [ 130.51135325109999, 33.259012746841996 ], [ 130.511363013779004, 33.258961040963399 ], [ 130.511439680833007, 33.258806111316503 ], [ 130.511501736446007, 33.2587227713177 ], [ 130.511530717705995, 33.258623360993099 ], [ 130.511571485090997, 33.258537948221402 ], [ 130.511602823040988, 33.258436573528599 ], [ 130.511953817840009, 33.258370270088399 ], [ 130.511954417160013, 33.258262807463097 ], [ 130.511959576495997, 33.258187184352501 ], [ 130.512083904341011, 33.257980701040402 ], [ 130.512254365257007, 33.257997290850803 ], [ 130.512248964151013, 33.258116693536202 ], [ 130.51229144487499, 33.258144723691998 ], [ 130.512502428624998, 33.258119661504601 ], [ 130.512495102501987, 33.257733530701401 ], [ 130.512315145604987, 33.257720885849203 ], [ 130.512286923109997, 33.257684953388903 ], [ 130.512615200883999, 33.257435466373501 ], [ 130.512613626975991, 33.2577180753213 ], [ 130.513168749226992, 33.2575769630607 ], [ 130.513108426607005, 33.257349836060101 ], [ 130.513374323819988, 33.257204910882002 ], [ 130.513660021042, 33.257065435301399 ], [ 130.513619857944008, 33.257201153007799 ], [ 130.51360732752201, 33.257426885590299 ], [ 130.513647672561007, 33.257507177395603 ], [ 130.51367076187401, 33.257614750980203 ], [ 130.513665293863994, 33.257746079392298 ], [ 130.513906544191997, 33.2577592637425 ], [ 130.51378461856001, 33.257391054542403 ], [ 130.513862047477005, 33.2573616278776 ], [ 130.513886511211012, 33.257304943981502 ], [ 130.513872561174992, 33.257204836133297 ], [ 130.513826382744014, 33.257118148327997 ], [ 130.513752735920008, 33.257039434025998 ], [ 130.514112477737996, 33.256989556734801 ], [ 130.514110563802006, 33.256903974460599 ], [ 130.514049705493989, 33.256772370070301 ], [ 130.513931005718007, 33.256819668151103 ], [ 130.513727076626992, 33.256858672053497 ], [ 130.513626251972994, 33.256669215594599 ], [ 130.513873656442001, 33.256487077067398 ], [ 130.513949851277005, 33.2564157279566 ], [ 130.513629238179988, 33.256131859647198 ], [ 130.513562626093005, 33.256183341540002 ], [ 130.513481467698, 33.256242429182201 ], [ 130.512925241737008, 33.256621278703498 ], [ 130.513198671272988, 33.256878494616998 ], [ 130.513288390692992, 33.256938550951503 ], [ 130.513183702529005, 33.257021742486003 ], [ 130.513112353373003, 33.2570732055501 ], [ 130.512660327936004, 33.257417733396103 ], [ 130.512584994386003, 33.257333853774902 ] ] ] ] } }
]
}
