{
"type": "FeatureCollection",
"name": "八幡北部(¥17400)",
"crs": { "type": "name", "properties": { "name": "urn:ogc:def:crs:EPSG::4612" } },
"features": [
{ "type": "Feature", "properties": { "KEY_CODE": "401090910101", "PREF": "40", "CITY": "109", "K_AREA": "104101040", "S_AREA": "0910101", "PREF_NAME": "福岡県", "CITY_NAME": "北九州市八幡西区", "S_NAME": "本城学研台一丁目", "KIGO_E": null, "HCODE": 8101, "AREA": 9286.459, "PERIMETER": 441.102, "KIHON1": "1041", "DUMMY1": "-", "KIHON2": "01", "KIHON3": "040", "C1": 38, "C2": 910, "DUMMY2": "-", "C3": 1, "DUMMY3": "-", "C4": 1, "KIGO_A": null, "KIGO_D": null, "N_KEN": null, "N_CITY": null, "N_C1": 0, "KIGO_I": null, "KEYCODE1": "1090910-1-01", "JINKO": 25, "SETAI": 22, "KEN_OLD": "40", "CITY_OLD": "109", "X_CODE": 130.718509, "Y_CODE": 33.890369, "KCODE1": "1041-01040", "CCODE1": "910-1- 1", "layer": "融合ポリゴンの出力", "path": "MultiPolygon?crs=EPSG:4612&field=KEY_CODE:string(12,0)&field=PREF:string(2,0)&field=CITY:string(3,0)&field=K_AREA:string(9,0)&field=S_AREA:string(7,0)&field=PREF_NAME:string(12,0)&field=CITY_NAME:string(16,0)&field=S_NAME:string(96,0)&field=KIGO_E:string(3,0)&field=HCODE:integer(4,0)&field=AREA:double(14,3)&field=PERIMETER:double(14,3)&field=KIHON1:string(4,0)&field=DUMMY1:string(1,0)&field=KIHON2:string(2,0)&field=KIHON3:string(3,0)&field=C1:integer(3,0)&field=C2:integer(4,0)&field=DUMMY2:string(1,0)&field=C3:integer(1,0)&field=DUMMY3:string(1,0)&field=C4:integer(2,0)&field=KIGO_A:string(2,0)&field=KIGO_D:string(2,0)&field=N_KEN:string(2,0)&field=N_CITY:string(3,0)&field=N_C1:integer(3,0)&field=KIGO_I:string(1,0)&field=KEYCODE1:string(12,0)&field=JINKO:integer(4,0)&field=SETAI:integer(4,0)&field=KEN_OLD:string(2,0)&field=CITY_OLD:string(3,0)&field=X_CODE:double(14,6)&field=Y_CODE:double(14,6)&field=KCODE1:string(10,0)&field=CCODE1:string(9,0)&uid={70c1b6cc-0cee-4123-af1a-1c40fbd9e4f9}" }, "geometry": { "type": "MultiPolygon", "coordinates": [ [ [ [ 130.703324035671557, 33.858758385967541 ], [ 130.703125092264116, 33.858781008733061 ], [ 130.702934701762643, 33.858802669469462 ], [ 130.702698216117142, 33.858810340507233 ], [ 130.702485811858224, 33.858800952322603 ], [ 130.70240267689374, 33.858797300190808 ], [ 130.702181110485611, 33.858763870519674 ], [ 130.701836510370754, 33.858697247711532 ], [ 130.701521513281449, 33.858610199853857 ], [ 130.701181975876864, 33.858502516768141 ], [ 130.700633022426643, 33.858249016390467 ], [ 130.700253616369167, 33.858073822778401 ], [ 130.70023562211378, 33.858101040856667 ], [ 130.70021017862544, 33.858139579413681 ], [ 130.70012122293403, 33.858370618275089 ], [ 130.7000449343046, 33.858486232280839 ], [ 130.700086380181034, 33.85849762743478 ], [ 130.7000449343046, 33.858486232280846 ], [ 130.699965710707772, 33.858595997822668 ], [ 130.699920871990628, 33.858700352125986 ], [ 130.699803477346023, 33.858799456232674 ], [ 130.699767525667994, 33.858909322259343 ], [ 130.699745654425442, 33.859097483752727 ], [ 130.699659328851737, 33.85922181357698 ], [ 130.699515095443786, 33.859390236116944 ], [ 130.699549360800034, 33.85941877667446 ], [ 130.699708786849385, 33.859487701148808 ], [ 130.699744217944016, 33.859503003494098 ], [ 130.699836027743686, 33.859536895522851 ], [ 130.700052564039851, 33.85960884936668 ], [ 130.700060092662738, 33.859616969892045 ], [ 130.699971535781401, 33.860175197217629 ], [ 130.699931240275333, 33.860604006669789 ], [ 130.699579192894362, 33.860698171712194 ], [ 130.69944238042811, 33.860753908692978 ], [ 130.699313607906817, 33.860846574379543 ], [ 130.699182053346846, 33.861016575809913 ], [ 130.699126198744239, 33.861173450448625 ], [ 130.699125866263216, 33.861346942914373 ], [ 130.699139535315368, 33.861590907499341 ], [ 130.699141659146306, 33.861617750764871 ], [ 130.699174356532467, 33.862033636573429 ], [ 130.699168434628518, 33.862266354020477 ], [ 130.699160917637812, 33.862284651660644 ], [ 130.699119954538389, 33.862384222822172 ], [ 130.698799019484625, 33.862736060771375 ], [ 130.698673050767553, 33.862846836832468 ], [ 130.698663220147409, 33.862857237324867 ], [ 130.698341181942368, 33.863197448421268 ], [ 130.698131729578506, 33.863396845345029 ], [ 130.69789686445128, 33.863648725678402 ], [ 130.697942418204093, 33.863673207861389 ], [ 130.697797984281181, 33.863721455435197 ], [ 130.697569829775148, 33.863614531856108 ], [ 130.697342984792868, 33.863501836478953 ], [ 130.697332385990791, 33.863496597303417 ], [ 130.697235447264006, 33.863444020860982 ], [ 130.697226953579047, 33.863410470091175 ], [ 130.697282293070771, 33.86331685326207 ], [ 130.697284813686224, 33.863260648568065 ], [ 130.69680966725835, 33.863063442053459 ], [ 130.696535249322125, 33.862962249879558 ], [ 130.696449387709663, 33.862953092120534 ], [ 130.696432444198706, 33.862951286550725 ], [ 130.69641426740688, 33.862975546136362 ], [ 130.696358106795486, 33.863050423037009 ], [ 130.696322045450586, 33.863136060788143 ], [ 130.696290199616556, 33.863211702645749 ], [ 130.696287901757245, 33.863303800212471 ], [ 130.696225235835442, 33.863424787995001 ], [ 130.696117373362881, 33.863624955528714 ], [ 130.696067614834732, 33.863746803337563 ], [ 130.69603666648058, 33.863822589321124 ], [ 130.696025005514713, 33.863851145815637 ], [ 130.696019926968063, 33.863863581281066 ], [ 130.695965830201231, 33.863996053617399 ], [ 130.69595647129114, 33.864153290996363 ], [ 130.695911268586002, 33.86419030426012 ], [ 130.695837442703777, 33.864305640062753 ], [ 130.695789851986035, 33.86449895254561 ], [ 130.695724292786451, 33.864592824613261 ], [ 130.695502924218999, 33.864751540319354 ], [ 130.695500601918127, 33.864775626050104 ], [ 130.695565345802862, 33.865114744413482 ], [ 130.695633435563707, 33.865546567448469 ], [ 130.695573161425244, 33.865816553396549 ], [ 130.695600396583558, 33.865874945432438 ], [ 130.695791160857794, 33.866162670547908 ], [ 130.695523501873282, 33.866432776118351 ], [ 130.695375902646504, 33.866598932218395 ], [ 130.695299169770152, 33.866735322474113 ], [ 130.695141082758255, 33.867233431774189 ], [ 130.69510232759842, 33.867327938387675 ], [ 130.694863984819079, 33.867419693660302 ], [ 130.694692209305089, 33.867449978480003 ], [ 130.694551905908583, 33.867439558859836 ], [ 130.694142248657812, 33.867242011235952 ], [ 130.694008923038325, 33.867216462718218 ], [ 130.693926670178428, 33.867230700369674 ], [ 130.693697691820063, 33.867549503236177 ], [ 130.693587706430151, 33.86764453468605 ], [ 130.693575889932731, 33.867654718997372 ], [ 130.693449197171248, 33.867746324286031 ], [ 130.693379291617475, 33.867814406611537 ], [ 130.693265944316011, 33.867981489727498 ], [ 130.693183556844531, 33.868156888668935 ], [ 130.693108699392269, 33.868239821253987 ], [ 130.693072045989396, 33.86827079257727 ], [ 130.69297813903799, 33.868350157755678 ], [ 130.692894236211998, 33.86847695154097 ], [ 130.692874592161104, 33.868586011881675 ], [ 130.692901442208012, 33.869070985041461 ], [ 130.69293407173862, 33.869196870652551 ], [ 130.692971211516095, 33.869265997548496 ], [ 130.693595891796889, 33.869587209564685 ], [ 130.693601475129611, 33.869590110400452 ], [ 130.694063557348557, 33.869829912518895 ], [ 130.694176606948872, 33.869889008603714 ], [ 130.694360263776019, 33.869991816361143 ], [ 130.694667443473378, 33.870141064721686 ], [ 130.694691440133795, 33.870160847187627 ], [ 130.694795716889217, 33.870246833003335 ], [ 130.694806602837872, 33.870278556861649 ], [ 130.694851629526227, 33.870409968521209 ], [ 130.694880130620646, 33.870540212400272 ], [ 130.694845460370885, 33.870702207677319 ], [ 130.694832326836433, 33.870886938850333 ], [ 130.69476317831851, 33.871340963423954 ], [ 130.694776161047031, 33.871697069674255 ], [ 130.694808361632056, 33.871825983559148 ], [ 130.694816130848665, 33.871855587034638 ], [ 130.694823796675735, 33.871884768164279 ], [ 130.694868343453379, 33.87194376591097 ], [ 130.694975742007358, 33.872030956879449 ], [ 130.6950026814105, 33.872053030674536 ], [ 130.69513328043945, 33.872160042962562 ], [ 130.695645989672613, 33.872517387058814 ], [ 130.695696483102978, 33.872543010212496 ], [ 130.695823702050518, 33.872607552523043 ], [ 130.696032605071508, 33.872713530498224 ], [ 130.696266246449085, 33.872814908688284 ], [ 130.695812563673911, 33.873272278180337 ], [ 130.695798458055947, 33.873291323529052 ], [ 130.695711588890447, 33.873408612763662 ], [ 130.695698640305267, 33.873509121474889 ], [ 130.695680653109719, 33.873648733899444 ], [ 130.695680878821094, 33.873779332167565 ], [ 130.695681081312557, 33.873897038776619 ], [ 130.695694153010464, 33.874021045303799 ], [ 130.695839674822309, 33.87401577206851 ], [ 130.695842219339596, 33.874179197201777 ], [ 130.695436995828402, 33.874144382314554 ], [ 130.695415631074127, 33.874197790449585 ], [ 130.695373194215364, 33.874216213677578 ], [ 130.695270921146005, 33.874194687243943 ], [ 130.695250946130528, 33.873999447247073 ], [ 130.695189952191669, 33.873922938620574 ], [ 130.69494790654403, 33.873964108793558 ], [ 130.694829215421748, 33.873999740593433 ], [ 130.694487608077139, 33.873987197616088 ], [ 130.694144797328619, 33.874004306959037 ], [ 130.693994599093031, 33.874038095762486 ], [ 130.693765092625682, 33.874089720987591 ], [ 130.69365384923077, 33.87412483803606 ], [ 130.69349965017696, 33.8741735148066 ], [ 130.693324897241268, 33.87421795111311 ], [ 130.693274532204669, 33.874286646705137 ], [ 130.69321769590178, 33.874364127783942 ], [ 130.693107946054283, 33.874703513686967 ], [ 130.693022922913855, 33.874817131925447 ], [ 130.693015061877247, 33.874825281093734 ], [ 130.692973845461438, 33.874868216238511 ], [ 130.692973103114497, 33.874868989770938 ], [ 130.692719586358578, 33.875135604339292 ], [ 130.692675890838444, 33.875210445671151 ], [ 130.692634722562048, 33.875280920539758 ], [ 130.69243871783695, 33.875675808159883 ], [ 130.692397862232013, 33.875812077159125 ], [ 130.692328637168174, 33.876147199585752 ], [ 130.692323703001648, 33.876222413537917 ], [ 130.692319303161355, 33.876289182665396 ], [ 130.692315239161331, 33.876351159430804 ], [ 130.692319805871051, 33.876490499517722 ], [ 130.692336487421727, 33.876672275206452 ], [ 130.692354276770203, 33.876774737454816 ], [ 130.692369481301881, 33.876862264410491 ], [ 130.692385145018449, 33.876903790983377 ], [ 130.692488667399516, 33.877178483632328 ], [ 130.692504510419582, 33.877246780757751 ], [ 130.692507338032755, 33.877258974457988 ], [ 130.692523977878011, 33.877440750018479 ], [ 130.692520747956166, 33.877482092239298 ], [ 130.692519694604016, 33.877499132158221 ], [ 130.692511588133243, 33.877557649454737 ], [ 130.692455416648272, 33.877720012620323 ], [ 130.692412012209019, 33.877778013897192 ], [ 130.692358998180396, 33.877848884294565 ], [ 130.692310298453521, 33.87789377322936 ], [ 130.692161129269152, 33.878031321333239 ], [ 130.692132221434889, 33.878050408444949 ], [ 130.69197451539452, 33.878154545930052 ], [ 130.691778039545881, 33.878236750122547 ], [ 130.691744985686739, 33.878246244180886 ], [ 130.691732494213767, 33.878250088099776 ], [ 130.691508285064515, 33.878329616612362 ], [ 130.691267801666555, 33.878367120596423 ], [ 130.690792072672366, 33.878423892580081 ], [ 130.690617824168243, 33.878442613229829 ], [ 130.690537167975094, 33.8784381830176 ], [ 130.690489452755799, 33.878438418238602 ], [ 130.690275110348608, 33.878439565502809 ], [ 130.69000226667913, 33.878422887614505 ], [ 130.689675249251565, 33.878382052245264 ], [ 130.689564610280655, 33.878366697335977 ], [ 130.689499215288691, 33.878357586118717 ], [ 130.68894850610755, 33.878241800787237 ], [ 130.688873499581632, 33.878216323487131 ], [ 130.688653060235652, 33.878117568645777 ], [ 130.688591601379557, 33.878111637292058 ], [ 130.688288001150767, 33.877994993306253 ], [ 130.688194327030402, 33.878081326211827 ], [ 130.688188418226105, 33.878092370214539 ], [ 130.687972015289915, 33.878497695415277 ], [ 130.687893252950516, 33.878790804114033 ], [ 130.687885710724032, 33.87908212645835 ], [ 130.687890523856964, 33.879146094674965 ], [ 130.687892919093343, 33.879265285350158 ], [ 130.687942024827322, 33.879538787342646 ], [ 130.688004995952014, 33.879750195602554 ], [ 130.688017208267468, 33.8798463779736 ], [ 130.688026858862969, 33.879922377252001 ], [ 130.688065236866322, 33.880224619942275 ], [ 130.688038088898224, 33.880426854401591 ], [ 130.68798276093392, 33.880690934288957 ], [ 130.687971892449696, 33.880718588373306 ], [ 130.687850592706553, 33.881026806501815 ], [ 130.687742270698436, 33.881191640590473 ], [ 130.687577272668278, 33.881364502991893 ], [ 130.687306504033813, 33.881569215163893 ], [ 130.6872937228963, 33.881577214381259 ], [ 130.687086822705282, 33.881706646166492 ], [ 130.686852262811556, 33.881870805889093 ], [ 130.686521880075531, 33.88213510086721 ], [ 130.686314317316373, 33.882312571672514 ], [ 130.686279411256692, 33.882342416573287 ], [ 130.686186261249475, 33.882422058425483 ], [ 130.685808505240374, 33.882844996601271 ], [ 130.685442010803058, 33.883276487514443 ], [ 130.685423372142367, 33.883298134608204 ], [ 130.685366989641068, 33.883363428524554 ], [ 130.685250306775089, 33.883572267430672 ], [ 130.684979568818363, 33.884008222922212 ], [ 130.684761829875896, 33.88433985580015 ], [ 130.684533679591993, 33.884734854542359 ], [ 130.684328025510524, 33.885063557320116 ], [ 130.684301072764072, 33.885106665318531 ], [ 130.683837915282652, 33.885784221664707 ], [ 130.683652236598022, 33.886111139703594 ], [ 130.68343440808863, 33.886424595735349 ], [ 130.683312438954459, 33.886651583719072 ], [ 130.682988411707441, 33.887133112013281 ], [ 130.682962168034578, 33.887166787054589 ], [ 130.682945874979026, 33.887187665221063 ], [ 130.682435838957474, 33.887928203936831 ], [ 130.681999892632831, 33.888496287473139 ], [ 130.68173912091504, 33.888782857724038 ], [ 130.681857192077729, 33.888868260383468 ], [ 130.681891259049308, 33.888808825910175 ], [ 130.68204872885164, 33.888632927004934 ], [ 130.682154342872479, 33.888514950995585 ], [ 130.682207389815318, 33.888455695837699 ], [ 130.682368741149077, 33.888297205550103 ], [ 130.682633159747155, 33.888085728167766 ], [ 130.682815433129434, 33.88796814989648 ], [ 130.682953563374213, 33.887922160571208 ], [ 130.683145619287103, 33.887876593251193 ], [ 130.683275265580932, 33.887864392493377 ], [ 130.683478147874297, 33.887814483309882 ], [ 130.683728255693183, 33.887657629623156 ], [ 130.68425210312418, 33.887222687306433 ], [ 130.684443498846008, 33.88703538849272 ], [ 130.684731388945579, 33.886686751963069 ], [ 130.684826752828144, 33.886557107661282 ], [ 130.684859501796467, 33.886505139740436 ], [ 130.684973676582985, 33.88632405310193 ], [ 130.685027519992104, 33.886283124934003 ], [ 130.685125301666574, 33.886271474508334 ], [ 130.685217728132358, 33.88629777237017 ], [ 130.685358751683168, 33.886076214420221 ], [ 130.685217728132386, 33.886297772370177 ], [ 130.68531971365266, 33.886354951916445 ], [ 130.685525864176071, 33.886565810373462 ], [ 130.685678280195873, 33.886655236916724 ], [ 130.68589623952019, 33.886686650533903 ], [ 130.685993448534077, 33.886676189700111 ], [ 130.686174831468492, 33.886628472763086 ], [ 130.686447091950726, 33.886499844206213 ], [ 130.686663918722729, 33.886356137707281 ], [ 130.686860440486186, 33.886186736763996 ], [ 130.686921644592445, 33.886082210270473 ], [ 130.686940501519359, 33.88605000582816 ], [ 130.687039899333911, 33.885768713201024 ], [ 130.687135873399228, 33.885569824486247 ], [ 130.68723131658291, 33.885487370533149 ], [ 130.687653718066031, 33.885225355380847 ], [ 130.687891231831827, 33.8851512254125 ], [ 130.687959103267957, 33.885148436798772 ], [ 130.688700063839576, 33.885156799705832 ], [ 130.688743712039383, 33.885154634893595 ], [ 130.688876973707011, 33.885148022969041 ], [ 130.688937560789299, 33.88514500457822 ], [ 130.689490524690768, 33.885128232972477 ], [ 130.689787884087167, 33.885074747309197 ], [ 130.690130933575205, 33.884927972434355 ], [ 130.690770624553579, 33.884586261552634 ], [ 130.69092674852098, 33.884532135904088 ], [ 130.691458330428901, 33.884383433690978 ], [ 130.691650841557191, 33.884268750808111 ], [ 130.692072894937525, 33.884004039239606 ], [ 130.692227327954697, 33.883955964105589 ], [ 130.692289267320348, 33.883958659389201 ], [ 130.692627286957645, 33.884117089564043 ], [ 130.692711875611167, 33.884156735835198 ], [ 130.692873359876359, 33.884232439087299 ], [ 130.692977487581658, 33.8843055365532 ], [ 130.693059611519203, 33.884373717454189 ], [ 130.69335077918771, 33.884615416494007 ], [ 130.693449809691316, 33.884672723704327 ], [ 130.693653308092621, 33.884726412549263 ], [ 130.693847499088946, 33.884773314798551 ], [ 130.693984998659374, 33.884772391238599 ], [ 130.694304842102582, 33.884712468013362 ], [ 130.694348621665142, 33.884704267105 ], [ 130.69443102210758, 33.884688833323814 ], [ 130.694913200267251, 33.884650163095131 ], [ 130.694966821986839, 33.884658681487259 ], [ 130.69519254183956, 33.884656636666826 ], [ 130.695339861712341, 33.884655309218992 ], [ 130.695553096938141, 33.884672603679611 ], [ 130.695759614494705, 33.884726721123478 ], [ 130.695878276396598, 33.88476286803089 ], [ 130.696107770542483, 33.884875297747357 ], [ 130.696155744951568, 33.884898799811083 ], [ 130.696398622991637, 33.8850598639401 ], [ 130.696638015342785, 33.885251698419864 ], [ 130.696776155849079, 33.885356643521838 ], [ 130.697127637731398, 33.885521285262818 ], [ 130.697200445136701, 33.885555908924196 ], [ 130.697350658717539, 33.885662080668006 ], [ 130.697379342825201, 33.885898264506793 ], [ 130.697440522911819, 33.886140728276303 ], [ 130.697538848105239, 33.886495565164452 ], [ 130.697670151974023, 33.886844988565613 ], [ 130.697713880828928, 33.886916802488145 ], [ 130.697849633815707, 33.887113239929249 ], [ 130.697912767994467, 33.887173270260391 ], [ 130.698330780192236, 33.88746929554474 ], [ 130.698435606252218, 33.88759859846845 ], [ 130.698503180380811, 33.887753167867089 ], [ 130.698510570943313, 33.887861241093418 ], [ 130.698484344356757, 33.888616572200888 ], [ 130.699119671237838, 33.888569382345082 ], [ 130.69936965137714, 33.888529981977179 ], [ 130.69948275979317, 33.888526174467984 ], [ 130.6997717633798, 33.88855829303499 ], [ 130.699846960096949, 33.888539176397323 ], [ 130.700101516657924, 33.888459073723375 ], [ 130.700065648103276, 33.888270206735314 ], [ 130.700091504749651, 33.888073743346929 ], [ 130.700075431068143, 33.887936627887335 ], [ 130.699968318491074, 33.887687856609261 ], [ 130.699956844994091, 33.88750327593543 ], [ 130.699912680314782, 33.887307769801204 ], [ 130.700005452818743, 33.887081177865035 ], [ 130.701014791952844, 33.885282346659075 ], [ 130.701081613515839, 33.885254473847318 ], [ 130.701126149761251, 33.885186257286627 ], [ 130.701152123253422, 33.884992045481937 ], [ 130.701131005647369, 33.884726438174141 ], [ 130.70122551042769, 33.884594379663298 ], [ 130.701417256272521, 33.884612031502606 ], [ 130.70175936142266, 33.884598209067178 ], [ 130.702095839447821, 33.884575639187879 ], [ 130.702332819462782, 33.884421243654828 ], [ 130.702404337394626, 33.884499182031966 ], [ 130.702488957024741, 33.884696336672299 ], [ 130.70255731171406, 33.884749472510933 ], [ 130.702813075963178, 33.884876599316264 ], [ 130.702977587462584, 33.884881082292132 ], [ 130.703321573950404, 33.884824573551299 ], [ 130.70390833725844, 33.884780339750229 ], [ 130.704185624416084, 33.88461871295933 ], [ 130.704302675405216, 33.884536017149451 ], [ 130.704332039016549, 33.884482552885778 ], [ 130.704440148055426, 33.884200138737015 ], [ 130.704442832997785, 33.884193734612303 ], [ 130.704609700488277, 33.884224424667963 ], [ 130.704721985745664, 33.884261674850556 ], [ 130.705042646542296, 33.884386839430917 ], [ 130.705140031986957, 33.884360940062038 ], [ 130.705232989842756, 33.884363838229056 ], [ 130.705336707117112, 33.884381273764198 ], [ 130.705371339751707, 33.884392415675585 ], [ 130.705412552192911, 33.884405687061452 ], [ 130.705479650231354, 33.884437685784093 ], [ 130.705557996675623, 33.884477319410713 ], [ 130.705656152463121, 33.884540668097195 ], [ 130.705789889706011, 33.88463389883804 ], [ 130.705862947825693, 33.884769317694193 ], [ 130.705921589952538, 33.885007473668985 ], [ 130.705962714667152, 33.885237063467642 ], [ 130.705973543358596, 33.885268786658706 ], [ 130.705977994770507, 33.88528182974062 ], [ 130.70599227489484, 33.885336313207837 ], [ 130.706002819259112, 33.885376489586619 ], [ 130.706163390771138, 33.88553282587452 ], [ 130.706097270685092, 33.885578806116307 ], [ 130.706072557992769, 33.885599668286424 ], [ 130.706095664506989, 33.885665443163163 ], [ 130.706103870737451, 33.88569835810663 ], [ 130.706129260243756, 33.885800415989799 ], [ 130.706127693221845, 33.885801539286128 ], [ 130.706134904729396, 33.885828465025405 ], [ 130.706153002588394, 33.885896130358901 ], [ 130.706039212480846, 33.886013070505399 ], [ 130.70598664093589, 33.886214895172039 ], [ 130.705795325318689, 33.886199997563246 ], [ 130.705786964589265, 33.88619955605099 ], [ 130.705778297109333, 33.886455724106163 ], [ 130.705778355925958, 33.886456851282418 ], [ 130.705783717301045, 33.886451439681743 ], [ 130.705922876737418, 33.886675911352746 ], [ 130.705922593689365, 33.886758395661793 ], [ 130.705922108561282, 33.886899768244241 ], [ 130.70590810293271, 33.886907340643511 ], [ 130.705872308341185, 33.886926627747606 ], [ 130.705902761494968, 33.886962695205249 ], [ 130.70599853126086, 33.887076120054587 ], [ 130.706063220596292, 33.887053522426633 ], [ 130.706197238644307, 33.886967763723106 ], [ 130.706205987385744, 33.88703963372059 ], [ 130.706250819774539, 33.887093557209887 ], [ 130.706337109024645, 33.887176528646449 ], [ 130.706348416647558, 33.887187404436794 ], [ 130.706350824498202, 33.887201258748739 ], [ 130.706395446181716, 33.887430379162844 ], [ 130.706433957880904, 33.887549486127938 ], [ 130.706444266356215, 33.887579487777877 ], [ 130.706535772890618, 33.887549418422516 ], [ 130.707022637414042, 33.887387227830772 ], [ 130.70703473098402, 33.887382678016117 ], [ 130.707061603605808, 33.887372458285235 ], [ 130.7072876439249, 33.887347777230865 ], [ 130.707474562065812, 33.887259820006001 ], [ 130.707527245804073, 33.887235009457626 ], [ 130.707662299941859, 33.887172849497617 ], [ 130.707729591629885, 33.887031285481058 ], [ 130.707769092924934, 33.88663649269003 ], [ 130.707599989568536, 33.88660925328341 ], [ 130.707769092924934, 33.886636492690009 ], [ 130.70790379367844, 33.88666569312285 ], [ 130.707919913825094, 33.886669182906687 ], [ 130.707924331431258, 33.886667855578494 ], [ 130.707947074776229, 33.886660935978547 ], [ 130.708067767927446, 33.886624241260257 ], [ 130.708253893498892, 33.886545084336369 ], [ 130.708327988654958, 33.886513492088902 ], [ 130.708357571046093, 33.886500883551768 ], [ 130.708533828334311, 33.886535463551944 ], [ 130.708619243571974, 33.886615263125655 ], [ 130.708655194137776, 33.886648876421539 ], [ 130.70888440294064, 33.886535870700008 ], [ 130.708951720047594, 33.886461080863008 ], [ 130.70895768460457, 33.886439259749821 ], [ 130.708980947066379, 33.886354081574062 ], [ 130.708994972384801, 33.886302693177626 ], [ 130.709036718958373, 33.886258767000477 ], [ 130.709052764824264, 33.886215696357809 ], [ 130.709088060798081, 33.886137311003729 ], [ 130.709092315157051, 33.886127881031634 ], [ 130.709107506600219, 33.886094105854887 ], [ 130.709169587537843, 33.885956121306663 ], [ 130.70932439826916, 33.885802153408662 ], [ 130.70940037188177, 33.885801627769069 ], [ 130.709505687350202, 33.88582216288782 ], [ 130.709520479075366, 33.885825086358729 ], [ 130.709587923015988, 33.88584926482217 ], [ 130.709656966297331, 33.885887324743038 ], [ 130.70996542817258, 33.886126983119681 ], [ 130.709965428172609, 33.886126983119681 ], [ 130.710063082923938, 33.886202865322488 ], [ 130.710163264605626, 33.886274174820805 ], [ 130.710294893757833, 33.886306254003635 ], [ 130.710398235694612, 33.886317343723888 ], [ 130.710470253292669, 33.886343716111234 ], [ 130.710538561863615, 33.886368741933438 ], [ 130.71060731077128, 33.886393909632723 ], [ 130.710982727011356, 33.886528626874131 ], [ 130.710985637971277, 33.88652969085306 ], [ 130.711250057604985, 33.886268133509553 ], [ 130.711253676144054, 33.886257180364268 ], [ 130.711259065191314, 33.886246968236243 ], [ 130.71129626316602, 33.886175116694531 ], [ 130.711323982680881, 33.885970540532732 ], [ 130.71134742127586, 33.885652823715681 ], [ 130.711366379249739, 33.885385706769455 ], [ 130.711325826053894, 33.885314033383203 ], [ 130.711284030597568, 33.885240160232122 ], [ 130.711382997661701, 33.885234113191409 ], [ 130.711415221855674, 33.885207358330419 ], [ 130.711422169574917, 33.885201589749414 ], [ 130.71143025936945, 33.885194871807357 ], [ 130.711484868537951, 33.885096756147988 ], [ 130.711529833176826, 33.885015965854713 ], [ 130.7115382560836, 33.884973782277072 ], [ 130.71154424571003, 33.884943793381531 ], [ 130.711545600962864, 33.884933318094674 ], [ 130.711665223385182, 33.884849727076656 ], [ 130.711839262216074, 33.88472843521626 ], [ 130.712682459196031, 33.88474032395397 ], [ 130.713037680569556, 33.884552709913727 ], [ 130.713050722558933, 33.88448365982304 ], [ 130.713078121337304, 33.884338599059802 ], [ 130.713077311867067, 33.884338202061237 ], [ 130.71307812136601, 33.884338599019102 ], [ 130.713120884121707, 33.884359574680005 ], [ 130.71311830542183, 33.884360977468098 ], [ 130.713207157668506, 33.884410283143168 ], [ 130.713213332232272, 33.884413678631553 ], [ 130.713706414998569, 33.884686797206129 ], [ 130.713706949885989, 33.884687263462204 ], [ 130.713707635433025, 33.884687862143132 ], [ 130.713708501879637, 33.884688626888149 ], [ 130.713709714401716, 33.884689690155817 ], [ 130.713710875607887, 33.884690708178674 ], [ 130.713711490093885, 33.88469124671051 ], [ 130.713711807857294, 33.884691527007099 ], [ 130.713712476298525, 33.884692110789835 ], [ 130.713713428298689, 33.884692942871609 ], [ 130.713714459904764, 33.884693845027904 ], [ 130.713715790859794, 33.884695009277721 ], [ 130.713716984967476, 33.884696054342236 ], [ 130.713717986311536, 33.884696929462933 ], [ 130.71371834223666, 33.884697242316541 ], [ 130.713718509351565, 33.884697386886472 ], [ 130.713718678433082, 33.884697535313109 ], [ 130.713718870542465, 33.884697703604495 ], [ 130.713719091601604, 33.884697896727147 ], [ 130.713720483086377, 33.884699113397147 ], [ 130.71372141995289, 33.884699932786518 ], [ 130.71372314039445, 33.884701436933113 ], [ 130.71372387001793, 33.88470207533878 ], [ 130.713725038465952, 33.884703098331144 ], [ 130.713725874014898, 33.884703828884952 ], [ 130.71372689245959, 33.884704720554637 ], [ 130.713727604977123, 33.884705344062134 ], [ 130.713728170779348, 33.884705839556482 ], [ 130.713728616182095, 33.884706230211876 ], [ 130.713729977404995, 33.884707419846194 ], [ 130.71373098729768, 33.884708303791612 ], [ 130.713732228121245, 33.884709388586977 ], [ 130.713734924898375, 33.884711748534947 ], [ 130.713735117009662, 33.884711916275982 ], [ 130.713735765049734, 33.88471248405218 ], [ 130.713740140166976, 33.884716310077131 ], [ 130.713741264537418, 33.88471729389483 ], [ 130.713742801416686, 33.884718639124934 ], [ 130.713745617935871, 33.884721103359766 ], [ 130.713749018685036, 33.884724077439678 ], [ 130.713751370060066, 33.884726135014127 ], [ 130.713754105661508, 33.88472852696998 ], [ 130.713754855679412, 33.88472918358314 ], [ 130.71375879788971, 33.884732631638315 ], [ 130.713761024919535, 33.884734580512337 ], [ 130.713761253216745, 33.884734779705177 ], [ 130.713763981573464, 33.884737167791783 ], [ 130.713768371821374, 33.884741008158983 ], [ 130.71377016002657, 33.884742572446299 ], [ 130.713780076071714, 33.884751249130332 ], [ 130.713799016057976, 33.88476781622991 ], [ 130.713812403917871, 33.884779528789849 ], [ 130.713833609362439, 33.88479800192242 ], [ 130.71383581447742, 33.884798413176078 ], [ 130.714003992435465, 33.88483127166176 ], [ 130.714069211468001, 33.884837721420453 ], [ 130.714091845198084, 33.884840077023142 ], [ 130.714108622519063, 33.884839775332608 ], [ 130.71413437216151, 33.884839311765454 ], [ 130.714136172305132, 33.88483927797288 ], [ 130.714178357540419, 33.884832162971591 ], [ 130.714199589376335, 33.884824353812554 ], [ 130.714220121646179, 33.884818366205849 ], [ 130.714247481027513, 33.884801161494842 ], [ 130.714253065609398, 33.884798074553167 ], [ 130.71425799708598, 33.884794948124323 ], [ 130.714262991383634, 33.884791780567738 ], [ 130.714267888474922, 33.884788676071139 ], [ 130.714270204117582, 33.884787206611314 ], [ 130.714279224657247, 33.884781487800097 ], [ 130.714280674078111, 33.884780569392547 ], [ 130.714282978473818, 33.884779108711335 ], [ 130.714283070393861, 33.884779047840127 ], [ 130.714284300558489, 33.884778186706434 ], [ 130.714284844219463, 33.884777803850909 ], [ 130.714284947393253, 33.884777731999584 ], [ 130.714305411247466, 33.884763366288411 ], [ 130.714326746272604, 33.884747754489823 ], [ 130.714353119656522, 33.884721098631005 ], [ 130.714361457707781, 33.884712671251648 ], [ 130.714375141335751, 33.88469565491301 ], [ 130.714395967885309, 33.884668872814622 ], [ 130.714405199605778, 33.884657001458571 ], [ 130.714408163750932, 33.884653189176035 ], [ 130.714413170923564, 33.884646748944633 ], [ 130.714423334361015, 33.884633678969692 ], [ 130.714424009617318, 33.884632813245815 ], [ 130.714418993108922, 33.884630969077335 ], [ 130.714424009399806, 33.884632812511562 ], [ 130.714426756185844, 33.88462928135597 ], [ 130.714426888272413, 33.884629111927303 ], [ 130.714452277348698, 33.884639788594647 ], [ 130.714464978212789, 33.884645130133755 ], [ 130.714477610954305, 33.88465044168003 ], [ 130.714490814671564, 33.884655994980839 ], [ 130.71449897786303, 33.884659429758365 ], [ 130.714500681747609, 33.884660149201139 ], [ 130.714513341082267, 33.884665509733388 ], [ 130.714514886607986, 33.884666164225436 ], [ 130.714515553978771, 33.884666448799877 ], [ 130.714515673009998, 33.884666497335786 ], [ 130.714515728048667, 33.884666519991747 ], [ 130.714534473530762, 33.884674458515946 ], [ 130.714549632106809, 33.884679321995286 ], [ 130.714558303740802, 33.884682101782907 ], [ 130.714558431901025, 33.884682146037861 ], [ 130.714565788551255, 33.88468450625755 ], [ 130.714578529558992, 33.884688594810498 ], [ 130.714603743453495, 33.884696686231464 ], [ 130.714626326294507, 33.884703809000158 ], [ 130.714649692657105, 33.884710677432466 ], [ 130.714700559003745, 33.88472562889018 ], [ 130.714724194141752, 33.884732575970645 ], [ 130.714749053810777, 33.884737632304599 ], [ 130.714766801822122, 33.884741241907555 ], [ 130.71477667482614, 33.884743250345082 ], [ 130.714777517527352, 33.884743421781486 ], [ 130.714785068774319, 33.884744957807946 ], [ 130.714812728205885, 33.88475058469367 ], [ 130.714850796414396, 33.884753055058184 ], [ 130.714884707925307, 33.884755255798204 ], [ 130.714900741050371, 33.884756296001655 ], [ 130.714900773473545, 33.884756268561155 ], [ 130.715008681956277, 33.884765397607232 ], [ 130.71508387444814, 33.884935186210754 ], [ 130.71520059991127, 33.885029919009781 ], [ 130.715207147671975, 33.885035217687687 ], [ 130.715477937732771, 33.88514558582753 ], [ 130.715640856761723, 33.885312200614855 ], [ 130.715702362198158, 33.885388910685968 ], [ 130.715779850340226, 33.885485453126613 ], [ 130.715938435462817, 33.885761870134459 ], [ 130.715925480079818, 33.88577839579802 ], [ 130.715809765260559, 33.88611715602142 ], [ 130.71579544714649, 33.886193761457506 ], [ 130.715803878169538, 33.886262317175174 ], [ 130.715808526216563, 33.886280784226955 ], [ 130.715844502735479, 33.886395824983396 ], [ 130.715853982477995, 33.886472485342324 ], [ 130.715846260129069, 33.886522057125731 ], [ 130.715791945441765, 33.886600400579511 ], [ 130.715685965268591, 33.886607341866075 ], [ 130.715621143100776, 33.886759903043348 ], [ 130.715606363752784, 33.8868103044002 ], [ 130.715535527273232, 33.887151844529818 ], [ 130.715473888767889, 33.887438677106488 ], [ 130.715407161052838, 33.887617721866405 ], [ 130.715374261872626, 33.887679484022229 ], [ 130.71536912627019, 33.887689126811303 ], [ 130.715242029462814, 33.887861199765233 ], [ 130.715425807553345, 33.8879281199291 ], [ 130.715466954733188, 33.88794307894468 ], [ 130.715466369313617, 33.887947584091151 ], [ 130.715789649169892, 33.88818867271673 ], [ 130.715992658672633, 33.888340096033275 ], [ 130.716039127269028, 33.888342316424087 ], [ 130.716196961356076, 33.888349865530401 ], [ 130.716210999668903, 33.88835052992561 ], [ 130.716300562375977, 33.888347001944425 ], [ 130.716389957670259, 33.888356756378471 ], [ 130.716416367933448, 33.888366316694878 ], [ 130.716591250225122, 33.888466933886498 ], [ 130.716673232758524, 33.888513170456029 ], [ 130.71674903965723, 33.888551933273021 ], [ 130.716769238344426, 33.888562225463325 ], [ 130.716777866900514, 33.888567912745678 ], [ 130.716820279870831, 33.888595867308467 ], [ 130.716894327928543, 33.888648442128869 ], [ 130.716959523694527, 33.888682756480414 ], [ 130.717000908912013, 33.88867679269913 ], [ 130.71713471951756, 33.888561437726523 ], [ 130.717136771890694, 33.888559669597079 ], [ 130.717195144702373, 33.888528098616547 ], [ 130.717219798319661, 33.888514764521908 ], [ 130.717325654341778, 33.888455743493587 ], [ 130.717499934057628, 33.888363886582873 ], [ 130.71753113321671, 33.888361203315057 ], [ 130.717740828552934, 33.888343155301051 ], [ 130.717934387855337, 33.888325624121606 ], [ 130.717995099423206, 33.888227404374199 ], [ 130.718006750940646, 33.888230626722923 ], [ 130.718006628547641, 33.888230991575035 ], [ 130.718923506959896, 33.888513081673146 ], [ 130.718881755582032, 33.888563120365895 ], [ 130.718789768030149, 33.888680962567257 ], [ 130.71875036919451, 33.888731448947865 ], [ 130.718433412212477, 33.889120188681282 ], [ 130.718362449689664, 33.88920772454005 ], [ 130.718037190844683, 33.889608907073949 ], [ 130.717926475222441, 33.889744743228931 ], [ 130.717588868178922, 33.890156045019829 ], [ 130.7176698070692, 33.890200395939864 ], [ 130.717785284606975, 33.890266519828927 ], [ 130.71796117080271, 33.890365187685298 ], [ 130.71802294955944, 33.890399703332207 ], [ 130.718025919779734, 33.890401401243693 ], [ 130.718168386934565, 33.890479280726211 ], [ 130.718377762758053, 33.890591549132189 ], [ 130.718575237864314, 33.890701111062846 ], [ 130.718666956379707, 33.890755418559309 ], [ 130.718750042249667, 33.890808791645021 ], [ 130.718770434802991, 33.890823136434371 ], [ 130.718909669636446, 33.890920946025233 ], [ 130.718983567173581, 33.890974927528298 ], [ 130.719009984299049, 33.890994219576498 ], [ 130.719317372049403, 33.891219412830658 ], [ 130.719502768984057, 33.891387552831254 ], [ 130.719901634039729, 33.891741856975763 ], [ 130.720077946487663, 33.891899198158178 ], [ 130.720087064259644, 33.891907320582241 ], [ 130.720190531470791, 33.892004904873453 ], [ 130.720222264770058, 33.892038436508344 ], [ 130.720356460848876, 33.892180182025513 ], [ 130.720505145314206, 33.89233379695677 ], [ 130.720674339953575, 33.892505490876644 ], [ 130.720843510439863, 33.89267810243544 ], [ 130.721110745627954, 33.89295462024586 ], [ 130.721626868177083, 33.8934886665457 ], [ 130.721780591487004, 33.893659408269166 ], [ 130.721305144210504, 33.894009968126618 ], [ 130.721417339271966, 33.894132504697957 ], [ 130.721465504318274, 33.894185091987268 ], [ 130.721572335402357, 33.894301770320531 ], [ 130.721573185262571, 33.894302697133412 ], [ 130.721583487789843, 33.894313911763206 ], [ 130.721792121645393, 33.894541199493453 ], [ 130.721856769060651, 33.894609884190757 ], [ 130.721367144951358, 33.894890113678777 ], [ 130.721266842521032, 33.894947506282179 ], [ 130.720896199346129, 33.895159676138526 ], [ 130.720707734510768, 33.89526758440887 ], [ 130.720698837307765, 33.895272690013705 ], [ 130.720698807646357, 33.895272705703576 ], [ 130.720936718451384, 33.895574376972135 ], [ 130.721060586075879, 33.895731527368724 ], [ 130.721165010398721, 33.895867008539867 ], [ 130.72178501753848, 33.895528890369725 ], [ 130.721165010398778, 33.895867008539867 ], [ 130.721398236695478, 33.896162255988145 ], [ 130.721401896574292, 33.896166913303354 ], [ 130.721187990843475, 33.896279272864454 ], [ 130.721171252632644, 33.89628809240174 ], [ 130.721171218961558, 33.896288111930325 ], [ 130.721172200161362, 33.896289303048995 ], [ 130.721324911013994, 33.896474632561691 ], [ 130.721354296833994, 33.896510270119478 ], [ 130.721354470907727, 33.89651048676695 ], [ 130.721532255283392, 33.896729354495683 ], [ 130.721536295153498, 33.896734329645014 ], [ 130.721557726440807, 33.896761003291822 ], [ 130.721728380373946, 33.896973553495265 ], [ 130.721818421227937, 33.897085689237485 ], [ 130.721899183136145, 33.897186879714745 ], [ 130.721921792227334, 33.897214824971051 ], [ 130.72209511785519, 33.897444286758855 ], [ 130.722138178787418, 33.8975020752925 ], [ 130.722175857074262, 33.897552664596994 ], [ 130.722230726196273, 33.897642036782656 ], [ 130.722268343190024, 33.897711503783249 ], [ 130.72230269410764, 33.897785545839604 ], [ 130.722334881511216, 33.897862256963791 ], [ 130.722363803853739, 33.89794255259099 ], [ 130.722387331976989, 33.898026497259778 ], [ 130.722406501527274, 33.898112195287119 ], [ 130.722420306367695, 33.898192458446673 ], [ 130.722431816203738, 33.898308782149535 ], [ 130.72243175297757, 33.898328565681879 ], [ 130.722431752949149, 33.898328615760214 ], [ 130.722431752452138, 33.898328643274645 ], [ 130.722457096987, 33.89844904791007 ], [ 130.722468020347208, 33.898500957708144 ], [ 130.722474778694362, 33.898533077872543 ], [ 130.722474839819967, 33.898604813777695 ], [ 130.7224749638616, 33.898750576533487 ], [ 130.722819595433918, 33.89872563678118 ], [ 130.723303651444894, 33.898664536072665 ], [ 130.7238878969263, 33.898582423161955 ], [ 130.723901868823049, 33.898580459688041 ], [ 130.723963881569318, 33.898564681481169 ], [ 130.724910623269864, 33.898283347039751 ], [ 130.725883062834015, 33.897994317498934 ], [ 130.726192488622644, 33.897874133284169 ], [ 130.727435432518206, 33.897375499823163 ], [ 130.727597801044254, 33.897311125437426 ], [ 130.727801358731881, 33.897230355117962 ], [ 130.728716407632447, 33.896919339141505 ], [ 130.728883128694264, 33.896846872643948 ], [ 130.729751897766334, 33.896436990099417 ], [ 130.729935775423428, 33.89633434118749 ], [ 130.730109476300925, 33.896230966682559 ], [ 130.730173922273337, 33.896165596453166 ], [ 130.730262233579936, 33.896032520107433 ], [ 130.73041241840528, 33.895752357887638 ], [ 130.730431924945378, 33.895741130225694 ], [ 130.730570372920198, 33.895492426486484 ], [ 130.730619921009236, 33.895403430796556 ], [ 130.730834013392524, 33.895133548952522 ], [ 130.730969300488027, 33.895009870608291 ], [ 130.731273272894839, 33.894805276526363 ], [ 130.731655485411238, 33.894619301278688 ], [ 130.732135184211188, 33.894476860181072 ], [ 130.733058700526982, 33.894232534558427 ], [ 130.73315895561592, 33.894188164509224 ], [ 130.733266569396193, 33.894140567882935 ], [ 130.733466607586422, 33.893998994258475 ], [ 130.733726190212025, 33.893764922872222 ], [ 130.733974487121628, 33.893533008541247 ], [ 130.734148408248643, 33.893369608719844 ], [ 130.734649757607258, 33.892957279620667 ], [ 130.735010939465297, 33.892677497055871 ], [ 130.73555972093763, 33.892268576084611 ], [ 130.735919150175221, 33.892041685957786 ], [ 130.735973212345556, 33.892013132611481 ], [ 130.736491716770729, 33.8917364972001 ], [ 130.736976428911788, 33.891520685159961 ], [ 130.737013819273528, 33.891504037221615 ], [ 130.737289449060285, 33.891368416477739 ], [ 130.737310595021285, 33.891358011736777 ], [ 130.737445547510248, 33.891298997512521 ], [ 130.737507918874229, 33.891271722805314 ], [ 130.737666278558521, 33.891207187168668 ], [ 130.738136188768891, 33.891128587529721 ], [ 130.738136205629274, 33.891123092706515 ], [ 130.738323293813863, 33.891085921307123 ], [ 130.73881005616991, 33.890989209232721 ], [ 130.739277728589627, 33.890896304791838 ], [ 130.740267076811023, 33.890657000925174 ], [ 130.741255572455628, 33.890417824378304 ], [ 130.741255572455628, 33.890417824378311 ], [ 130.742103117903753, 33.890212790911285 ], [ 130.742325729792924, 33.890141411181268 ], [ 130.742540860302796, 33.890042681993634 ], [ 130.742666887864118, 33.889942918725097 ], [ 130.742939640337596, 33.889655529949728 ], [ 130.743728535796009, 33.888768082506012 ], [ 130.744126087506942, 33.888343313033133 ], [ 130.744163677014967, 33.888292746559777 ], [ 130.743143449226068, 33.88748802845074 ], [ 130.743366379379779, 33.887251254713838 ], [ 130.743913760862057, 33.88756486379355 ], [ 130.743983634292903, 33.887549933911345 ], [ 130.744019347651545, 33.887491194752108 ], [ 130.744211977016391, 33.887099104816407 ], [ 130.744334995354876, 33.88687282578087 ], [ 130.744522557485652, 33.886493260803725 ], [ 130.744926472491329, 33.885707497240141 ], [ 130.745124154836219, 33.885330837247004 ], [ 130.745320201727679, 33.884935793097164 ], [ 130.745539945099466, 33.884516918445335 ], [ 130.745820160540745, 33.883962503615891 ], [ 130.746332476703884, 33.882969298469582 ], [ 130.746531882460118, 33.882577075632319 ], [ 130.746949146240155, 33.881769846475237 ], [ 130.74729044244981, 33.881088480878418 ], [ 130.747503385198968, 33.880685085804416 ], [ 130.74787162470642, 33.879956924871593 ], [ 130.748081917211891, 33.879562467344876 ], [ 130.748112051579056, 33.879575139404793 ], [ 130.748104962118333, 33.879587661027912 ], [ 130.748143158630512, 33.879601193200955 ], [ 130.748160377340099, 33.87956178199709 ], [ 130.748128238304133, 33.879549181791866 ], [ 130.74811912380963, 33.879560852342628 ], [ 130.748087969848001, 33.87955071514051 ], [ 130.748276710792112, 33.879182488934717 ], [ 130.748416389520486, 33.879234829012837 ], [ 130.748356648633603, 33.879360513408159 ], [ 130.748400883671735, 33.879373989601916 ], [ 130.748414051076736, 33.879348025780601 ], [ 130.748399967148117, 33.879341303551634 ], [ 130.748440459897438, 33.879263335411444 ], [ 130.748452526700163, 33.879266741182647 ], [ 130.748477806945345, 33.87921396609152 ], [ 130.748464749664038, 33.879209710817953 ], [ 130.748509278252726, 33.879123441722491 ], [ 130.748518321071941, 33.879128465834995 ], [ 130.748534491258994, 33.879100881956774 ], [ 130.748493285679444, 33.879083962637864 ], [ 130.74847810826526, 33.879111615126234 ], [ 130.748490167582816, 33.879117556719855 ], [ 130.748442632774129, 33.879206356609458 ], [ 130.748283820360399, 33.879148342249323 ], [ 130.748462315885178, 33.87880312537051 ], [ 130.748546833346865, 33.878838802507907 ], [ 130.748541767727261, 33.87885217247112 ], [ 130.748575941323338, 33.87886231517259 ], [ 130.748591147116741, 33.87882544058548 ], [ 130.748557976772133, 33.878811140121833 ], [ 130.748551903808277, 33.878822890108957 ], [ 130.748469115211066, 33.878788487728968 ], [ 130.748832875749969, 33.878091310901411 ], [ 130.748925851291801, 33.87790687732312 ], [ 130.7488879268125, 33.877728938513769 ], [ 130.748869016808897, 33.877705161682016 ], [ 130.748549733658933, 33.877300470868775 ], [ 130.748280097089264, 33.876972303115288 ], [ 130.747820287517129, 33.876376988675354 ], [ 130.745733958408664, 33.875851508520725 ], [ 130.745675417200403, 33.876020236130643 ], [ 130.744833835738518, 33.875805902603098 ], [ 130.744797699916973, 33.875859506831183 ], [ 130.744572504883195, 33.875777959969717 ], [ 130.744217022028039, 33.875668814595457 ], [ 130.743739818995465, 33.875548427845651 ], [ 130.742466057732315, 33.875221039214857 ], [ 130.742347675733271, 33.875187472784582 ], [ 130.741183784717521, 33.874891084147649 ], [ 130.741399790560649, 33.874679797029053 ], [ 130.741624743626119, 33.8744626080477 ], [ 130.741617997585223, 33.874403499089041 ], [ 130.742317858252989, 33.873824677293115 ], [ 130.742570061858657, 33.873621632746122 ], [ 130.744416837578882, 33.874092292615522 ], [ 130.745194703572054, 33.874286342629098 ], [ 130.74760877703784, 33.874905840215156 ], [ 130.747745569377514, 33.874940000516588 ], [ 130.747707201038168, 33.875063827542355 ], [ 130.747663172458118, 33.875052955609377 ], [ 130.7476422905969, 33.875110532745403 ], [ 130.747784281295679, 33.875142521637891 ], [ 130.747802582567743, 33.875086347443244 ], [ 130.747768907329373, 33.875079801295421 ], [ 130.747831448231437, 33.874963207531579 ], [ 130.74806232104649, 33.875024188589627 ], [ 130.748349428569753, 33.874858749077887 ], [ 130.748491187574615, 33.875020062886662 ], [ 130.748490229423993, 33.875051057284196 ], [ 130.74849668556655, 33.875059663049868 ], [ 130.748563331508137, 33.875011549389143 ], [ 130.748514976221742, 33.875007153259226 ], [ 130.74837768641413, 33.874841125826919 ], [ 130.74896394408043, 33.874484275192138 ], [ 130.749108546322361, 33.874655320870218 ], [ 130.749016805611149, 33.874715637494795 ], [ 130.749057270251882, 33.874761086075807 ], [ 130.749166726072502, 33.874692911272248 ], [ 130.748978221464569, 33.874475639624215 ], [ 130.749490468368521, 33.874164708859702 ], [ 130.749528466940802, 33.874165556590214 ], [ 130.749621004991951, 33.8742723227151 ], [ 130.749673012193256, 33.874356038538664 ], [ 130.749503383567315, 33.874468819715396 ], [ 130.749520972048145, 33.874511331368566 ], [ 130.749591079349472, 33.874463222539156 ], [ 130.749573876555473, 33.874440155874801 ], [ 130.749660429426683, 33.874377641345816 ], [ 130.749705313587867, 33.874384918563067 ], [ 130.749759846375156, 33.874349032892013 ], [ 130.749734017356275, 33.874315803707546 ], [ 130.74986251517484, 33.874240408907397 ], [ 130.749877112776801, 33.874266360482494 ], [ 130.749964534378648, 33.874209626886419 ], [ 130.749935262475049, 33.874177162841534 ], [ 130.749723262976261, 33.874304226937582 ], [ 130.749658651775434, 33.874249362616467 ], [ 130.749552754268421, 33.874126653208926 ], [ 130.749863820877522, 33.873938576094957 ], [ 130.749809477580868, 33.873181939871692 ], [ 130.750014218793325, 33.873167918768267 ], [ 130.750002529942719, 33.873028142027145 ], [ 130.74978572722722, 33.873030586989721 ], [ 130.749737600798625, 33.872508175267598 ], [ 130.749893054153375, 33.87251278848742 ], [ 130.749955198004812, 33.872530245687031 ], [ 130.749944753687089, 33.87240554672065 ], [ 130.749732234091539, 33.8724231476425 ], [ 130.749598355705473, 33.870949481657867 ], [ 130.749866521266568, 33.870361424621883 ], [ 130.750398472116899, 33.869062043063103 ], [ 130.75063370725627, 33.868512805959085 ], [ 130.750711585002563, 33.868309815451283 ], [ 130.750875090135395, 33.867924699074649 ], [ 130.750982102724237, 33.86765477785093 ], [ 130.751597619540064, 33.867458581871652 ], [ 130.751554438782449, 33.867607615536194 ], [ 130.751386581810067, 33.868010048392499 ], [ 130.751208414781757, 33.868392248317463 ], [ 130.750464847230774, 33.870139273669032 ], [ 130.750460603798047, 33.87026246583271 ], [ 130.750654915578878, 33.871309737840299 ], [ 130.750745692557388, 33.871722775663144 ], [ 130.750877753661229, 33.871756145316745 ], [ 130.751046911895969, 33.873577855256272 ], [ 130.751151390992732, 33.873738674074083 ], [ 130.750998407403955, 33.873770058987716 ], [ 130.75098899717409, 33.873739116241829 ], [ 130.750927616326578, 33.873756254314905 ], [ 130.750965763426393, 33.873858675856532 ], [ 130.751027134786028, 33.87384436470137 ], [ 130.751014271475412, 33.873810455395045 ], [ 130.751177631516214, 33.873775495685841 ], [ 130.751430845091306, 33.874168640799766 ], [ 130.751775669254812, 33.874255831727545 ], [ 130.751716502549272, 33.874404838903232 ], [ 130.751640534738613, 33.874385239319537 ], [ 130.751621383273488, 33.874437044539683 ], [ 130.751768547518907, 33.874476295700383 ], [ 130.751787703187631, 33.874423015078335 ], [ 130.751745409226203, 33.874410669409492 ], [ 130.75180370209759, 33.874264483012198 ], [ 130.752711700286824, 33.87449475051406 ], [ 130.752655957259918, 33.874657421012685 ], [ 130.75259726099361, 33.874644346545786 ], [ 130.752580273692161, 33.87469263095754 ], [ 130.752737366652667, 33.874730353427182 ], [ 130.752754775265998, 33.87468213477699 ], [ 130.752696950900798, 33.874666871314069 ], [ 130.752753555374625, 33.874505610776673 ], [ 130.753116501786508, 33.874597836667377 ], [ 130.753089060082885, 33.8746770277534 ], [ 130.75305972026004, 33.874667599301347 ], [ 130.753027524704606, 33.874747554579429 ], [ 130.753283856677939, 33.87481794487779 ], [ 130.753314311168964, 33.874740875187065 ], [ 130.75326857823228, 33.874727823155794 ], [ 130.753295595137672, 33.874642150149107 ], [ 130.753655079622916, 33.874735079618148 ], [ 130.753610236390955, 33.87485966760466 ], [ 130.753555009197015, 33.874844409741733 ], [ 130.753537597653832, 33.874893333447318 ], [ 130.753690361013241, 33.87493188636121 ], [ 130.753706902348426, 33.87488430420688 ], [ 130.753649944634191, 33.874868339626147 ], [ 130.753694361314189, 33.874745227811104 ], [ 130.754446987958403, 33.874936989848891 ], [ 130.754481787334072, 33.874854150255665 ], [ 130.754608208728484, 33.874890467520672 ], [ 130.754591564743151, 33.874973979492232 ], [ 130.754775396736136, 33.875022664238827 ], [ 130.754708806864471, 33.875207652878373 ], [ 130.754614135208641, 33.875238453462174 ], [ 130.754813489354262, 33.875292878019287 ], [ 130.75476015123914, 33.875222192036638 ], [ 130.754825455338221, 33.875037134222289 ], [ 130.755510784757689, 33.875212837953633 ], [ 130.755420280148144, 33.875447573406596 ], [ 130.755939452137056, 33.875581878653392 ], [ 130.756025645292937, 33.875340648302775 ], [ 130.756144757257204, 33.875371880576559 ], [ 130.756117747297168, 33.875448186237996 ], [ 130.756065975443477, 33.87543511833524 ], [ 130.756036375885913, 33.875516487776224 ], [ 130.756313438137283, 33.875589097011655 ], [ 130.756341299362674, 33.875509907705705 ], [ 130.75629641203119, 33.875496155175306 ], [ 130.756326001097108, 33.875418375889566 ], [ 130.756429583578011, 33.875445981415879 ], [ 130.756349455834624, 33.875677785635872 ], [ 130.759706625449695, 33.876536000472846 ], [ 130.759803182592407, 33.876299862189398 ], [ 130.759969308636244, 33.876348439692002 ], [ 130.759900231232564, 33.876550326317719 ], [ 130.76037136658158, 33.87666838338469 ], [ 130.760442766503587, 33.876466078714067 ], [ 130.761075879994678, 33.876629386085426 ], [ 130.761002786419851, 33.876818728020893 ], [ 130.761125829964158, 33.876834115438946 ], [ 130.761166347746638, 33.876863704427407 ], [ 130.761180289066061, 33.876823439201829 ], [ 130.761043890055561, 33.876789293873593 ], [ 130.761100486539107, 33.876633029499743 ], [ 130.761661535861577, 33.876776825501032 ], [ 130.761713439967139, 33.876743042515052 ], [ 130.761283972781825, 33.875878335129038 ], [ 130.761381667707923, 33.875845421228966 ], [ 130.761353772368352, 33.875786968634998 ], [ 130.76125692348424, 33.875827147177951 ], [ 130.76100870391349, 33.875320903358528 ], [ 130.761124991914727, 33.875282950132593 ], [ 130.761073453282336, 33.875178392179947 ], [ 130.761036282001612, 33.875190573434175 ], [ 130.761076666100195, 33.875267714134608 ], [ 130.760996254843491, 33.875295662264918 ], [ 130.760906924625232, 33.875116082299385 ], [ 130.761005056576408, 33.87507738518223 ], [ 130.760858669509474, 33.874765898066954 ], [ 130.760962846908683, 33.874732221633664 ], [ 130.760737364933362, 33.874130152529681 ], [ 130.761326514147896, 33.874252382827514 ], [ 130.76140683763083, 33.874414617398124 ], [ 130.761311707139441, 33.874451912426423 ], [ 130.761337045965547, 33.874503097054976 ], [ 130.761434738658522, 33.874470886350075 ], [ 130.762700341682063, 33.877043963014636 ], [ 130.763645933245328, 33.877283514339986 ], [ 130.763585451600591, 33.877449073389833 ], [ 130.763496410671308, 33.877474824564572 ], [ 130.763612585826621, 33.877508649459507 ], [ 130.76358919003161, 33.87747169181425 ], [ 130.763660534101206, 33.877286853560229 ], [ 130.763782751664763, 33.877319353161397 ], [ 130.763716594911642, 33.877498496339818 ], [ 130.763740374966687, 33.877526784518999 ], [ 130.763875679850543, 33.877575439889235 ], [ 130.763883343191196, 33.877552980334904 ], [ 130.763745908690225, 33.877518130445715 ], [ 130.763815536278742, 33.877328075690208 ], [ 130.765003952538649, 33.877629506009853 ], [ 130.76495207392901, 33.877776912505652 ], [ 130.765153373007706, 33.877828012976146 ], [ 130.765156169688453, 33.877816531616311 ], [ 130.765375844764009, 33.87787259863925 ], [ 130.765392942181791, 33.877827693697888 ], [ 130.765795934627903, 33.877932284760888 ], [ 130.765748004195615, 33.878064695931606 ], [ 130.765601401275632, 33.878016306144247 ], [ 130.765585081052137, 33.878062691284953 ], [ 130.765648850906956, 33.878051893757849 ], [ 130.76573778429966, 33.878095946963676 ], [ 130.767085320388333, 33.878438656270525 ], [ 130.767195577522955, 33.878452318610478 ], [ 130.767243062340896, 33.878482838430799 ], [ 130.767256328299084, 33.878441514543894 ], [ 130.767094502979916, 33.878408243463717 ], [ 130.767178115764352, 33.878181373313708 ], [ 130.767954755065858, 33.878385424081365 ], [ 130.768090786015506, 33.878416883957449 ], [ 130.768007184483309, 33.878640449069692 ], [ 130.767894436536238, 33.878610647010518 ], [ 130.767931814754405, 33.878638612241687 ], [ 130.768159335802892, 33.878698914494151 ], [ 130.76820895086243, 33.878691475097064 ], [ 130.768093671485019, 33.87866082813035 ], [ 130.768105912827735, 33.878623729184021 ], [ 130.768054332654941, 33.878608412664896 ], [ 130.76812264373973, 33.878425401108402 ], [ 130.769606191684403, 33.878804615011688 ], [ 130.769513938740289, 33.879050907811397 ], [ 130.770074201191051, 33.879192131131163 ], [ 130.770165945964663, 33.878945831456825 ], [ 130.770341400549938, 33.878991734352546 ], [ 130.770301143306312, 33.879099643052861 ], [ 130.770401259585668, 33.879124342745854 ], [ 130.770437969893436, 33.879016355866604 ], [ 130.771882825532373, 33.879384340858302 ], [ 130.772373094745774, 33.879512887513762 ], [ 130.772309105109429, 33.87967752674539 ], [ 130.772347290723218, 33.879688938141911 ], [ 130.772406028229312, 33.879522107198447 ], [ 130.772939343277528, 33.879660871055172 ], [ 130.772954922864983, 33.87964575235349 ], [ 130.772601420145179, 33.879010927225025 ], [ 130.772687028795048, 33.878973046845211 ], [ 130.772672057301179, 33.878950548816128 ], [ 130.772586474882758, 33.878986248887145 ], [ 130.772266983610194, 33.878424743208384 ], [ 130.77235726006856, 33.878378627427118 ], [ 130.771527457258856, 33.876883336874371 ], [ 130.771426187083932, 33.876935983249574 ], [ 130.77140076152412, 33.876890286425223 ], [ 130.771508817599965, 33.876850410585995 ], [ 130.771459484120157, 33.876760926066531 ], [ 130.771402241866923, 33.876707781749673 ], [ 130.770953115011253, 33.875894773304317 ], [ 130.770873756384304, 33.875815024557298 ], [ 130.770814607137879, 33.875811818041953 ], [ 130.770514268152425, 33.875282180093528 ], [ 130.770325310212627, 33.874725349840979 ], [ 130.770628090917796, 33.874446054533706 ], [ 130.770930652494314, 33.873995661857727 ], [ 130.770945715573419, 33.873999489745373 ], [ 130.771072009285263, 33.874795487450456 ], [ 130.771027778051263, 33.874835066539475 ], [ 130.771433680639319, 33.875151458872601 ], [ 130.771502115530836, 33.875100377771254 ], [ 130.771877623842613, 33.875019716425371 ], [ 130.771882953797473, 33.875039586042604 ], [ 130.77201348012693, 33.875012287389517 ], [ 130.772097697262183, 33.874972360273588 ], [ 130.772109934036877, 33.874991331321169 ], [ 130.77219536697234, 33.874955144120953 ], [ 130.772466920637356, 33.874888583358221 ], [ 130.77249256510072, 33.874938786909368 ], [ 130.772394854405377, 33.874979604030216 ], [ 130.773252174487141, 33.876509880760715 ], [ 130.773824753897742, 33.877537172718462 ], [ 130.774769218961268, 33.879227847242234 ], [ 130.775604647014688, 33.880710446849555 ], [ 130.779036525498412, 33.88158467535591 ], [ 130.779166882103226, 33.881233062824876 ], [ 130.779718304879736, 33.881374577572807 ], [ 130.781898848769345, 33.88193260571574 ], [ 130.781859029379405, 33.882023122287265 ], [ 130.781908820117962, 33.88203814143349 ], [ 130.781951210572259, 33.881941218798346 ], [ 130.782290179314032, 33.882038815225613 ], [ 130.782324750565607, 33.882002600179476 ], [ 130.782114847373435, 33.881649534029158 ], [ 130.782189669575189, 33.881618742470401 ], [ 130.782169336354372, 33.881577218471492 ], [ 130.782105387172692, 33.881600493795247 ], [ 130.781896505756805, 33.881253203458087 ], [ 130.781989589166159, 33.881222656739759 ], [ 130.78196722026027, 33.881176619288645 ], [ 130.781888449336748, 33.881207967245977 ], [ 130.781544012110032, 33.880607280889294 ], [ 130.781635037282257, 33.880581024340501 ], [ 130.781521583818972, 33.880377885548761 ], [ 130.781466162426057, 33.880468165247215 ], [ 130.780861772624434, 33.879410068783379 ], [ 130.780516556370316, 33.878789296830362 ], [ 130.779846149263449, 33.877583013216778 ], [ 130.779621478616718, 33.877176175302125 ], [ 130.782150015993437, 33.877819911362934 ], [ 130.78221355270631, 33.877941038963456 ], [ 130.782148328615477, 33.87796860937361 ], [ 130.782334867557864, 33.878315078777263 ], [ 130.782424034632101, 33.878312206705886 ], [ 130.78261295330887, 33.878629027784321 ], [ 130.7825822423614, 33.878641722730755 ], [ 130.782779985927647, 33.879008642514286 ], [ 130.782802997738401, 33.879001215858707 ], [ 130.783092883986342, 33.879550524700321 ], [ 130.783151700982614, 33.879527171620595 ], [ 130.78344677853525, 33.880054088162836 ], [ 130.7834249510353, 33.88009455340223 ], [ 130.783774692931331, 33.880722787926544 ], [ 130.784595616981932, 33.882214947210514 ], [ 130.78483102902149, 33.88258833793634 ], [ 130.784894012920176, 33.882697136161866 ], [ 130.785080411502236, 33.882746486236613 ], [ 130.785264336164033, 33.883024904023131 ], [ 130.785683108160669, 33.883137489925332 ], [ 130.786658603652256, 33.883376844671268 ], [ 130.786764856695896, 33.883552846417103 ], [ 130.786806973846268, 33.883563486254999 ], [ 130.788684559344262, 33.884038803021674 ], [ 130.789672834605426, 33.884291961244273 ], [ 130.790079595883185, 33.884391127467829 ], [ 130.790266435447336, 33.884315228453076 ], [ 130.790517712791285, 33.884369682494203 ], [ 130.79124581389172, 33.884548777111156 ], [ 130.791789261853182, 33.884687898458338 ], [ 130.793482984375771, 33.884894102559883 ], [ 130.793704816808685, 33.884919902758114 ], [ 130.793999988343387, 33.884942584703246 ], [ 130.794549174797254, 33.885069023095554 ], [ 130.79604939246363, 33.885355875498604 ], [ 130.797439156645595, 33.885629779318982 ], [ 130.79762273965855, 33.885723835242871 ], [ 130.79795229486561, 33.886111935231703 ], [ 130.798057054541431, 33.886108936148688 ], [ 130.798481389246234, 33.8866894205336 ], [ 130.79838956058785, 33.886859243038693 ], [ 130.798425638971111, 33.88690698923498 ], [ 130.798639838141753, 33.886940727594542 ], [ 130.798898013652916, 33.887309690220079 ], [ 130.799200839138223, 33.887727961397445 ], [ 130.79981597094482, 33.888586707316428 ], [ 130.7999536404038, 33.888769653425626 ], [ 130.800096242943397, 33.888874699056956 ], [ 130.80100661284294, 33.889335296740079 ], [ 130.801631615097705, 33.889647646661956 ], [ 130.801631615097762, 33.889647646661956 ], [ 130.801529525559232, 33.889726869678121 ], [ 130.801824625289697, 33.890199149970385 ], [ 130.802308615522747, 33.890944970274852 ], [ 130.802409329365275, 33.891049946301507 ], [ 130.802723949422045, 33.891330026030367 ], [ 130.802904687058259, 33.891420901731806 ], [ 130.80318746592144, 33.891462629648323 ], [ 130.803278955145203, 33.891438966724458 ], [ 130.803233540957478, 33.891307030532282 ], [ 130.80325696612266, 33.891056090974885 ], [ 130.803328851704265, 33.890860803622289 ], [ 130.803395782721282, 33.890744965839382 ], [ 130.803527570422773, 33.890587883997263 ], [ 130.80358655201897, 33.890622916117984 ], [ 130.803615272258185, 33.890557874605385 ], [ 130.803640069320068, 33.89012266469561 ], [ 130.803674666843023, 33.889796299730783 ], [ 130.803708698526037, 33.889689074099657 ], [ 130.80366461898862, 33.889390337988665 ], [ 130.803737451740318, 33.88919505343376 ], [ 130.803771366294001, 33.888936239355544 ], [ 130.803695527851573, 33.888785165690507 ], [ 130.803687344965056, 33.888615180139062 ], [ 130.803695204687841, 33.888511928519556 ], [ 130.803748925411242, 33.888345211673581 ], [ 130.803784545535592, 33.888180085618785 ], [ 130.803795853812346, 33.887816350221811 ], [ 130.803851106821782, 33.887395488831736 ], [ 130.803889063840273, 33.887039684961991 ], [ 130.803923621590116, 33.886914216022411 ], [ 130.803952270544812, 33.88687932316649 ], [ 130.804161735490283, 33.886906704313979 ], [ 130.804283739016654, 33.886860829744052 ], [ 130.804271550182136, 33.886779803716244 ], [ 130.804157547654427, 33.886660437819941 ], [ 130.804108266406757, 33.886549204927313 ], [ 130.804005671872233, 33.886436198403089 ], [ 130.803966881265211, 33.886326532690916 ], [ 130.804043351087017, 33.886201201405719 ], [ 130.804062709063771, 33.886064579617667 ], [ 130.804075749468922, 33.885772344835736 ], [ 130.804100107733547, 33.885535706021628 ], [ 130.804219842997384, 33.884817833345281 ], [ 130.804578134273441, 33.882632586663789 ], [ 130.804652425766534, 33.882210206120071 ], [ 130.804748980514972, 33.881625778884946 ], [ 130.804169848863381, 33.880848052480957 ], [ 130.803221396004858, 33.879588419519642 ], [ 130.802958488318552, 33.879213118794617 ], [ 130.80264802419839, 33.87880597300569 ], [ 130.802309107788773, 33.878351094069409 ], [ 130.801964486966, 33.877899445534965 ], [ 130.801621778078328, 33.877444558368452 ], [ 130.801318952246106, 33.877035800961977 ], [ 130.800974333294278, 33.876579359710291 ], [ 130.800665828009897, 33.876164252979983 ], [ 130.800120934618036, 33.875438967846385 ], [ 130.799772704335084, 33.874092931660407 ], [ 130.799690843761454, 33.874078501130128 ], [ 130.799690272087361, 33.873916488054441 ], [ 130.800185373016234, 33.873933139964315 ], [ 130.800746162862737, 33.873964265728546 ], [ 130.801101279449625, 33.873994987605322 ], [ 130.801635299357514, 33.874062623871971 ], [ 130.801916113755226, 33.874107522079662 ], [ 130.803134321667329, 33.874382709310225 ], [ 130.803814576680111, 33.874631600256855 ], [ 130.804268748718528, 33.874804123829001 ], [ 130.8041862178884, 33.874935574410934 ], [ 130.804955770465938, 33.875283075559629 ], [ 130.805046565651566, 33.875138676609524 ], [ 130.805194472007713, 33.875215900405394 ], [ 130.805425103786291, 33.875336294892016 ], [ 130.805810222570642, 33.875575128537051 ], [ 130.806038380414577, 33.875735948758049 ], [ 130.806267469525466, 33.875914239629985 ], [ 130.806675164475081, 33.876283420134349 ], [ 130.806782492737028, 33.876399532155006 ], [ 130.80719936099004, 33.876916437456536 ], [ 130.807337938811514, 33.877126353144547 ], [ 130.807788134214576, 33.877641759288473 ], [ 130.807873837548527, 33.877648232910076 ], [ 130.807953922607084, 33.877599119652459 ], [ 130.808268324625999, 33.877953849663804 ], [ 130.808158580784067, 33.878066453121249 ], [ 130.808728474570046, 33.87871545371901 ], [ 130.808638866293904, 33.878764552671313 ], [ 130.808617954673906, 33.87874071162372 ], [ 130.808356676960926, 33.878902317937161 ], [ 130.808420313710343, 33.878977082277714 ], [ 130.808685416624542, 33.878813862747094 ], [ 130.808662597074829, 33.878793187434994 ], [ 130.808750341076632, 33.87873774710458 ], [ 130.808845239531422, 33.878882435836132 ], [ 130.808902914719198, 33.879065175258582 ], [ 130.808915735694882, 33.87930032330317 ], [ 130.808895536366521, 33.879392427669117 ], [ 130.808557786435614, 33.880102006017502 ], [ 130.808209548942784, 33.880825795484164 ], [ 130.807994321060704, 33.881257538974921 ], [ 130.80780199241957, 33.881663888497158 ], [ 130.807402086660545, 33.882486141075617 ], [ 130.807299676390983, 33.882714769366423 ], [ 130.807257318372962, 33.882913202259722 ], [ 130.807122315993354, 33.883664371999821 ], [ 130.806990916152216, 33.884501340500222 ], [ 130.807037443688927, 33.884561781073067 ], [ 130.807460082017627, 33.884652954899764 ], [ 130.807563078041539, 33.884588030246832 ], [ 130.80812907407838, 33.884023350766704 ], [ 130.808431624119606, 33.883729945642756 ], [ 130.808985944596543, 33.884127942144438 ], [ 130.809018146385682, 33.884202659029135 ], [ 130.808513290484626, 33.884687980780868 ], [ 130.808374850178382, 33.884845056707739 ], [ 130.808487106319319, 33.884897638949013 ], [ 130.808656554402461, 33.884924879868898 ], [ 130.808700377449242, 33.884920158387402 ], [ 130.80945660963971, 33.884460721891891 ], [ 130.809494718693685, 33.884452820989608 ], [ 130.809679400330765, 33.884484873353074 ], [ 130.809701730336542, 33.884631986731364 ], [ 130.809869415191656, 33.88453109310268 ], [ 130.809912404880777, 33.884492558910161 ], [ 130.810310218688755, 33.884696459902955 ], [ 130.810414856583293, 33.884603639980298 ], [ 130.811081713820926, 33.883694446908471 ], [ 130.811175817535144, 33.883628659401325 ], [ 130.81126211198756, 33.883619353526662 ], [ 130.811654062661432, 33.883742096355903 ], [ 130.81193784185831, 33.883838046936219 ], [ 130.814124516442746, 33.884548869878792 ], [ 130.814211194893289, 33.884577036511473 ], [ 130.813746253977143, 33.885860166999905 ], [ 130.813698500646865, 33.886011539458607 ], [ 130.813669847714465, 33.886196611052725 ], [ 130.813647014452897, 33.886462840221107 ], [ 130.813661534515632, 33.886641074519197 ], [ 130.813706263871381, 33.886909378899709 ], [ 130.813763503221708, 33.887202145540819 ], [ 130.813829827858456, 33.887541343835551 ], [ 130.81390064343114, 33.88790358613884 ], [ 130.814421590209832, 33.88792902850647 ], [ 130.814393532145175, 33.887741896817019 ], [ 130.814669584817523, 33.887883051660872 ], [ 130.814839639244866, 33.887886972707321 ], [ 130.81506121657489, 33.887949293982508 ], [ 130.815225949223532, 33.887973491067036 ], [ 130.815406825316501, 33.887972917233284 ], [ 130.815529206457057, 33.887955138858423 ], [ 130.815623454813704, 33.887872232454676 ], [ 130.815791202044323, 33.887790702519766 ], [ 130.815946689354291, 33.887715072065369 ], [ 130.816070328329715, 33.887652424063624 ], [ 130.816305431380698, 33.887511754610536 ], [ 130.816410234042849, 33.887439356791496 ], [ 130.816602049400473, 33.887476978374011 ], [ 130.816690784482262, 33.887433507807224 ], [ 130.816961533748753, 33.887300850063468 ], [ 130.817263312979179, 33.887153022269345 ], [ 130.817589694510161, 33.88700199114087 ], [ 130.817815616131128, 33.886868068006564 ], [ 130.81822002315468, 33.886575141916559 ], [ 130.81840677661441, 33.886439681032272 ], [ 130.818884384276231, 33.886447008278623 ], [ 130.819378156453581, 33.886438578349591 ], [ 130.81977105329716, 33.886263478270045 ], [ 130.819903753262679, 33.886266913185828 ], [ 130.819919483011034, 33.886267358342202 ], [ 130.82035317714724, 33.886130494606022 ], [ 130.82066265951741, 33.88599415290836 ], [ 130.82134355949006, 33.885666893410146 ], [ 130.821444204232023, 33.885332308479207 ], [ 130.821544753039916, 33.884987016922175 ], [ 130.821579301832031, 33.88490338481288 ], [ 130.821896119513383, 33.884409635510117 ], [ 130.822665955327977, 33.883358655778736 ], [ 130.822733104174944, 33.88329986374449 ], [ 130.822735663298971, 33.883282469273041 ], [ 130.822759007690109, 33.882806045194904 ], [ 130.822759362486778, 33.882798156409045 ], [ 130.822749800704287, 33.882521030980122 ], [ 130.822748954254138, 33.882511732205259 ], [ 130.82274755077367, 33.882470593669453 ], [ 130.822718762944731, 33.882178718445168 ], [ 130.822715495558555, 33.882145535301461 ], [ 130.822695849335645, 33.882022870565699 ], [ 130.822685985406906, 33.881989257445866 ], [ 130.822682767156863, 33.881978263576485 ], [ 130.822661653538404, 33.881952592831915 ], [ 130.822565289435488, 33.881799245825654 ], [ 130.822511710786017, 33.88172915321951 ], [ 130.822476859597742, 33.881643447694088 ], [ 130.822480088206476, 33.881496794260066 ], [ 130.822456450876672, 33.881318547068979 ], [ 130.822594511510658, 33.881156592314966 ], [ 130.82255191074853, 33.881005366821164 ], [ 130.822533655165103, 33.880838397267119 ], [ 130.822423387731021, 33.880736661852978 ], [ 130.822415266646146, 33.880697275727869 ], [ 130.822410313133418, 33.880673249030686 ], [ 130.822375403728699, 33.880503788931655 ], [ 130.8226221304391, 33.880568809856328 ], [ 130.822624577645684, 33.880569446243399 ], [ 130.822625687793703, 33.880523029957956 ], [ 130.822579883304002, 33.880450548138221 ], [ 130.822563972538092, 33.88019630765838 ], [ 130.822317640168166, 33.88012522993764 ], [ 130.822342162593117, 33.880039399287369 ], [ 130.822202650769242, 33.880005808730374 ], [ 130.822285926282404, 33.879851172409282 ], [ 130.822332116712346, 33.879685563737716 ], [ 130.82218997764258, 33.879270114266511 ], [ 130.822306384621214, 33.879153632737655 ], [ 130.822312746192296, 33.879068691590476 ], [ 130.822355155902329, 33.878516641920953 ], [ 130.822338048721861, 33.878407224172292 ], [ 130.822274811438291, 33.878357964622069 ], [ 130.82221183225937, 33.878204878062121 ], [ 130.822210280239688, 33.878046668692505 ], [ 130.822211540851697, 33.877815206032281 ], [ 130.822246634390524, 33.877736926548423 ], [ 130.822316886616477, 33.877615097193491 ], [ 130.822404409880335, 33.877462227653162 ], [ 130.822572849071577, 33.877298558061639 ], [ 130.822922599654561, 33.877085982752916 ], [ 130.823310292362947, 33.876999124863723 ], [ 130.823727537773124, 33.876883218744034 ], [ 130.823846623378557, 33.876832389711304 ], [ 130.823995176404537, 33.876788861435607 ], [ 130.824347031245054, 33.876695608620992 ], [ 130.82449029893138, 33.876650521381514 ], [ 130.824655753049939, 33.876513823439673 ], [ 130.824913713872434, 33.876251451695829 ], [ 130.82514114284109, 33.876088636703415 ], [ 130.825323276373894, 33.875997324800785 ], [ 130.825339927054529, 33.875995938051062 ], [ 130.825601289947144, 33.875974755696198 ], [ 130.825819954949992, 33.87583777833941 ], [ 130.826026115163216, 33.875771858899853 ], [ 130.826148169944105, 33.875629038290228 ], [ 130.826176303329021, 33.875592026743739 ], [ 130.826204806313399, 33.875393427100633 ], [ 130.826004015544868, 33.874889496731605 ], [ 130.825994342250198, 33.874808477121505 ], [ 130.826075429242138, 33.874535002825354 ], [ 130.826042984940074, 33.874386752374313 ], [ 130.825876403794496, 33.874129972998212 ], [ 130.825788477068443, 33.874038839927543 ], [ 130.825644609598015, 33.873982142952627 ], [ 130.825568677508784, 33.873972456402569 ], [ 130.825244872423127, 33.87393113928681 ], [ 130.825145854949227, 33.873905992743147 ], [ 130.825098313157099, 33.873873735119432 ], [ 130.824956374949949, 33.87375068574655 ], [ 130.824859902334765, 33.873658341862082 ], [ 130.824858786135991, 33.873657002463005 ], [ 130.824852821423093, 33.873652767014441 ], [ 130.824861536960697, 33.873581846477499 ], [ 130.824871875203911, 33.873486484510572 ], [ 130.824879889212013, 33.873382035232837 ], [ 130.824904078805929, 33.8731773702916 ], [ 130.824906657846014, 33.873165682045958 ], [ 130.824909896356701, 33.873150894284201 ], [ 130.824908475482658, 33.873148848951956 ], [ 130.824790239539624, 33.872977863101802 ], [ 130.824707022233582, 33.872706551928609 ], [ 130.824675286080179, 33.872543789403224 ], [ 130.824675450740301, 33.872525194607633 ], [ 130.824531388215206, 33.872394744527064 ], [ 130.824311875151324, 33.87219600175051 ], [ 130.823745255535471, 33.87168985595487 ], [ 130.823542293434883, 33.87148754159432 ], [ 130.823371683090528, 33.871317467186408 ], [ 130.823196979097105, 33.871192888624151 ], [ 130.82308004636073, 33.871109462161733 ], [ 130.822881100859775, 33.870967591090952 ], [ 130.822573596458483, 33.870802811235919 ], [ 130.822445742438106, 33.870754164481582 ], [ 130.822135218707672, 33.870641364593922 ], [ 130.821813355269569, 33.870545666056962 ], [ 130.821637185688672, 33.870493286269003 ], [ 130.82127788778979, 33.87036949488617 ], [ 130.820990051114194, 33.870221153436788 ], [ 130.820757510274319, 33.870075498026779 ], [ 130.820667863254727, 33.8700193673751 ], [ 130.820371611392488, 33.8697827516282 ], [ 130.820228581162723, 33.869633351454766 ], [ 130.820103772543575, 33.869502925006479 ], [ 130.819878355923493, 33.869179064304689 ], [ 130.81978458967032, 33.869044387154013 ], [ 130.819504679245171, 33.868674870761048 ], [ 130.819365899669634, 33.868493494899226 ], [ 130.819310347671973, 33.868447768819387 ], [ 130.818472424411794, 33.867891657906689 ], [ 130.817458456249767, 33.867604114696562 ], [ 130.816467188867506, 33.86757384699024 ], [ 130.814340882497874, 33.867664650109226 ], [ 130.813410150528256, 33.867536012357327 ], [ 130.81200648564726, 33.866994977106692 ], [ 130.810523368037138, 33.866790670088974 ], [ 130.808888911895394, 33.866820937795303 ], [ 130.807239321900369, 33.867221984904155 ], [ 130.803153181545923, 33.86829648847884 ], [ 130.802139213383896, 33.868432693157324 ], [ 130.798613025596552, 33.868493228569982 ], [ 130.79451175138891, 33.868780771780116 ], [ 130.793119436897769, 33.868969944944674 ], [ 130.791394177636988, 33.869068314990237 ], [ 130.790107800117937, 33.869011563040871 ], [ 130.788430780014096, 33.868795905633277 ], [ 130.787125485178706, 33.868205685359861 ], [ 130.78435599004959, 33.867479260407961 ], [ 130.783720368216677, 33.867471693481377 ], [ 130.780697842521363, 33.868072336305836 ], [ 130.780285856622072, 33.868090652110745 ], [ 130.779437487770991, 33.868092181461137 ], [ 130.773751888310159, 33.867066862909233 ], [ 130.770246036637985, 33.866154575323144 ], [ 130.769575654236093, 33.866111301961745 ], [ 130.769063467893034, 33.86610562676681 ], [ 130.767060124080331, 33.866224805860483 ], [ 130.766315254744825, 33.866212036671868 ], [ 130.76549660787515, 33.866182241898422 ], [ 130.757230392045017, 33.865244404337268 ], [ 130.756666477329333, 33.865180039848852 ], [ 130.756429240046089, 33.865152170138309 ], [ 130.755759709112965, 33.865075045378667 ], [ 130.755668416761239, 33.86506479132224 ], [ 130.755158652618121, 33.865007711696762 ], [ 130.754921124593295, 33.864963774888906 ], [ 130.754911524081052, 33.864961997530038 ], [ 130.754690917546327, 33.864921127282038 ], [ 130.754591077487134, 33.864873801780689 ], [ 130.754300496904023, 33.864735862656012 ], [ 130.753828915144339, 33.864483240852735 ], [ 130.753441137614544, 33.864283613401263 ], [ 130.753271718151353, 33.864200504276944 ], [ 130.753133297857232, 33.864143874818843 ], [ 130.75283542344323, 33.864047760004993 ], [ 130.752547314623257, 33.863984561210422 ], [ 130.752411004034485, 33.863971961805419 ], [ 130.752184116062011, 33.863950866936719 ], [ 130.751749717472421, 33.86395329911975 ], [ 130.75110400756401, 33.863964959069605 ], [ 130.75098165303416, 33.863966258569562 ], [ 130.750578469124378, 33.863970588903705 ], [ 130.749782977537706, 33.863985453232985 ], [ 130.749512483285798, 33.86399159497082 ], [ 130.748369592682138, 33.864005747813508 ], [ 130.747081797976733, 33.864022829989636 ], [ 130.746972973242947, 33.86402429717063 ], [ 130.746118064221918, 33.864036270480831 ], [ 130.744976618064413, 33.864053912991274 ], [ 130.744175156772826, 33.864066264908971 ], [ 130.743812981078293, 33.864080232726501 ], [ 130.74278651465562, 33.864119719637053 ], [ 130.742395891246844, 33.864144894204856 ], [ 130.741396434860775, 33.864236129235557 ], [ 130.741054829892676, 33.864267319094438 ], [ 130.740205828503264, 33.864355410309742 ], [ 130.740175124821917, 33.86435900776938 ], [ 130.739468754468533, 33.864441830504902 ], [ 130.739208570969936, 33.864458184575405 ], [ 130.738659044725694, 33.864492801980475 ], [ 130.738556317762118, 33.864508996716062 ], [ 130.738217427373314, 33.864562301671683 ], [ 130.737999377646759, 33.864585718135743 ], [ 130.737734238177893, 33.864627345496018 ], [ 130.737062668167368, 33.864732771322331 ], [ 130.73681617334185, 33.864765703660154 ], [ 130.736581631800647, 33.864797110331082 ], [ 130.736426348575122, 33.864817839773131 ], [ 130.736016940755746, 33.864894512979511 ], [ 130.735781042421024, 33.864955081357536 ], [ 130.73541251030673, 33.865063116444766 ], [ 130.735143591038764, 33.865172495932633 ], [ 130.735018926747188, 33.865223226213089 ], [ 130.733959256215172, 33.865694233659468 ], [ 130.733808235344668, 33.865761387736597 ], [ 130.73309548811477, 33.866080630215471 ], [ 130.732981184432788, 33.866125253625626 ], [ 130.732632143482761, 33.866261435527448 ], [ 130.732474744036352, 33.866308779818226 ], [ 130.732260218395453, 33.866350084498627 ], [ 130.732024081348243, 33.866382821852852 ], [ 130.731663247524494, 33.866408382546815 ], [ 130.73133804522115, 33.866407674123529 ], [ 130.731158262563639, 33.866390024823389 ], [ 130.730996880533269, 33.866374173676256 ], [ 130.730793291912534, 33.866340902412141 ], [ 130.730514760779954, 33.866274716165854 ], [ 130.730246980943974, 33.866199601429706 ], [ 130.729965043072696, 33.866082758394548 ], [ 130.729697434664331, 33.865953973536364 ], [ 130.729527999321846, 33.86585519754707 ], [ 130.728882747680416, 33.865381828998338 ], [ 130.728642340585594, 33.865204001150943 ], [ 130.728160819601896, 33.864845808923128 ], [ 130.727789995024352, 33.864569573744092 ], [ 130.726913771514006, 33.863920005993094 ], [ 130.726415064961003, 33.863540522343385 ], [ 130.725535557659072, 33.862603593590158 ], [ 130.724768775765313, 33.861581217731839 ], [ 130.72393024819732, 33.860473643885321 ], [ 130.723226243768551, 33.85986828975868 ], [ 130.722456262107329, 33.859528056200148 ], [ 130.722022234085841, 33.859336815863159 ], [ 130.721436669421678, 33.859080712390806 ], [ 130.720649069524711, 33.858736875911084 ], [ 130.72019179094076, 33.858538327027773 ], [ 130.719350363077666, 33.858166106266111 ], [ 130.718731026736748, 33.857895194656166 ], [ 130.718102868039921, 33.857618617334253 ], [ 130.717811160855888, 33.857488060495797 ], [ 130.717336584656238, 33.857284244779265 ], [ 130.716630859438538, 33.856989593390523 ], [ 130.71615831767167, 33.856873477235041 ], [ 130.715774296511796, 33.856810887680147 ], [ 130.715582996037568, 33.85679769718373 ], [ 130.715404926794207, 33.856785379477934 ], [ 130.715069944939614, 33.856784605357156 ], [ 130.714937852569022, 33.856784299850183 ], [ 130.714792809185411, 33.856787134029481 ], [ 130.714065149801968, 33.856838699826625 ], [ 130.713533184514517, 33.85687642205113 ], [ 130.713250628219896, 33.85689647038626 ], [ 130.712016253879682, 33.856982912558934 ], [ 130.711671648368281, 33.857006477893378 ], [ 130.711290517167612, 33.857032562428905 ], [ 130.711176761202893, 33.857040329328797 ], [ 130.710898027052878, 33.857059394531795 ], [ 130.710774902789012, 33.857067802760312 ], [ 130.709819065830175, 33.857133076142418 ], [ 130.708941372341513, 33.857192009834158 ], [ 130.708703764027774, 33.85720842842025 ], [ 130.708504790969442, 33.857222186267101 ], [ 130.708242880379942, 33.857240303134077 ], [ 130.707861574580534, 33.857266664426639 ], [ 130.706873112785019, 33.85733447755706 ], [ 130.706912818550165, 33.857698109811238 ], [ 130.70687311278499, 33.857334477557075 ], [ 130.706725552037852, 33.857344548134684 ], [ 130.706577646984272, 33.857381177980663 ], [ 130.705694610577041, 33.857740714811271 ], [ 130.705265166976233, 33.857984114302432 ], [ 130.705008515227007, 33.858129522121736 ], [ 130.704651530729876, 33.85831280096842 ], [ 130.704522434758331, 33.858379054688065 ], [ 130.704103083259497, 33.858558867876745 ], [ 130.703709202168341, 33.858673447977672 ], [ 130.703709202168341, 33.858673447977658 ], [ 130.703324035671557, 33.858758385967541 ] ] ] ] } }
]
}
