{
"type": "FeatureCollection",
"name": "北九州空港",
"crs": { "type": "name", "properties": { "name": "urn:ogc:def:crs:EPSG::4612" } },
"features": [
{ "type": "Feature", "properties": { "KEY_CODE": "4010717542", "PREF": "40", "CITY": "107", "K_AREA": "131000010", "S_AREA": "17542", "PREF_NAME": "福岡県", "CITY_NAME": "北九州市小倉南区", "S_NAME": "空港北町", "KIGO_E": null, "HCODE": 8101, "AREA": 1614686.618, "PERIMETER": 7105.045, "KIHON1": "1310", "DUMMY1": "-", "KIHON2": "00", "KIHON3": "010", "C1": 91, "C2": 1754, "DUMMY2": "-", "C3": 2, "DUMMY3": null, "C4": 0, "KIGO_A": null, "KIGO_D": null, "N_KEN": null, "N_CITY": null, "N_C1": 0, "KIGO_I": "I", "KEYCODE1": "1071754-2-00", "JINKO": 0, "SETAI": 0, "KEN_OLD": "40", "CITY_OLD": "107", "X_CODE": 131.033826, "Y_CODE": 33.848912, "KCODE1": "1310-00010", "CCODE1": "1754-2" }, "geometry": { "type": "MultiPolygon", "coordinates": [ [ [ [ 131.027307974374452, 33.84346629359559 ], [ 131.024684257269769, 33.856723792270515 ], [ 131.034294162692873, 33.858079912572421 ], [ 131.035521836799347, 33.856731270264852 ], [ 131.035197363543858, 33.853657282371877 ], [ 131.042077144086534, 33.821226785347086 ], [ 131.03216298307575, 33.81976121371941 ], [ 131.027307974374452, 33.84346629359559 ] ] ] ] } }
]
}
