{
"type": "FeatureCollection",
"name": "古賀",
"crs": { "type": "name", "properties": { "name": "urn:ogc:def:crs:OGC:1.3:CRS84" } },
"features": [
{ "type": "Feature", "properties": { "id": "古賀.1", "Name": null, "description": null, "timestamp": null, "begin": null, "end": null, "altitudeMode": null, "tessellate": -1, "extrude": 0, "visibility": -1, "drawOrder": null, "icon": null, "KEY_CODE": "402230259101", "PREF": "40", "CITY": "223", "K_AREA": "017002180", "S_AREA": "0259101", "PREF_NAME": "福岡県", "CITY_NAME": "古賀市", "S_NAME": "舞の里二丁目", "KIGO_E": null, "HCODE": 8101, "AREA": 2438.227, "PERIMETER": 237.209, "KIHON1": "0170", "DUMMY1": "-", "KIHON2": "02", "KIHON3": "180", "C1": 8, "C2": 259, "DUMMY2": "-", "C3": 1, "DUMMY3": "-", "C4": 1, "KIGO_A": null, "KIGO_D": null, "N_KEN": null, "N_CITY": null, "N_C1": 0, "KIGO_I": null, "KEYCODE1": "2230259-1-01", "JINKO": 15, "SETAI": 6, "KEN_OLD": "40", "CITY_OLD": "223", "X_CODE": 130.485239, "Y_CODE": 33.748486, "KCODE1": "0170-02180", "CCODE1": "259-1- 1" }, "geometry": { "type": "MultiPolygon", "coordinates": [ [ [ [ 130.468372079371989, 33.718628732556802 ], [ 130.467482798665003, 33.718390608885002 ], [ 130.467628819058007, 33.717821741796101 ], [ 130.466274236537998, 33.716124325105 ], [ 130.465979654557003, 33.7158533955336 ], [ 130.465293086555988, 33.715660301394799 ], [ 130.465401205099994, 33.714853902711098 ], [ 130.465296173392005, 33.7138719509176 ], [ 130.465547322405001, 33.713039685124301 ], [ 130.465501637801992, 33.712725589896401 ], [ 130.46512069427601, 33.712314730557303 ], [ 130.464818899232, 33.7128447120296 ], [ 130.464016318262992, 33.713007621379603 ], [ 130.462564668819994, 33.713973799718801 ], [ 130.462432664926013, 33.714754033698497 ], [ 130.462082197363003, 33.715549450053103 ], [ 130.46068356884399, 33.716430402943701 ], [ 130.460537500229009, 33.716799391071703 ], [ 130.460795666107998, 33.717514333370403 ], [ 130.459918216355987, 33.718143442762504 ], [ 130.459799331251986, 33.718518881236797 ], [ 130.459159092264997, 33.719319076246997 ], [ 130.456542264516997, 33.720544432433499 ], [ 130.456737294240014, 33.720680545861498 ], [ 130.456542264516997, 33.720544432433599 ], [ 130.454696939655008, 33.721259897740303 ], [ 130.454678385849007, 33.721401897849603 ], [ 130.453236977327009, 33.722011281589097 ], [ 130.453108533424995, 33.722106006841301 ], [ 130.453116285027988, 33.722116987913601 ], [ 130.453203389684006, 33.7222572167584 ], [ 130.453108533424995, 33.722106006841301 ], [ 130.452166356387011, 33.722652781767501 ], [ 130.452624439306987, 33.722947726754903 ], [ 130.452166356387011, 33.722652781767501 ], [ 130.450726825856009, 33.723754278666199 ], [ 130.448342095502994, 33.724584182931999 ], [ 130.447172940592992, 33.725359538125197 ], [ 130.449875620043997, 33.727572161695498 ], [ 130.451685753567006, 33.726476398951903 ], [ 130.452913748703992, 33.726145963342297 ], [ 130.454036279514014, 33.726122307574698 ], [ 130.456170589158006, 33.726501264876497 ], [ 130.457396614961993, 33.726462964324099 ], [ 130.459679347638996, 33.729420082703903 ], [ 130.458914691789005, 33.730480342109097 ], [ 130.458374809978011, 33.731840675677198 ], [ 130.459401150725995, 33.731942969570703 ], [ 130.459399092154001, 33.732797735782 ], [ 130.459075011157012, 33.732747105229102 ], [ 130.459025964659986, 33.733046928172399 ], [ 130.459400246166012, 33.733076822425801 ], [ 130.459056385048001, 33.733929101026 ], [ 130.459216436335993, 33.734899468098902 ], [ 130.459593253441, 33.735220848672697 ], [ 130.459927134350011, 33.735254789114002 ], [ 130.460383059094994, 33.736088951620196 ], [ 130.459849310548009, 33.736359632737098 ], [ 130.460085510123008, 33.736618406552502 ], [ 130.460475269727993, 33.736446409282799 ], [ 130.461173776511998, 33.737653546791897 ], [ 130.460254014545001, 33.737931639172999 ], [ 130.460401185638005, 33.738196290393802 ], [ 130.461221048992002, 33.737922831515803 ], [ 130.461704709828012, 33.738733724156504 ], [ 130.461600756854011, 33.738786452697902 ], [ 130.462126070740993, 33.740088203223003 ], [ 130.462664254477005, 33.740146050481101 ], [ 130.462650851143991, 33.740335895002502 ], [ 130.461681380681, 33.7401689610113 ], [ 130.461283713927003, 33.740592822588503 ], [ 130.462231895291012, 33.742649971103603 ], [ 130.46295392117301, 33.743700751220203 ], [ 130.464028004477001, 33.745772879270902 ], [ 130.463952861547995, 33.745876241270999 ], [ 130.465846922272988, 33.749919248921998 ], [ 130.466316848638996, 33.751423344869501 ], [ 130.46736536795899, 33.753801917300997 ], [ 130.472759857462989, 33.752221283575601 ], [ 130.475747269441996, 33.752213173464703 ], [ 130.476491469829, 33.7517667154397 ], [ 130.477564455669011, 33.751471968516697 ], [ 130.479937277869993, 33.751616261859198 ], [ 130.479944822330992, 33.751777460543302 ], [ 130.480549786480992, 33.751699426946999 ], [ 130.480722445156005, 33.752007133120799 ], [ 130.481727285299996, 33.751501727792999 ], [ 130.481918365187994, 33.751817820306997 ], [ 130.483211651413995, 33.751238881128799 ], [ 130.482785773768001, 33.750562631474303 ], [ 130.485817871248003, 33.749158912415403 ], [ 130.486381568733009, 33.749803741228902 ], [ 130.487287917190002, 33.749379589652101 ], [ 130.486722845565993, 33.748724122255297 ], [ 130.489489248235003, 33.747360683195801 ], [ 130.489703198438008, 33.747648399591299 ], [ 130.489992153384009, 33.747494344251699 ], [ 130.491161200139999, 33.748471098214203 ], [ 130.493763411069011, 33.746545059188399 ], [ 130.494615870167991, 33.746592437338698 ], [ 130.497040850617992, 33.7453506284591 ], [ 130.498336841237006, 33.745488676605703 ], [ 130.499623654150014, 33.744891205418803 ], [ 130.499608197126008, 33.7446196699699 ], [ 130.49809185208801, 33.744307746796103 ], [ 130.497679349094994, 33.743883505062101 ], [ 130.498384555584011, 33.742895491998603 ], [ 130.497455999810001, 33.742123436040103 ], [ 130.497354352156009, 33.742521922304803 ], [ 130.497035589458989, 33.742514847559498 ], [ 130.495027160359996, 33.7416708105537 ], [ 130.494846375665986, 33.741434872277402 ], [ 130.493466600712992, 33.741640253602398 ], [ 130.493330907842989, 33.741250024158603 ], [ 130.493028797423989, 33.740999779528103 ], [ 130.492384881795999, 33.741142379843801 ], [ 130.491776623662986, 33.741558359332302 ], [ 130.491430426742994, 33.742466519537402 ], [ 130.490897127750003, 33.742572656243603 ], [ 130.490597632081005, 33.742815846241299 ], [ 130.490066068901001, 33.742863240436797 ], [ 130.489224279987013, 33.743327759115701 ], [ 130.488212932480991, 33.743533407971398 ], [ 130.48747183204901, 33.743538432895598 ], [ 130.486852991765005, 33.742712705562099 ], [ 130.48466343557601, 33.742635534060298 ], [ 130.483883399272997, 33.742461662820403 ], [ 130.483270963722987, 33.742044912946902 ], [ 130.483414172017007, 33.741544336769003 ], [ 130.483253232934004, 33.741230136259098 ], [ 130.481449408195999, 33.740044960948602 ], [ 130.481588901779986, 33.739593322683298 ], [ 130.482398272903993, 33.739602133118098 ], [ 130.482942680120999, 33.739883921110597 ], [ 130.483347890656006, 33.740342743740001 ], [ 130.483144410063005, 33.7402598425072 ], [ 130.482878785518011, 33.740462495666797 ], [ 130.483265191402012, 33.740817553074201 ], [ 130.483750709936004, 33.740841226552497 ], [ 130.484326651318014, 33.741628051700403 ], [ 130.485175675415007, 33.741061669850303 ], [ 130.486755931869993, 33.74259526558 ], [ 130.486793428194005, 33.742238823050002 ], [ 130.487161975517012, 33.742054194374901 ], [ 130.489069509789999, 33.741520654322102 ], [ 130.489276866794, 33.7413141384935 ], [ 130.489797957267996, 33.739919448808102 ], [ 130.490200010890987, 33.739505304654401 ], [ 130.491182863748008, 33.739107615160798 ], [ 130.490862177331991, 33.738768182628597 ], [ 130.490994348767003, 33.738682171778798 ], [ 130.490931574131992, 33.738346507509704 ], [ 130.490797595402, 33.738373003680302 ], [ 130.490980921551994, 33.737802552299001 ], [ 130.49060584396301, 33.737534741556203 ], [ 130.490307288542994, 33.7364850858309 ], [ 130.490276831896011, 33.735572832902399 ], [ 130.489360115479997, 33.735387801274399 ], [ 130.489491708103998, 33.734358966414803 ], [ 130.488851871017999, 33.734270633950999 ], [ 130.489207112882013, 33.732235334400698 ], [ 130.487240687879989, 33.731975919243503 ], [ 130.487335553894013, 33.731467383307098 ], [ 130.486612654043, 33.731382949487298 ], [ 130.486709292791005, 33.730888580818103 ], [ 130.485492116605002, 33.730731641833302 ], [ 130.485638979420003, 33.729823296764103 ], [ 130.484080587611004, 33.729679156932697 ], [ 130.483905768576989, 33.730536737609903 ], [ 130.476629268911012, 33.729664868064702 ], [ 130.477007745186, 33.727262773053901 ], [ 130.476952980416996, 33.725978546990198 ], [ 130.476779450895009, 33.725327362445803 ], [ 130.475910735930995, 33.725392926551699 ], [ 130.475448764192009, 33.725071095827801 ], [ 130.47559593644101, 33.724328571095199 ], [ 130.475501692295012, 33.723519158765399 ], [ 130.473559566694007, 33.722386816761897 ], [ 130.469591278915004, 33.721205301195198 ], [ 130.469890388314013, 33.7195551622846 ], [ 130.468372079371989, 33.718628732556802 ] ] ] ] } }
]
}
