{
"type": "FeatureCollection",
"name": "古賀",
"crs": { "type": "name", "properties": { "name": "urn:ogc:def:crs:OGC:1.3:CRS84" } },
"features": [
{ "type": "Feature", "properties": { "id": "古賀定額.1", "Name": null, "description": null, "timestamp": null, "begin": null, "end": null, "altitudeMode": null, "tessellate": -1, "extrude": 0, "visibility": -1, "drawOrder": null, "icon": null, "KEY_CODE": "402230029101", "PREF": "40", "CITY": "223", "K_AREA": "020002010", "S_AREA": "0029101", "PREF_NAME": "福岡県", "CITY_NAME": "古賀市", "S_NAME": "中央二丁目", "KIGO_E": null, "HCODE": 8101, "AREA": 13162.239, "PERIMETER": 500.785, "KIHON1": "0200", "DUMMY1": "-", "KIHON2": "02", "KIHON3": "010", "C1": 2, "C2": 29, "DUMMY2": "-", "C3": 1, "DUMMY3": "-", "C4": 1, "KIGO_A": null, "KIGO_D": null, "N_KEN": null, "N_CITY": null, "N_C1": 0, "KIGO_I": null, "KEYCODE1": "2230029-1-01", "JINKO": 65, "SETAI": 27, "KEN_OLD": "40", "CITY_OLD": "223", "X_CODE": 130.470531, "Y_CODE": 33.730424, "KCODE1": "0200-02010", "CCODE1": "29-1- 1" }, "geometry": { "type": "MultiPolygon", "coordinates": [ [ [ [ 130.460529009671006, 33.7177210563475 ], [ 130.460307315476001, 33.717807865668398 ], [ 130.460157452933004, 33.717899636236702 ], [ 130.460046180509011, 33.718014672121299 ], [ 130.459918216355987, 33.718143442762504 ], [ 130.459845230490004, 33.7182787704566 ], [ 130.459824782377012, 33.718316684375999 ], [ 130.459806366326006, 33.718350829099698 ], [ 130.459719944341998, 33.718502255443198 ], [ 130.459743709213996, 33.718507233454403 ], [ 130.45975329254199, 33.718509240428801 ], [ 130.45975333344299, 33.718509248994401 ], [ 130.459799331251986, 33.718518881236797 ], [ 130.459753333359004, 33.718509249275201 ], [ 130.459638870065987, 33.718673843827801 ], [ 130.459475411966991, 33.7189065320701 ], [ 130.459319346141001, 33.719133852699997 ], [ 130.459203659025007, 33.719280441903798 ], [ 130.459159092264997, 33.719319076246997 ], [ 130.459069797846013, 33.7193805705583 ], [ 130.458928970263997, 33.719448560091799 ], [ 130.45884295642, 33.719490087196903 ], [ 130.458613686040991, 33.719584711063902 ], [ 130.458516204837991, 33.719589118120801 ], [ 130.458477422214997, 33.719632749705802 ], [ 130.458476508801994, 33.719633481462701 ], [ 130.458445636612993, 33.719658234881003 ], [ 130.458438438526002, 33.719661160458699 ], [ 130.458353374771008, 33.719695720641297 ], [ 130.458353314036003, 33.719695744036301 ], [ 130.458268844915011, 33.719728831856401 ], [ 130.458126996930986, 33.719784394344202 ], [ 130.458057090901008, 33.719811776363002 ], [ 130.457893363893987, 33.7198788331876 ], [ 130.457878981892009, 33.719884723953498 ], [ 130.457846608754011, 33.719896842738798 ], [ 130.457847442390005, 33.719898114377798 ], [ 130.457846607876007, 33.719896842734897 ], [ 130.457846571268988, 33.719896856623201 ], [ 130.457737016586009, 33.719937917781898 ], [ 130.457332066773006, 33.7201578567024 ], [ 130.456899669496011, 33.720345341838403 ], [ 130.456542264516997, 33.720544432433499 ], [ 130.456737294240014, 33.720680545861498 ], [ 130.456542264516997, 33.720544432433599 ], [ 130.456490796167003, 33.720605625713397 ], [ 130.456436209566988, 33.7206534226532 ], [ 130.456384916952999, 33.720679889410803 ], [ 130.456330395956996, 33.720716978695997 ], [ 130.456125518600004, 33.720796156264797 ], [ 130.455808621540001, 33.7209068110282 ], [ 130.455634156808998, 33.720968724063503 ], [ 130.455403719576992, 33.721050461170897 ], [ 130.455222741862002, 33.721129320720102 ], [ 130.455179504890992, 33.721148146304301 ], [ 130.455175635927986, 33.721150105186197 ], [ 130.455127797513001, 33.721079914276899 ], [ 130.454696939655008, 33.721259897740303 ], [ 130.454682408774005, 33.721384551816698 ], [ 130.454678385849007, 33.721401897849603 ], [ 130.454542408227013, 33.721470751348697 ], [ 130.454530410111005, 33.721476827073602 ], [ 130.454500255595008, 33.721492095466203 ], [ 130.453862738065993, 33.721788935249101 ], [ 130.453801982335989, 33.7218172234492 ], [ 130.453699842123996, 33.721859526630702 ], [ 130.453699613249, 33.721859895417197 ], [ 130.45369412868601, 33.7218633207792 ], [ 130.453668977704012, 33.721879029694499 ], [ 130.453632123653989, 33.721907594378102 ], [ 130.453608245919014, 33.721925257104402 ], [ 130.453571096209004, 33.7219455415201 ], [ 130.453522488634007, 33.721966820756997 ], [ 130.45350105704901, 33.721976817536003 ], [ 130.453464302476988, 33.721987472639199 ], [ 130.453418655787004, 33.7219773861435 ], [ 130.453412666986992, 33.721976062771098 ], [ 130.453367282796989, 33.721972611479103 ], [ 130.453328555241001, 33.721978219569799 ], [ 130.453278938776009, 33.721990481147103 ], [ 130.453258138818995, 33.721998270107001 ], [ 130.453236977327009, 33.722011281589097 ], [ 130.453199497312994, 33.7220436246132 ], [ 130.453158917672994, 33.722082909181097 ], [ 130.453108533424995, 33.722106006841301 ], [ 130.453116285027988, 33.722116987913601 ], [ 130.453203389684006, 33.7222572167584 ], [ 130.453116285027988, 33.722116987913601 ], [ 130.453108533424995, 33.722106006841301 ], [ 130.452935355834001, 33.722193380142599 ], [ 130.452905721598995, 33.7222142033187 ], [ 130.452805295091991, 33.7222847641859 ], [ 130.452630149051004, 33.722389975187802 ], [ 130.452417247244995, 33.722517867473996 ], [ 130.452416446490986, 33.722518347627002 ], [ 130.452266316882998, 33.7225984088413 ], [ 130.452175007349013, 33.7226471005932 ], [ 130.452173779920997, 33.722646965209798 ], [ 130.452166356387011, 33.722652781767501 ], [ 130.452624439306987, 33.722947726754903 ], [ 130.453012574186005, 33.723212984393697 ], [ 130.453264452208003, 33.723375703625003 ], [ 130.453507520622992, 33.723518515734902 ], [ 130.453661531112004, 33.7236335303499 ], [ 130.453906177699992, 33.723760218623497 ], [ 130.454152147562013, 33.723917906329199 ], [ 130.45444555946699, 33.724105743236798 ], [ 130.454783350534001, 33.724328502332199 ], [ 130.455176040645995, 33.724575102066296 ], [ 130.455552372904009, 33.724822896620601 ], [ 130.455730114241987, 33.724945548250702 ], [ 130.455884303836996, 33.725033227567899 ], [ 130.456059094956004, 33.725155865333598 ], [ 130.456118351095995, 33.725190926636401 ], [ 130.456260435947996, 33.725313348588998 ], [ 130.456392184985987, 33.7254171288197 ], [ 130.456513192117995, 33.725513040647002 ], [ 130.456596425854002, 33.725589556142097 ], [ 130.45672061353099, 33.725709432844397 ], [ 130.456838978685994, 33.725816885571099 ], [ 130.456876816942014, 33.725857257431997 ], [ 130.456951279913994, 33.725936706879899 ], [ 130.457072528959998, 33.726061572196102 ], [ 130.457170995079991, 33.726180978439999 ], [ 130.457208366733994, 33.726226297505399 ], [ 130.457396614961993, 33.726462964324099 ], [ 130.457450441058, 33.7265306821498 ], [ 130.457620018952014, 33.7267738169041 ], [ 130.457853233063986, 33.727073158895898 ], [ 130.458347611027989, 33.727713032447497 ], [ 130.458725504265004, 33.728194533140901 ], [ 130.459387453461005, 33.7290444131798 ], [ 130.459679347638996, 33.729420082703903 ], [ 130.459381285747014, 33.729845559771398 ], [ 130.458914691789005, 33.730480342109097 ], [ 130.458676913841998, 33.730937781959 ], [ 130.458434040483013, 33.731556363430002 ], [ 130.458374809978011, 33.731840675677198 ], [ 130.459401150725995, 33.731942969570703 ], [ 130.459401820020986, 33.732519446549098 ], [ 130.459393250222007, 33.732711002937798 ], [ 130.459399092154001, 33.732797735782 ], [ 130.459298379957005, 33.732777896299901 ], [ 130.459075011157012, 33.732747105229102 ], [ 130.459057281734999, 33.732851528414898 ], [ 130.459025964659986, 33.733046928172399 ], [ 130.459400246166012, 33.733076822425801 ], [ 130.459348732064996, 33.7331514029799 ], [ 130.459118816822013, 33.7338888030378 ], [ 130.459056385048001, 33.733929101026 ], [ 130.459033152840988, 33.7342275898284 ], [ 130.459172971507996, 33.734236375755501 ], [ 130.459177313595006, 33.734473351190402 ], [ 130.459202159761986, 33.734538335983302 ], [ 130.459216436335993, 33.734899468098902 ], [ 130.459251231299987, 33.734923994202703 ], [ 130.459303511808997, 33.734956696608798 ], [ 130.459388667735993, 33.735004123374999 ], [ 130.459450533796996, 33.735054689480002 ], [ 130.459498803900999, 33.735101955558903 ], [ 130.459541134004013, 33.735162225599197 ], [ 130.459593253441, 33.735220848672697 ], [ 130.459651371388986, 33.735243855973003 ], [ 130.459752234179007, 33.735266980140601 ], [ 130.459820251174989, 33.735264038893597 ], [ 130.459927134350011, 33.735254789114002 ], [ 130.459951801735002, 33.735396197415902 ], [ 130.459964754596001, 33.735496137253598 ], [ 130.460383059094994, 33.736088951620196 ], [ 130.459849310548009, 33.736359632737098 ], [ 130.460085510123008, 33.736618406552502 ], [ 130.460475269727993, 33.736446409282799 ], [ 130.460625420159005, 33.7367808761568 ], [ 130.460731895391007, 33.737027173784398 ], [ 130.460889314334992, 33.737284471995203 ], [ 130.460996573968998, 33.737411519027198 ], [ 130.461173776511998, 33.737653546791897 ], [ 130.460254014545001, 33.737931639172999 ], [ 130.460401185638005, 33.738196290393802 ], [ 130.461221048992002, 33.737922831515803 ], [ 130.461301789772989, 33.738050327103899 ], [ 130.461402243316002, 33.738173962888098 ], [ 130.461570502372012, 33.738485404483598 ], [ 130.461704709828012, 33.738733724156504 ], [ 130.461600756854011, 33.738786452697902 ], [ 130.462000632371002, 33.739594722594802 ], [ 130.462126070740993, 33.740088203223003 ], [ 130.462664254477005, 33.740146050481101 ], [ 130.462650851143991, 33.740335895002502 ], [ 130.462456303700009, 33.740312721209698 ], [ 130.462231237811011, 33.740281874536201 ], [ 130.46206346, 33.740245290645902 ], [ 130.46190637171, 33.740211781956504 ], [ 130.461770718019011, 33.740175336998902 ], [ 130.461681380681, 33.7401689610113 ], [ 130.461584676509005, 33.740201434743298 ], [ 130.461521863608993, 33.740241452780801 ], [ 130.461442694835995, 33.740321761164601 ], [ 130.461384953293987, 33.7404140665898 ], [ 130.461283713927003, 33.740592822588503 ], [ 130.461363428850007, 33.740682416031902 ], [ 130.461405993784012, 33.7407800184385 ], [ 130.461452909734987, 33.740869470488597 ], [ 130.461480668297014, 33.740920940538302 ], [ 130.461533947762007, 33.741031199837998 ], [ 130.461577512155003, 33.741137751735799 ], [ 130.461636903114993, 33.741309318585799 ], [ 130.461565520821011, 33.741330702866399 ], [ 130.461582514306002, 33.741377619514203 ], [ 130.461653863835011, 33.741361729885298 ], [ 130.461792718456991, 33.741595840544299 ], [ 130.461842936873012, 33.741676288891902 ], [ 130.461878287665002, 33.741720607625197 ], [ 130.461912551966009, 33.741763162287 ], [ 130.461937171784996, 33.7417975018055 ], [ 130.461955325350999, 33.741827377701703 ], [ 130.461968089371993, 33.741856241782997 ], [ 130.461977601683998, 33.741886080056403 ], [ 130.461987143921988, 33.741917678337202 ], [ 130.461878976342007, 33.741955948420603 ], [ 130.461900281959998, 33.742001122244197 ], [ 130.461999768091005, 33.741969082334002 ], [ 130.462017799557998, 33.7420187499863 ], [ 130.462035814654001, 33.742071165790499 ], [ 130.462053849433005, 33.742127101431997 ], [ 130.462072884250006, 33.7421849443786 ], [ 130.462094111802003, 33.742242727524001 ], [ 130.462118607283003, 33.742296931387202 ], [ 130.462150627674987, 33.742354760383002 ], [ 130.462190150287, 33.742419876139998 ], [ 130.462233986520005, 33.742489449962797 ], [ 130.462270296625007, 33.742549129545402 ], [ 130.462288448750002, 33.7425861890543 ], [ 130.462295810265999, 33.7426159458402 ], [ 130.462231895291012, 33.742649971103603 ], [ 130.462268335874995, 33.742695210675897 ], [ 130.46232027367401, 33.742675573867302 ], [ 130.462449247577013, 33.742933096710303 ], [ 130.462477035006998, 33.742980128890999 ], [ 130.462509117498001, 33.743028027208098 ], [ 130.462546562851003, 33.743081370989998 ], [ 130.462587232503012, 33.743138391607197 ], [ 130.462627843239005, 33.743198018747698 ], [ 130.462670640222996, 33.743258642620702 ], [ 130.462711303498992, 33.743316508425103 ], [ 130.462753058629005, 33.743375295215102 ], [ 130.462794725393991, 33.7434413362787 ], [ 130.462837467215991, 33.743510905049 ], [ 130.462879118849997, 33.7435796237936 ], [ 130.462916519770005, 33.743640221907697 ], [ 130.46295392117301, 33.743700751220203 ], [ 130.462992378877004, 33.7437676235213 ], [ 130.463032925953996, 33.743844437339398 ], [ 130.463074487846995, 33.743927596162102 ], [ 130.463114990603003, 33.744011593432703 ], [ 130.463158712075, 33.744100185398601 ], [ 130.463207736978006, 33.7441968282169 ], [ 130.463258932308008, 33.744297144909602 ], [ 130.463308011824012, 33.744392028030497 ], [ 130.463348483787001, 33.744474265727703 ], [ 130.463384719212996, 33.744552890978198 ], [ 130.463419821045989, 33.744637782569598 ], [ 130.463455953430014, 33.744726269356399 ], [ 130.463515575516993, 33.744861770981103 ], [ 130.463577494113991, 33.744966642432999 ], [ 130.463620246537005, 33.745034450310698 ], [ 130.463665157678008, 33.7451076914232 ], [ 130.463704652245013, 33.745177245050002 ], [ 130.463739881023997, 33.745241428376303 ], [ 130.46376756989801, 33.745297478394299 ], [ 130.463808010068988, 33.745391409453802 ], [ 130.463833315224008, 33.745485274328502 ], [ 130.463853353909002, 33.745564746596102 ], [ 130.463885296920012, 33.745635185362502 ], [ 130.463932372525989, 33.745699419466298 ], [ 130.463955969836007, 33.745722062584598 ], [ 130.463980673398993, 33.7457428785033 ], [ 130.464007723332998, 33.745732217886598 ], [ 130.464028004477001, 33.745772879270902 ], [ 130.46400309271101, 33.745785381151698 ], [ 130.463963077265987, 33.745799646789202 ], [ 130.463944516182011, 33.745828376849197 ], [ 130.463943377519996, 33.745841896401402 ], [ 130.463952861547995, 33.745876241270999 ], [ 130.464009553599993, 33.745960311801198 ], [ 130.464070456971001, 33.7460587686857 ], [ 130.464104645601992, 33.746114001546999 ], [ 130.464204901214998, 33.746311878980997 ], [ 130.464298738241013, 33.746498036597302 ], [ 130.464381801104992, 33.7466742148859 ], [ 130.464460621894005, 33.746847696936896 ], [ 130.464537318492006, 33.747010323083899 ], [ 130.464569278988989, 33.747078083984398 ], [ 130.464590513464998, 33.747134951752798 ], [ 130.464602107411991, 33.7471827592341 ], [ 130.464614765004995, 33.747228811970899 ], [ 130.464715965446004, 33.747444725873997 ], [ 130.464771327692006, 33.747566686054597 ], [ 130.464968378061997, 33.7479913066839 ], [ 130.465123945023009, 33.748320230817903 ], [ 130.465270872278012, 33.748641791667097 ], [ 130.465393276556995, 33.748920067634899 ], [ 130.465452932192989, 33.749050146796598 ], [ 130.465511508992989, 33.749177544549099 ], [ 130.465570097278004, 33.749303110890096 ], [ 130.465629776908997, 33.749429597653503 ], [ 130.465688337550006, 33.749559671453497 ], [ 130.465745806681014, 33.7496888952343 ], [ 130.465800117838, 33.749810850563101 ], [ 130.465846922272988, 33.749919248921998 ], [ 130.465888387125005, 33.750018607852503 ], [ 130.465923433417004, 33.750112516240002 ], [ 130.465952027289006, 33.750200054918601 ], [ 130.466060547244012, 33.750630632396003 ], [ 130.466100650865002, 33.750779575238703 ], [ 130.466147166963992, 33.750934884296598 ], [ 130.466229915050008, 33.751169666582101 ], [ 130.466263894983001, 33.751259062137699 ], [ 130.466290360675004, 33.751342999680098 ], [ 130.466316848638996, 33.751423344869501 ], [ 130.46635200691, 33.7514992903387 ], [ 130.466395832030003, 33.751571610357701 ], [ 130.466483395824014, 33.751723435981098 ], [ 130.466565551627014, 33.751877068545298 ], [ 130.466644621103001, 33.752011738798203 ], [ 130.466703150815988, 33.752147236594503 ], [ 130.466773126345004, 33.752347730143804 ], [ 130.466849468606995, 33.752568960005 ], [ 130.46688879301999, 33.7526737322721 ], [ 130.466934504186014, 33.752782125649198 ], [ 130.466985615156005, 33.752896812045996 ], [ 130.467042079023003, 33.753018776316303 ], [ 130.467152295007992, 33.753278542139498 ], [ 130.467312295097997, 33.753656511003697 ], [ 130.467347354572013, 33.753748656109501 ], [ 130.46736536795899, 33.753801917300997 ], [ 130.469672493697999, 33.753163797630698 ], [ 130.469695934796988, 33.753157276918998 ], [ 130.469804315461005, 33.753127312129301 ], [ 130.470388369175993, 33.7529173694425 ], [ 130.470450996354998, 33.752894815912597 ], [ 130.470927849914005, 33.752728508020901 ], [ 130.471058334710989, 33.752682999000903 ], [ 130.471348315274014, 33.752564209221198 ], [ 130.471356770302009, 33.7525607239468 ], [ 130.471856628838992, 33.752437830440797 ], [ 130.472518197491013, 33.752279208998097 ], [ 130.472759857462989, 33.752221283575601 ], [ 130.472862311856005, 33.752221721723103 ], [ 130.473098547241989, 33.7522227316623 ], [ 130.473455142066001, 33.7522325667167 ], [ 130.473545825542999, 33.752235067230501 ], [ 130.473609006172012, 33.7522387181697 ], [ 130.473941391436995, 33.752257605683702 ], [ 130.474163076265, 33.7522386179592 ], [ 130.47417324364099, 33.752237745053002 ], [ 130.474330250294997, 33.752211647318902 ], [ 130.474497875992995, 33.752200456474696 ], [ 130.474611925022003, 33.752200942596801 ], [ 130.474630834218999, 33.752211590338398 ], [ 130.474675878742005, 33.7522369289536 ], [ 130.474851934804008, 33.752233030558898 ], [ 130.475747269441996, 33.752213173464703 ], [ 130.475800839778003, 33.752195579330397 ], [ 130.47587956934899, 33.752145267525201 ], [ 130.476063455859986, 33.751990870401002 ], [ 130.476116049424007, 33.751946785899698 ], [ 130.476155387769012, 33.751926103310197 ], [ 130.476355586630007, 33.751834606743898 ], [ 130.476434261094994, 33.751793240305098 ], [ 130.476491469829, 33.7517667154397 ], [ 130.476609210150997, 33.751749323610099 ], [ 130.476966142363011, 33.7516764537882 ], [ 130.477101856424014, 33.751629342107897 ], [ 130.477360842713011, 33.751542601575501 ], [ 130.477564455669011, 33.751471968516697 ], [ 130.477877720853996, 33.751493723571699 ], [ 130.478284927977001, 33.751501364263902 ], [ 130.478611175405007, 33.751516974205401 ], [ 130.478778585203997, 33.751527191113198 ], [ 130.478997126079008, 33.751518606198999 ], [ 130.479207091196997, 33.751526607429902 ], [ 130.479374315895996, 33.751560490612299 ], [ 130.479621073156011, 33.7515852709368 ], [ 130.479799696745999, 33.751609762677901 ], [ 130.479937277869993, 33.751616261859198 ], [ 130.479944822330992, 33.751777460543302 ], [ 130.480021701140998, 33.7517398875762 ], [ 130.480118282793001, 33.7517212756009 ], [ 130.480197772352, 33.751719286316202 ], [ 130.480291414346993, 33.751719681173398 ], [ 130.480382189236991, 33.751727177766099 ], [ 130.480448052662013, 33.751733303572202 ], [ 130.480461579048011, 33.751734628505801 ], [ 130.480526946210006, 33.751718279608198 ], [ 130.480549786480992, 33.751699426946999 ], [ 130.480722445156005, 33.752007133120799 ], [ 130.480762689137009, 33.751926718724199 ], [ 130.481236451211004, 33.751714153803498 ], [ 130.481727285299996, 33.751501727792999 ], [ 130.481918365187994, 33.751817820306997 ], [ 130.482659224467994, 33.751486131609802 ], [ 130.483173686780987, 33.751255838277899 ], [ 130.483211651413995, 33.751238881128799 ], [ 130.482998733556997, 33.750900790759196 ], [ 130.482785773768001, 33.750562631474303 ], [ 130.484389235461009, 33.749833325046303 ], [ 130.484397353557995, 33.749829485927002 ], [ 130.485817871248003, 33.749158912415403 ], [ 130.486110334388002, 33.749493452328501 ], [ 130.486381568733009, 33.749803741228902 ], [ 130.486851135044986, 33.749582824909197 ], [ 130.487287917190002, 33.749379589652101 ], [ 130.487007075771999, 33.749053835918097 ], [ 130.486722845565993, 33.748724122255297 ], [ 130.48675703888, 33.7487029212148 ], [ 130.487689161625013, 33.748238652124797 ], [ 130.488764865651007, 33.7477262953131 ], [ 130.489392379510008, 33.7474290316744 ], [ 130.489455015272, 33.747389000356399 ], [ 130.489489248235003, 33.747360683195801 ], [ 130.489506126041988, 33.747386887289899 ], [ 130.48951727058801, 33.747420109995403 ], [ 130.489539897371003, 33.747436757501497 ], [ 130.489703198438008, 33.747648399591299 ], [ 130.489852661327006, 33.747569630795702 ], [ 130.489992153384009, 33.747494344251699 ], [ 130.490311934360989, 33.747888015216702 ], [ 130.490405095460005, 33.747968984209201 ], [ 130.490465912740007, 33.748001213915501 ], [ 130.490478274742998, 33.748006970582999 ], [ 130.490553621241986, 33.748041868159603 ], [ 130.49063149787699, 33.748069449843499 ], [ 130.490696662878008, 33.748086342604203 ], [ 130.490768891456014, 33.748113900890502 ], [ 130.490825457204011, 33.748144915948203 ], [ 130.490843174496007, 33.748157456897097 ], [ 130.490859381756991, 33.748168794136603 ], [ 130.490927162616998, 33.748221200331599 ], [ 130.490992090552993, 33.748278382426903 ], [ 130.491150475443987, 33.748366733740802 ], [ 130.491147467936003, 33.748397573423702 ], [ 130.491115877466996, 33.748456683580898 ], [ 130.491127178081996, 33.748470957921697 ], [ 130.491161200139999, 33.748471098214203 ], [ 130.491229470895007, 33.748447711931199 ], [ 130.491306217566006, 33.748424290110698 ], [ 130.491420271117988, 33.748329948788701 ], [ 130.491936075591013, 33.747964659475102 ], [ 130.492356503991999, 33.747649903101397 ], [ 130.492738432958987, 33.747364643840399 ], [ 130.493054914623002, 33.747109895638403 ], [ 130.493390117182997, 33.746811410451002 ], [ 130.493666518416006, 33.746611015980299 ], [ 130.493763411069011, 33.746545059188399 ], [ 130.493857257320997, 33.746509870928897 ], [ 130.493936838360014, 33.746491250648802 ], [ 130.494004869961998, 33.746501037899698 ], [ 130.494089781414999, 33.746536888814198 ], [ 130.494204435764999, 33.746583637776098 ], [ 130.494334767420014, 33.746617347965 ], [ 130.494397232589989, 33.746612884995699 ], [ 130.494510768210006, 33.746606236250599 ], [ 130.494538700736001, 33.746602545815897 ], [ 130.494615870167991, 33.746592437338698 ], [ 130.494755176257001, 33.746547926290198 ], [ 130.494826268807998, 33.746517435690201 ], [ 130.494937229729999, 33.746468087275296 ], [ 130.495059766575991, 33.746385611719397 ], [ 130.495259088391009, 33.746265552953098 ], [ 130.495903559887012, 33.745968324936101 ], [ 130.496213629440007, 33.745841531010797 ], [ 130.496478431149995, 33.745683769944399 ], [ 130.496750473997992, 33.745505961931201 ], [ 130.496861473445989, 33.745449500262097 ], [ 130.496989616198988, 33.745374157304298 ], [ 130.497040850617992, 33.7453506284591 ], [ 130.497111802929993, 33.745343873641097 ], [ 130.497202502583008, 33.7453631920962 ], [ 130.497287510827988, 33.745382487299104 ], [ 130.497352606819987, 33.745411209615298 ], [ 130.497434707540009, 33.745444720070701 ], [ 130.497491328997, 33.745466294476401 ], [ 130.497545139798007, 33.745485461907101 ], [ 130.497643635401005, 33.7455054462893 ], [ 130.497761323728014, 33.745516560241199 ], [ 130.497901747881002, 33.745525441718797 ], [ 130.498043626319003, 33.7455236226332 ], [ 130.498138749457013, 33.745514570247998 ], [ 130.498243122996001, 33.745502525852501 ], [ 130.498336841237006, 33.745488676605703 ], [ 130.498453343628, 33.745464283814101 ], [ 130.498584102374991, 33.745424522382699 ], [ 130.498677889063998, 33.745398769371803 ], [ 130.498766017603998, 33.745367147403897 ], [ 130.498857124370005, 33.745316589122901 ], [ 130.498941209960009, 33.7452552943749 ], [ 130.499101549253993, 33.745130842653701 ], [ 130.499248187640006, 33.745042541334101 ], [ 130.499398961097, 33.7449755992983 ], [ 130.499623654150014, 33.744891205418803 ], [ 130.499608197126008, 33.7446196699699 ], [ 130.499400290532009, 33.744622983557299 ], [ 130.499249925622991, 33.744620050407399 ], [ 130.499164965418998, 33.744592446824498 ], [ 130.499106979255998, 33.744558963396699 ], [ 130.498961264872008, 33.7444884970921 ], [ 130.498860802063007, 33.744437092347397 ], [ 130.498751756345996, 33.744404671454703 ], [ 130.498657471562012, 33.744393019005699 ], [ 130.49844060531899, 33.744356567276498 ], [ 130.498199589644003, 33.744325935240703 ], [ 130.49809185208801, 33.744307746796103 ], [ 130.498034284961989, 33.744267785797497 ], [ 130.498001775937013, 33.7441888319225 ], [ 130.497963756848009, 33.744136552299103 ], [ 130.497850148046012, 33.7440335310664 ], [ 130.497730093331, 33.743937035004002 ], [ 130.497679349094994, 33.743883505062101 ], [ 130.497666851264995, 33.743836048445502 ], [ 130.497712497710012, 33.743794744305603 ], [ 130.497742613892001, 33.743741544336501 ], [ 130.497827546547001, 33.743527331120902 ], [ 130.498011136439004, 33.743304712119397 ], [ 130.498080876306005, 33.743274141414098 ], [ 130.498255941008011, 33.743176447893397 ], [ 130.498305156838995, 33.743129875000697 ], [ 130.498363921307998, 33.743029314683703 ], [ 130.498384314318997, 33.742936980532001 ], [ 130.498384555584011, 33.742895491998603 ], [ 130.498360696640987, 33.742851511353201 ], [ 130.498309898511991, 33.742800378054099 ], [ 130.498131285426012, 33.742653279505703 ], [ 130.497455999810001, 33.742123436040103 ], [ 130.497354352156009, 33.742521922304803 ], [ 130.497035589458989, 33.742514847559498 ], [ 130.496845742684002, 33.742414894699699 ], [ 130.496685978840986, 33.742361272639201 ], [ 130.496443688195995, 33.742261105276903 ], [ 130.496206960997, 33.742154057071801 ], [ 130.495972853857012, 33.742067798258098 ], [ 130.495772043248991, 33.741953993374501 ], [ 130.495548997192998, 33.741872429623299 ], [ 130.495357538385008, 33.741810504210498 ], [ 130.495266759924988, 33.741754837884599 ], [ 130.495140080780999, 33.741710505747101 ], [ 130.495027160359996, 33.7416708105537 ], [ 130.494999844145013, 33.741619982256204 ], [ 130.494989313459001, 33.741539214809301 ], [ 130.494950939192989, 33.7414906657594 ], [ 130.494901424097009, 33.741458200676199 ], [ 130.494846375665986, 33.741434872277402 ], [ 130.494722099643013, 33.741448239602803 ], [ 130.494537145902001, 33.741456709293999 ], [ 130.494404674021013, 33.741458491185099 ], [ 130.494208659880002, 33.741469171341599 ], [ 130.493911545651997, 33.741538321418297 ], [ 130.493466600712992, 33.741640253602398 ], [ 130.493428485691993, 33.7415547238108 ], [ 130.493384765315994, 33.741476216609598 ], [ 130.493349403211994, 33.7413884440262 ], [ 130.49333883179699, 33.741307677938899 ], [ 130.493330907842989, 33.741250024158603 ], [ 130.49330070362501, 33.741224542999397 ], [ 130.493231868775013, 33.741194252553399 ], [ 130.493127157314007, 33.741163886822498 ], [ 130.493055664086, 33.741119779198499 ], [ 130.493033899602011, 33.741064324817998 ], [ 130.493028797423989, 33.740999779528103 ], [ 130.492990166198013, 33.740994972372697 ], [ 130.492868645968997, 33.7410129293838 ], [ 130.492711153816998, 33.741039963812199 ], [ 130.492492793321986, 33.741094361184103 ], [ 130.492384881795999, 33.741142379843801 ], [ 130.492304638301988, 33.741181214198399 ], [ 130.492210484991006, 33.741233867871102 ], [ 130.491987469169004, 33.741377070061901 ], [ 130.49188756246599, 33.741468864212202 ], [ 130.491776623662986, 33.741558359332302 ], [ 130.491701604598006, 33.741640605033602 ], [ 130.491648860917991, 33.741698428913899 ], [ 130.491593256235006, 33.741769697146601 ], [ 130.491562168300987, 33.741887202632597 ], [ 130.491539862738989, 33.741930924158702 ], [ 130.491494812322003, 33.7423145649189 ], [ 130.491452707938009, 33.7424343489267 ], [ 130.491430426742994, 33.742466519537402 ], [ 130.491402787686013, 33.742477957177599 ], [ 130.491375133845992, 33.7424847457388 ], [ 130.491333722525013, 33.742486829129398 ], [ 130.491248170525012, 33.742488800990799 ], [ 130.491173608603987, 33.742493142610698 ], [ 130.491085180869987, 33.742511163825398 ], [ 130.490996697658005, 33.742538480569401 ], [ 130.490897127750003, 33.742572656243603 ], [ 130.490841752872996, 33.742604760111199 ], [ 130.490780828742004, 33.742641347537599 ], [ 130.490725413739, 33.742680354263399 ], [ 130.490675478284999, 33.742719312587901 ], [ 130.490647621383005, 33.742767660039199 ], [ 130.490622558100995, 33.7427998168139 ], [ 130.490597632081005, 33.742815846241299 ], [ 130.490534047466014, 33.742831713879099 ], [ 130.490462173816013, 33.742852195721497 ], [ 130.490393121696002, 33.7428657184076 ], [ 130.490329645912993, 33.742863131774101 ], [ 130.490274529250001, 33.742851420840303 ], [ 130.490213793729993, 33.742848845465502 ], [ 130.490160007823988, 33.742847496243797 ], [ 130.490066068901001, 33.742863240436797 ], [ 130.489994084605001, 33.742902105721399 ], [ 130.489841797908014, 33.742982200573302 ], [ 130.489625832093992, 33.743101195189503 ], [ 130.48951554029, 33.743158993077998 ], [ 130.489326685859993, 33.743284439408498 ], [ 130.489224279987013, 33.743327759115701 ], [ 130.488905174822008, 33.743385254439801 ], [ 130.488489446524994, 33.743449251559902 ], [ 130.488300155945012, 33.7434841802325 ], [ 130.488212932480991, 33.743533407971398 ], [ 130.487985148950003, 33.7435474661958 ], [ 130.487814042784009, 33.743544431667303 ], [ 130.48747183204901, 33.743538432895598 ], [ 130.487292577001995, 33.7432746676796 ], [ 130.487274647226997, 33.743241204304702 ], [ 130.487199019380995, 33.743140867052603 ], [ 130.487051413269, 33.742943233728496 ], [ 130.486852991765005, 33.742712705562099 ], [ 130.486737317288998, 33.742718422114599 ], [ 130.486103774754014, 33.742703808726397 ], [ 130.486044407722005, 33.7427024377753 ], [ 130.485834645325014, 33.742699239534403 ], [ 130.48553295298899, 33.742686147862599 ], [ 130.485242730662009, 33.742686418014898 ], [ 130.485077189838989, 33.742676497537197 ], [ 130.484939277333012, 33.742664369407102 ], [ 130.48466343557601, 33.742635534060298 ], [ 130.484470515667994, 33.742586334887697 ], [ 130.484112235538987, 33.742504180651302 ], [ 130.483883399272997, 33.742461662820403 ], [ 130.483689537165986, 33.7423444146511 ], [ 130.483549392708994, 33.742240069974699 ], [ 130.483442219620997, 33.7421635455499 ], [ 130.483370728658002, 33.742119431922902 ], [ 130.483270963722987, 33.742044912946902 ], [ 130.483252881840997, 33.741980596402001 ], [ 130.48326987673201, 33.7419091706236 ], [ 130.483388281634006, 33.741721806450599 ], [ 130.483414172017007, 33.741544336769003 ], [ 130.48335699041499, 33.741412726470401 ], [ 130.483253232934004, 33.741230136259098 ], [ 130.483061240853999, 33.7410263951814 ], [ 130.482793246952014, 33.740841986970203 ], [ 130.482763762184987, 33.740822680610101 ], [ 130.482499082158995, 33.740649368420698 ], [ 130.482040099908005, 33.740326942085503 ], [ 130.481693646570989, 33.740115717546999 ], [ 130.481562767647006, 33.740077059503498 ], [ 130.481449408195999, 33.740044960948602 ], [ 130.481457970588991, 33.740011124494998 ], [ 130.481588901779986, 33.739593322683298 ], [ 130.481737794097995, 33.739600259633903 ], [ 130.481840012502005, 33.739615613090599 ], [ 130.481904098828011, 33.739628983047901 ], [ 130.482152710724989, 33.739698477032199 ], [ 130.482200244581009, 33.739690562422503 ], [ 130.482331184119005, 33.739631604876799 ], [ 130.482398272903993, 33.739602133118098 ], [ 130.482942680120999, 33.739883921110597 ], [ 130.482985595223994, 33.739926477548103 ], [ 130.483070233467998, 33.740030519275003 ], [ 130.48311623536199, 33.740098333987298 ], [ 130.483132566732991, 33.740131544197901 ], [ 130.48314189541901, 33.740150513898698 ], [ 130.483146432706008, 33.740156126801899 ], [ 130.483169711131012, 33.740179704388296 ], [ 130.483174199122999, 33.740181991574801 ], [ 130.483347890656006, 33.740342743740001 ], [ 130.483144410063005, 33.7402598425072 ], [ 130.483130267335014, 33.740278717635803 ], [ 130.483003437201006, 33.740371402857498 ], [ 130.482878785518011, 33.740462495666797 ], [ 130.483002305947991, 33.740570097654903 ], [ 130.483174006772003, 33.740719672704302 ], [ 130.483235220394988, 33.740772997213703 ], [ 130.483243827861997, 33.740780496578502 ], [ 130.483265191402012, 33.740817553074201 ], [ 130.483431560891006, 33.740825665393999 ], [ 130.483750709936004, 33.740841226552497 ], [ 130.483747178565011, 33.7408777549592 ], [ 130.483745377325988, 33.740904514392398 ], [ 130.483750765242007, 33.740953585360998 ], [ 130.483752676819989, 33.740960101310897 ], [ 130.483776119202986, 33.7410116643143 ], [ 130.483785188619009, 33.741031614099498 ], [ 130.483804093179003, 33.741062966741602 ], [ 130.483827103750002, 33.741101129582802 ], [ 130.483839690494989, 33.741122004858703 ], [ 130.483912113781003, 33.741215680059398 ], [ 130.483948158792003, 33.741262300679999 ], [ 130.484007976083006, 33.7413396730025 ], [ 130.484027112484995, 33.741364425098197 ], [ 130.484053319113997, 33.741393015479098 ], [ 130.484116991776006, 33.741462483323602 ], [ 130.484175127117993, 33.7415259070414 ], [ 130.484184736593988, 33.741536393770097 ], [ 130.484270584847991, 33.741595008758097 ], [ 130.484288102020002, 33.741606096497698 ], [ 130.484326651318014, 33.741628051700403 ], [ 130.484367532377007, 33.741637767339498 ], [ 130.484379194977009, 33.741640324451701 ], [ 130.484430159920009, 33.741644714013198 ], [ 130.484449608005008, 33.741641189221198 ], [ 130.484510337229011, 33.741610216618902 ], [ 130.484517808694989, 33.741606310971697 ], [ 130.48460248325901, 33.741540945715201 ], [ 130.484700176655991, 33.741465531170597 ], [ 130.484745499062996, 33.741430544984297 ], [ 130.484784795862993, 33.741395490108303 ], [ 130.484916997784012, 33.741277560268003 ], [ 130.485008073017013, 33.741196318053902 ], [ 130.485175675415007, 33.741061669850303 ], [ 130.485386616956987, 33.741248924860798 ], [ 130.485903666445012, 33.741705766299603 ], [ 130.486215772273994, 33.742002066732198 ], [ 130.486498462306002, 33.742290002024497 ], [ 130.486661617809006, 33.742481149252697 ], [ 130.486755931869993, 33.74259526558 ], [ 130.486793428194005, 33.742238823050002 ], [ 130.487161975517012, 33.742054194374901 ], [ 130.487417950733004, 33.741936668413999 ], [ 130.487546603465006, 33.741899334820303 ], [ 130.487850191604991, 33.7418455954883 ], [ 130.487980965231998, 33.741814581181799 ], [ 130.488084768454996, 33.741769265152101 ], [ 130.488273342980989, 33.741683498441198 ], [ 130.488352153633997, 33.7416448115831 ], [ 130.488473192204992, 33.741617363114699 ], [ 130.488586457212989, 33.741626848773898 ], [ 130.488651173222991, 33.741633428419597 ], [ 130.488788368027002, 33.7416114561169 ], [ 130.488942942065989, 33.741570621143403 ], [ 130.489069509789999, 33.741520654322102 ], [ 130.489180112313989, 33.741432752871198 ], [ 130.489276866794, 33.7413141384935 ], [ 130.489355759162009, 33.741113402341902 ], [ 130.489429084601994, 33.740941494707997 ], [ 130.489569991569994, 33.740605332893097 ], [ 130.489597882981002, 33.740582232895299 ], [ 130.489617824583007, 33.740524977543899 ], [ 130.489648580454997, 33.740299768506098 ], [ 130.489694025553007, 33.740078774469602 ], [ 130.489797957267996, 33.739919448808102 ], [ 130.489990314938012, 33.739727661418797 ], [ 130.49011628142199, 33.739570467613497 ], [ 130.490200010890987, 33.739505304654401 ], [ 130.490313092932013, 33.739452519890598 ], [ 130.490475099615992, 33.739424518768701 ], [ 130.490528920961992, 33.739441084027803 ], [ 130.490634101121003, 33.739378545133498 ], [ 130.491182863748008, 33.739107615160798 ], [ 130.490862177331991, 33.738768182628597 ], [ 130.490994348767003, 33.738682171778798 ], [ 130.490894584778999, 33.7385798765809 ], [ 130.491004034147011, 33.738503689669798 ], [ 130.490931574131992, 33.738346507509704 ], [ 130.490797595402, 33.738373003680302 ], [ 130.490874004646003, 33.738226353768503 ], [ 130.490909357020996, 33.738087648786703 ], [ 130.490913205531996, 33.737983977538804 ], [ 130.49097772230499, 33.737840885225999 ], [ 130.490980921551994, 33.737802552299001 ], [ 130.490905097274009, 33.737751802618398 ], [ 130.490815644011008, 33.737679937975301 ], [ 130.490703500677, 33.737595369857203 ], [ 130.49060584396301, 33.737534741556203 ], [ 130.490575801490991, 33.7373749303963 ], [ 130.490528037227989, 33.737160808121097 ], [ 130.490455550476014, 33.736978423034202 ], [ 130.490396840866993, 33.736768834094903 ], [ 130.490325846074001, 33.736569407449601 ], [ 130.490307288542994, 33.7364850858309 ], [ 130.490293131169011, 33.736111835231398 ], [ 130.490276532531993, 33.735924045496098 ], [ 130.490276831896011, 33.735572832902399 ], [ 130.490093303410987, 33.735570031538003 ], [ 130.489811712559003, 33.735511531478998 ], [ 130.489360115479997, 33.735387801274399 ], [ 130.489491708103998, 33.734358966414803 ], [ 130.488851871017999, 33.734270633950999 ], [ 130.488857994027995, 33.7342617134384 ], [ 130.48886885412, 33.734228722636097 ], [ 130.488972784531995, 33.7336403444788 ], [ 130.489207112882013, 33.732235334400698 ], [ 130.487240687879989, 33.731975919243503 ], [ 130.487335553894013, 33.731467383307098 ], [ 130.486612654043, 33.731382949487298 ], [ 130.486709292791005, 33.730888580818103 ], [ 130.485492116605002, 33.730731641833302 ], [ 130.485553366937012, 33.730355325241 ], [ 130.485638979420003, 33.729823296764103 ], [ 130.484080587611004, 33.729679156932697 ], [ 130.483905768576989, 33.730536737609903 ], [ 130.481564213815005, 33.730268912150997 ], [ 130.476629268911012, 33.729664868064702 ], [ 130.476721768630995, 33.729040108545497 ], [ 130.476781452250009, 33.7286705537242 ], [ 130.476823030552993, 33.728465117835299 ], [ 130.476903046541992, 33.728072048026803 ], [ 130.476988380644997, 33.727468308909799 ], [ 130.477007745186, 33.727262773053901 ], [ 130.477015145986002, 33.727042113342897 ], [ 130.477019893375001, 33.726758186006499 ], [ 130.477010925482006, 33.7265677465804 ], [ 130.476995250985993, 33.726329239252301 ], [ 130.476978324171, 33.726123549836103 ], [ 130.476952980416996, 33.725978546990198 ], [ 130.476899122860999, 33.725717969934202 ], [ 130.476804254506987, 33.7253940339519 ], [ 130.476779450895009, 33.725327362445803 ], [ 130.476465362865014, 33.725379145486599 ], [ 130.476120822743013, 33.725406284761497 ], [ 130.475910735930995, 33.725392926551699 ], [ 130.475773835355994, 33.725350012480597 ], [ 130.475611114962987, 33.725269018462903 ], [ 130.475510307781008, 33.725175188172898 ], [ 130.475448764192009, 33.725071095827801 ], [ 130.475428063961004, 33.724974294529602 ], [ 130.475430120144011, 33.724878361302302 ], [ 130.475438076555008, 33.724796192347497 ], [ 130.475456415081993, 33.724719066516499 ], [ 130.475490339221011, 33.724657574186203 ], [ 130.475565150084009, 33.724491581358599 ], [ 130.47559593644101, 33.724328571095199 ], [ 130.475595206940994, 33.724205226776803 ], [ 130.475592831204011, 33.724103077045903 ], [ 130.475543721493011, 33.723838857388301 ], [ 130.475531567527014, 33.723746401878898 ], [ 130.475501692295012, 33.723519158765399 ], [ 130.475379446636992, 33.723402202335897 ], [ 130.475063367671993, 33.723164180505101 ], [ 130.474887394678007, 33.7230519963909 ], [ 130.474676502064995, 33.722929027771002 ], [ 130.474432852082998, 33.722793450005 ], [ 130.474282861570003, 33.722699407765397 ], [ 130.473803409503006, 33.722489992010502 ], [ 130.473559566694007, 33.722386816761897 ], [ 130.473273995113999, 33.722283461766303 ], [ 130.473076882609007, 33.722217253494499 ], [ 130.47288644272399, 33.722162838043701 ], [ 130.472653897446008, 33.722094083237899 ], [ 130.472042698078013, 33.721923831945603 ], [ 130.471798640402994, 33.721855591293 ], [ 130.471651424855992, 33.721797625280999 ], [ 130.471441663581999, 33.721731996743102 ], [ 130.471245237590011, 33.7216775532792 ], [ 130.470884377145012, 33.721575776802403 ], [ 130.470394868798991, 33.721426678089202 ], [ 130.470127656019997, 33.721354462051004 ], [ 130.469815262112007, 33.721267893280697 ], [ 130.469591278915004, 33.721205301195198 ], [ 130.469314544838994, 33.721125646150099 ], [ 130.469055586803989, 33.7210548018205 ], [ 130.468787003810007, 33.720979547958201 ], [ 130.468590634726013, 33.720916438112901 ], [ 130.468323481340008, 33.720848656713002 ], [ 130.467648649223008, 33.720658251094001 ], [ 130.467061336869989, 33.720492800819002 ], [ 130.466591394873006, 33.720357930724397 ], [ 130.466323578540994, 33.720282042737502 ], [ 130.465994983700995, 33.720185464023999 ], [ 130.465806662445004, 33.720130133460998 ], [ 130.465421437526004, 33.720016968137998 ], [ 130.464637993795009, 33.719786834520903 ], [ 130.463901291848003, 33.719564782885598 ], [ 130.463870087127987, 33.719553587693497 ], [ 130.463603832368989, 33.719458181347797 ], [ 130.463389262583007, 33.719381314593598 ], [ 130.462703386084996, 33.719073248995201 ], [ 130.462107651145999, 33.718734645511603 ], [ 130.461633572885006, 33.718401004059302 ], [ 130.461446586887007, 33.718240916559303 ], [ 130.461313243301987, 33.718339945332801 ], [ 130.460908769418012, 33.718660120005602 ], [ 130.460569107318008, 33.718927881072801 ], [ 130.460468415169998, 33.718812900503899 ], [ 130.460312117608993, 33.718692886329102 ], [ 130.460155162077996, 33.718624223449901 ], [ 130.460312117608993, 33.718692886329102 ], [ 130.460468415169998, 33.718812900503899 ], [ 130.460569107318008, 33.718927881072801 ], [ 130.460908769416989, 33.718660120005602 ], [ 130.461313243301987, 33.718339945332801 ], [ 130.461446586887007, 33.718240916559303 ], [ 130.461427668937006, 33.718224710191201 ], [ 130.461387358844007, 33.718190177195503 ], [ 130.461267818853003, 33.718087766279297 ], [ 130.460749894315995, 33.717574858155203 ], [ 130.460667613694994, 33.717656990357803 ], [ 130.460529009671006, 33.7177210563475 ] ], [ [ 130.468919279861012, 33.727115514129999 ], [ 130.469873332949987, 33.7263413872192 ], [ 130.470690564286997, 33.725674436932898 ], [ 130.470930352542013, 33.725711387250499 ], [ 130.470901106966011, 33.725807061031198 ], [ 130.470860964101007, 33.725926637338297 ], [ 130.470747948861998, 33.726252362364299 ], [ 130.470494797534997, 33.726643349302996 ], [ 130.470285534283988, 33.7268879377609 ], [ 130.470071287525997, 33.7270650924508 ], [ 130.469953093612986, 33.727064585736898 ], [ 130.46954774349399, 33.727155616173697 ], [ 130.469350360328008, 33.727214642552099 ], [ 130.46920124398801, 33.727287330441399 ], [ 130.469064676957004, 33.727361552350303 ], [ 130.468924340289988, 33.727459777363499 ], [ 130.468830511823001, 33.727576092156703 ], [ 130.468666827417991, 33.727315183271401 ], [ 130.468919279861012, 33.727115514129999 ] ], [ [ 130.466504510063999, 33.724839355129497 ], [ 130.466204167206996, 33.7247452894118 ], [ 130.466039806335004, 33.724678720481201 ], [ 130.465936481234991, 33.7245914930906 ], [ 130.465839221859, 33.724477453793902 ], [ 130.465906119649986, 33.724504439619999 ], [ 130.466011471451992, 33.724515600423402 ], [ 130.466073474793006, 33.724515867891697 ], [ 130.466068273428988, 33.724498025331698 ], [ 130.466002900088, 33.724250710498701 ], [ 130.465951807473999, 33.7241350401316 ], [ 130.465951106091012, 33.724071006951199 ], [ 130.46596111381001, 33.724026885033801 ], [ 130.466030255553989, 33.724010982686302 ], [ 130.466070156031009, 33.724013830917698 ], [ 130.466332427455001, 33.724005945400002 ], [ 130.466397297507996, 33.723985516279498 ], [ 130.466477400120993, 33.723948880639597 ], [ 130.466509932077997, 33.723922887689703 ], [ 130.46652960945201, 33.723876059082599 ], [ 130.466541844007992, 33.723819337945102 ], [ 130.46658089019499, 33.723789709062203 ], [ 130.466747095155995, 33.723782324919 ], [ 130.466774043555006, 33.723786949112402 ], [ 130.466848315247006, 33.7238143177889 ], [ 130.46693330752899, 33.723859765161897 ], [ 130.467016053386004, 33.723914219113603 ], [ 130.467139623428011, 33.723999489489998 ], [ 130.467268716022005, 33.724064075346902 ], [ 130.467359156941995, 33.724094259965298 ], [ 130.467403353577993, 33.724104311677003 ], [ 130.467448626242003, 33.7241108471122 ], [ 130.467492878434001, 33.724111953174301 ], [ 130.467536062379992, 33.724108545375501 ], [ 130.467578194903012, 33.724097879935499 ], [ 130.467617173688012, 33.7240790986828 ], [ 130.467653993473988, 33.7240549547016 ], [ 130.467687643507986, 33.724025303867897 ], [ 130.46773876491801, 33.723957901363697 ], [ 130.467794515588992, 33.723843675643003 ], [ 130.467849869400993, 33.723787069101299 ], [ 130.467942871846986, 33.723756827940299 ], [ 130.468043597614013, 33.723745636455497 ], [ 130.468130697046007, 33.723743194101097 ], [ 130.468294527523, 33.723841385495199 ], [ 130.468405445196993, 33.724237665643699 ], [ 130.46843071049301, 33.724283136930403 ], [ 130.468452847320009, 33.724323241344401 ], [ 130.468452667434008, 33.724352613495498 ], [ 130.468430154846004, 33.724373860690598 ], [ 130.468394896419994, 33.724397730412797 ], [ 130.468302129046009, 33.724424027634001 ], [ 130.468282819185987, 33.724445287998201 ], [ 130.468266648467988, 33.724477269816198 ], [ 130.468266354169003, 33.724525307500699 ], [ 130.468265994704012, 33.724583981888102 ], [ 130.468272123008006, 33.7246293731965 ], [ 130.468300559645996, 33.7246802121266 ], [ 130.468364253570002, 33.724707181377703 ], [ 130.468443875164013, 33.724742179828901 ], [ 130.468545860652995, 33.724780021434903 ], [ 130.468435008879993, 33.725150481737003 ], [ 130.468427767659989, 33.725190320754699 ], [ 130.468438369431993, 33.725214315889602 ], [ 130.466887179189001, 33.724939759538898 ], [ 130.466504510063999, 33.724839355129497 ] ], [ [ 130.456901845667005, 33.720794921552098 ], [ 130.457035918799988, 33.720887559505499 ], [ 130.457146921505, 33.7208029635554 ], [ 130.457035918799988, 33.720887559505599 ], [ 130.456901845667005, 33.720794921552098 ] ], [ [ 130.45333325672101, 33.722342510829201 ], [ 130.453384484276995, 33.722380354882702 ], [ 130.45333325672101, 33.722342510829201 ], [ 130.453273360987993, 33.722322518109998 ], [ 130.453244441115999, 33.7223233048202 ], [ 130.453273360987993, 33.722322518109998 ], [ 130.45333325672101, 33.722342510829201 ] ], [ [ 130.453471823644009, 33.722466682678899 ], [ 130.453475179424998, 33.7224702015613 ], [ 130.453549598742995, 33.722548219405198 ], [ 130.453475179424998, 33.7224702015613 ], [ 130.453471823644009, 33.722466682678899 ], [ 130.453384484276995, 33.722380354882702 ], [ 130.453471823644009, 33.722466682678899 ] ], [ [ 130.480819772589996, 33.739525542178001 ], [ 130.480764566962989, 33.739637785118703 ], [ 130.480707259584989, 33.739758214875501 ], [ 130.480635399649003, 33.739863401980003 ], [ 130.480619969788989, 33.739886827887702 ], [ 130.480471131103997, 33.7398672740105 ], [ 130.480264529701998, 33.739801881387997 ], [ 130.480105070658993, 33.739699706172502 ], [ 130.47992655220699, 33.739549129135803 ], [ 130.480049755752987, 33.739396751852198 ], [ 130.480285612388997, 33.739163171259101 ], [ 130.480427246481014, 33.739215770477003 ], [ 130.480562914225999, 33.739267584438799 ], [ 130.480703226246987, 33.739318258883799 ], [ 130.48088971385701, 33.7393875155568 ], [ 130.480867578207011, 33.739431201419301 ], [ 130.480819772589996, 33.739525542178001 ] ] ] ] } }
]
}
