{
"type": "FeatureCollection",
"name": "呼子",
"crs": { "type": "name", "properties": { "name": "urn:ogc:def:crs:OGC:1.3:CRS84" } },
"features": [
{ "type": "Feature", "properties": { "id": "呼子.1", "Name": null, "description": null, "timestamp": null, "begin": null, "end": null, "altitudeMode": null, "tessellate": -1, "extrude": 0, "visibility": -1, "drawOrder": null, "icon": null, "KEY_CODE": "412020908101", "PREF": "41", "CITY": "202", "K_AREA": "221003010", "S_AREA": "0908101", "PREF_NAME": "佐賀県", "CITY_NAME": "唐津市", "S_NAME": "呼子町呼子野中", "KIGO_E": null, "HCODE": 8101, "AREA": 14870.485, "PERIMETER": 872.363, "KIHON1": "2210", "DUMMY1": "-", "KIHON2": "03", "KIHON3": "010", "C1": 35, "C2": 908, "DUMMY2": "-", "C3": 1, "DUMMY3": "-", "C4": 1, "KIGO_A": null, "KIGO_D": null, "N_KEN": null, "N_CITY": null, "N_C1": 0, "KIGO_I": null, "KEYCODE1": "2020908-1-01", "JINKO": 9, "SETAI": 4, "KEN_OLD": "41", "CITY_OLD": "202", "X_CODE": 129.894075, "Y_CODE": 33.532737, "KCODE1": "2210-03010", "CCODE1": "908-1- 1" }, "geometry": { "type": "MultiPolygon", "coordinates": [ [ [ [ 129.899047985012004, 33.530498566335801 ], [ 129.897609548258004, 33.529884505550797 ], [ 129.897298052037996, 33.529941465558998 ], [ 129.896739193038997, 33.5304298821559 ], [ 129.896558820710993, 33.530844535635602 ], [ 129.896367139159992, 33.530891007385499 ], [ 129.896176845252, 33.530642633589203 ], [ 129.895859222360002, 33.530632091057001 ], [ 129.894748590180996, 33.5315915698487 ], [ 129.894617778025008, 33.5312030232556 ], [ 129.89530980846601, 33.5302169207527 ], [ 129.895476729687999, 33.529371588713701 ], [ 129.895353092813991, 33.5293253711083 ], [ 129.895342631737009, 33.5288775649461 ], [ 129.893693972886012, 33.527245958221698 ], [ 129.893093842423013, 33.527176991413398 ], [ 129.89187409005001, 33.526582147414302 ], [ 129.890590489960999, 33.526840475758803 ], [ 129.890025216683, 33.5271051931107 ], [ 129.889000425970011, 33.526754905921003 ], [ 129.888227738913002, 33.525953985164698 ], [ 129.887588641397997, 33.525874991609903 ], [ 129.887156687941996, 33.5256186589585 ], [ 129.886542356174999, 33.526121920705798 ], [ 129.886438709662997, 33.526847531022597 ], [ 129.886289502993009, 33.5269926669434 ], [ 129.88550820742401, 33.527029841492599 ], [ 129.884585059641012, 33.526684129480103 ], [ 129.884098750525993, 33.526758145935197 ], [ 129.883111041852999, 33.526292798313499 ], [ 129.882016931761001, 33.526739405947701 ], [ 129.881495568244986, 33.527499100619004 ], [ 129.881328925427994, 33.528888834877897 ], [ 129.882072223444993, 33.528903860098097 ], [ 129.882233118581013, 33.529434205826497 ], [ 129.883586811930996, 33.530239844455501 ], [ 129.883908355470993, 33.530685417552597 ], [ 129.883461421682, 33.530527232954697 ], [ 129.882735042771998, 33.531761291245999 ], [ 129.882381731607012, 33.532027709531299 ], [ 129.882301398304008, 33.532336247683702 ], [ 129.882487222746988, 33.532366769644703 ], [ 129.882262623759999, 33.532499985757099 ], [ 129.882192494542011, 33.532767127240099 ], [ 129.881982029722991, 33.534398957315403 ], [ 129.882334876285995, 33.534418379399597 ], [ 129.882550210441991, 33.535511284390999 ], [ 129.882474425057012, 33.535963206599497 ], [ 129.882630703847013, 33.535950212681698 ], [ 129.883023484754005, 33.536469476631197 ], [ 129.884193556480994, 33.537074180473397 ], [ 129.884588315342, 33.537440182193102 ], [ 129.884716124330993, 33.537883128289998 ], [ 129.88456008602401, 33.538382123208898 ], [ 129.884258225893007, 33.538576880863303 ], [ 129.883761920502991, 33.5381531537844 ], [ 129.883580263352997, 33.538386818063202 ], [ 129.884239708448007, 33.538597458384103 ], [ 129.884197773999006, 33.538928848860202 ], [ 129.883080415165011, 33.539411992902103 ], [ 129.882870447193, 33.540166546622601 ], [ 129.881701773614992, 33.540877298437401 ], [ 129.881340321505007, 33.5415186951724 ], [ 129.880970525280986, 33.541644294011199 ], [ 129.88067023085199, 33.5414675602035 ], [ 129.88086893932001, 33.541753367240901 ], [ 129.880736905730004, 33.542306672803498 ], [ 129.881044117753987, 33.542364461504597 ], [ 129.880940691852999, 33.542845261252801 ], [ 129.881059468904994, 33.542845136760903 ], [ 129.881470256184997, 33.541880517968998 ], [ 129.882050854250991, 33.541944365075203 ], [ 129.882002147251001, 33.541041386063696 ], [ 129.881663659158988, 33.541074395178399 ], [ 129.882082748382004, 33.540719361211202 ], [ 129.882525658525992, 33.540860397777898 ], [ 129.88237449284199, 33.540553361919798 ], [ 129.882813637869987, 33.5403130057651 ], [ 129.882621821932986, 33.540498819990098 ], [ 129.883975863565013, 33.5411196234313 ], [ 129.883906719457002, 33.540883662907 ], [ 129.884137027017999, 33.540641383802097 ], [ 129.885658284943986, 33.540817370454 ], [ 129.885680047199003, 33.540379399816501 ], [ 129.886101984800007, 33.540384990007603 ], [ 129.886103899700998, 33.541667105159497 ], [ 129.887073060281011, 33.541656901571301 ], [ 129.887492897062998, 33.541156644012503 ], [ 129.887987185469001, 33.541234127025497 ], [ 129.888418043502014, 33.541726664509198 ], [ 129.889309898577011, 33.541868109092 ], [ 129.890043990048014, 33.5414662461124 ], [ 129.890594423155989, 33.541784946580798 ], [ 129.890498807200004, 33.541427034163398 ], [ 129.890604246312989, 33.541351340529097 ], [ 129.890944344019005, 33.541614059353797 ], [ 129.891819735631003, 33.541021398015097 ], [ 129.892389322380012, 33.5408470832106 ], [ 129.892901209818007, 33.540388239453399 ], [ 129.893116640818988, 33.5396210752873 ], [ 129.893016350336012, 33.538955692313998 ], [ 129.892387528529014, 33.5383730354432 ], [ 129.892448908709014, 33.538203156222998 ], [ 129.892127496662994, 33.538157914024097 ], [ 129.891233519543988, 33.537261820491601 ], [ 129.891447577057988, 33.537018502193497 ], [ 129.891664484943988, 33.537152057775302 ], [ 129.892082511413008, 33.5366184524866 ], [ 129.892016343270996, 33.535896564360399 ], [ 129.892294678133993, 33.535519456401801 ], [ 129.892503896172002, 33.535576340356897 ], [ 129.892554997556999, 33.536127665593298 ], [ 129.892357901720004, 33.536215185718 ], [ 129.89283384154399, 33.536972293004297 ], [ 129.892932317449009, 33.537522245190601 ], [ 129.893378849422987, 33.537887798776801 ], [ 129.893901202069003, 33.538039434401 ], [ 129.893857490196012, 33.538176083359403 ], [ 129.894231570215993, 33.537797113994003 ], [ 129.894641544226005, 33.537902662448403 ], [ 129.894611878907, 33.539389190609803 ], [ 129.894759707026992, 33.539869247756499 ], [ 129.893494776191005, 33.542057030061301 ], [ 129.892861398789989, 33.542503978446803 ], [ 129.892467282512001, 33.543100033513802 ], [ 129.892268767035006, 33.543046873733999 ], [ 129.892125545525005, 33.543380988802099 ], [ 129.892344434904999, 33.543446059017697 ], [ 129.891757461974009, 33.544976276069498 ], [ 129.891192203786005, 33.5447232740663 ], [ 129.891282584021013, 33.5438828644591 ], [ 129.891179580247012, 33.543516786745499 ], [ 129.891112053356011, 33.544754993486301 ], [ 129.891315402958014, 33.544851483082098 ], [ 129.891098952741999, 33.545953149965598 ], [ 129.890286194637014, 33.545516689239101 ], [ 129.890406481975987, 33.544528696975703 ], [ 129.890274207462994, 33.544518496271998 ], [ 129.890134016459001, 33.545628944393499 ], [ 129.891096514086001, 33.546058610534999 ], [ 129.890969527321005, 33.546477606849997 ], [ 129.891122267586013, 33.546571847622197 ], [ 129.890671699943994, 33.547119598365803 ], [ 129.890777500094003, 33.547180982723098 ], [ 129.890981980049986, 33.5469321559547 ], [ 129.891231163140986, 33.547069628815997 ], [ 129.891686548015002, 33.54673739191 ], [ 129.892578820680995, 33.547272817021401 ], [ 129.892296862183002, 33.547601183382 ], [ 129.891590436103996, 33.547268487485603 ], [ 129.892316532487996, 33.547661760677997 ], [ 129.892879162792013, 33.547026639341503 ], [ 129.893512327134999, 33.547193706650702 ], [ 129.894756153875989, 33.548192961551102 ], [ 129.89521600615501, 33.548865177775099 ], [ 129.89650852976601, 33.549517762290101 ], [ 129.895120245305009, 33.550977706081603 ], [ 129.896522372341991, 33.549613435648801 ], [ 129.897517417708002, 33.549353603981601 ], [ 129.898284881249992, 33.548524635982403 ], [ 129.898473780717012, 33.547811323446901 ], [ 129.898789960164009, 33.547754649161703 ], [ 129.899253563895002, 33.547369276261797 ], [ 129.900959718617997, 33.545535186471298 ], [ 129.901209533717008, 33.5457898564106 ], [ 129.901966038369011, 33.545316909092698 ], [ 129.902437624057995, 33.545662787894003 ], [ 129.90204856269699, 33.545263543309403 ], [ 129.902442900680995, 33.545078541069699 ], [ 129.902186677791008, 33.544531917977999 ], [ 129.902431025916002, 33.5441538904225 ], [ 129.902029622156988, 33.542568132720298 ], [ 129.902949760388992, 33.542104095602902 ], [ 129.902176490525989, 33.541143290988501 ], [ 129.901456858854999, 33.540691737154297 ], [ 129.901334933192004, 33.538678635667402 ], [ 129.901086781250001, 33.538080942051103 ], [ 129.901300637855996, 33.537924808266901 ], [ 129.901803253671005, 33.536277540474899 ], [ 129.900954109439994, 33.535454924671903 ], [ 129.900231066211006, 33.535276989850999 ], [ 129.900488733620989, 33.534928525068601 ], [ 129.900150878718989, 33.5346942406509 ], [ 129.899207913357003, 33.534601091824797 ], [ 129.898419558884001, 33.534838824029201 ], [ 129.898349600273008, 33.532367551946002 ], [ 129.898723980298996, 33.530805970286799 ], [ 129.899047985012004, 33.530498566335801 ] ] ] ] } }
]
}
