{
"type": "FeatureCollection",
"name": "唐津",
"crs": { "type": "name", "properties": { "name": "urn:ogc:def:crs:OGC:1.3:CRS84" } },
"features": [
{ "type": "Feature", "properties": { "id": "唐津.1", "Name": null, "description": null, "timestamp": null, "begin": null, "end": null, "altitudeMode": null, "tessellate": -1, "extrude": 0, "visibility": -1, "drawOrder": null, "icon": null, "KEY_CODE": "412020010", "PREF": "41", "CITY": "202", "S_AREA": "001000", "PREF_NAME": "佐賀県", "CITY_NAME": "唐津市", "S_NAME": "双水", "KIGO_E": null, "HCODE": 8101.0, "AREA": 1226190.875, "PERIMETER": 4942.331, "h12kaxx_": 399.0, "h12kaxx_ID": 398.0, "KEN": "41", "KEN_NAME": "佐賀県", "SITYO_NAME": null, "DUMMY1": null, "GST_NAME": "唐津市", "CSS_NAME": null, "KIHON1": "0010", "DUMMY2": "-", "KIHON2": "00", "KEYCODE1": "202001000", "DUMMY3": null, "KEYCODE2": "2020010", "AREA_MAX_F": "M", "KIGO_D": null, "N_KEN": null, "N_CITY": null, "N_C1": 0.0, "KIGO_I": null, "TATE": 0.0, "DIR": 0.0, "HIGHT": 50.0, "JIKAKU": 10.0, "NMOJI": 2.0, "DUMMY4": null, "MOJI": "双水", "SEQ_NO2": 398.0, "KSUM": 5.0, "CSUM": 5.0, "JINKO": 958.0, "SETAI": 259.0, "X_CODE": 129.98888, "Y_CODE": 33.390273, "KCODE1": "0010-00" }, "geometry": { "type": "MultiPolygon", "coordinates": [ [ [ [ 129.924756780394006, 33.402859106495598 ], [ 129.923862307361986, 33.402284645217499 ], [ 129.923377705816989, 33.402415372938997 ], [ 129.92224160568199, 33.405110859982301 ], [ 129.921087506487993, 33.406004843071898 ], [ 129.919871981325002, 33.406668934534501 ], [ 129.919549091718011, 33.406733569820297 ], [ 129.918972238413005, 33.406512687993398 ], [ 129.918228378204986, 33.4067760593869 ], [ 129.91776029687, 33.406561437593297 ], [ 129.917527501220007, 33.406032594806703 ], [ 129.917023779718988, 33.405895247401098 ], [ 129.916510147005994, 33.404487513274297 ], [ 129.915667466384008, 33.4029058376126 ], [ 129.915009665008995, 33.402592549300401 ], [ 129.913514784808996, 33.402362691419903 ], [ 129.911832130851991, 33.403444476471499 ], [ 129.910752139739003, 33.403945863493597 ], [ 129.910565868754986, 33.404678067453403 ], [ 129.909823449498987, 33.404838490726199 ], [ 129.908247702952991, 33.406139748006503 ], [ 129.906781206890003, 33.406192983883102 ], [ 129.906305185434007, 33.406907695433297 ], [ 129.905726580762007, 33.4068216610289 ], [ 129.905431093918992, 33.407277792295602 ], [ 129.905604902372005, 33.407535724285196 ], [ 129.905635745996989, 33.408075914185602 ], [ 129.905002458815005, 33.4084509479882 ], [ 129.903806160706011, 33.411024102338203 ], [ 129.904047598706001, 33.411434571407398 ], [ 129.904006158154999, 33.411857685056901 ], [ 129.902770670753, 33.412693725055199 ], [ 129.902509367345999, 33.413120176235303 ], [ 129.901330787179006, 33.413404394958903 ], [ 129.901209461234998, 33.413866738813503 ], [ 129.901325376876997, 33.415264604332698 ], [ 129.900999879930993, 33.415312122060499 ], [ 129.900438005351987, 33.416930447454 ], [ 129.899360536052995, 33.416507528446203 ], [ 129.898587813646998, 33.416722487761298 ], [ 129.898183148140987, 33.4173238628116 ], [ 129.898259396495007, 33.417949650832298 ], [ 129.897939692025005, 33.418235472709 ], [ 129.896748315721993, 33.418356861708403 ], [ 129.895563893765996, 33.417976141348497 ], [ 129.893824502567014, 33.4185151919717 ], [ 129.896847362039011, 33.4192377720873 ], [ 129.898554020192989, 33.419394081317201 ], [ 129.899486203587003, 33.419896405611198 ], [ 129.900395078678002, 33.419917206683103 ], [ 129.900509253778011, 33.420534595359698 ], [ 129.901296931584, 33.421127373906302 ], [ 129.901432210646988, 33.421550747504199 ], [ 129.902297305051007, 33.422320794441703 ], [ 129.902413480339987, 33.424220646813801 ], [ 129.902983913454989, 33.425464638133001 ], [ 129.902067533700006, 33.425287945888797 ], [ 129.901679610488998, 33.425526439379702 ], [ 129.901094321787014, 33.425447935801003 ], [ 129.900614918581994, 33.426697333397101 ], [ 129.899849777908997, 33.426657558832297 ], [ 129.899632835427013, 33.427205485093502 ], [ 129.89992850591301, 33.427354722671602 ], [ 129.900752711845996, 33.4272080738317 ], [ 129.900704646479994, 33.426863060555497 ], [ 129.901701586895001, 33.4269012164972 ], [ 129.901758799745011, 33.427913402920197 ], [ 129.901048609319986, 33.428031764617501 ], [ 129.900231596138013, 33.4279475448771 ], [ 129.899482929577999, 33.427640351409998 ], [ 129.898699884448007, 33.427992651836902 ], [ 129.898979692532009, 33.428698928638099 ], [ 129.898785589173002, 33.428821816235498 ], [ 129.899096083768995, 33.4298655988541 ], [ 129.898769182574, 33.430119313269699 ], [ 129.898897149170011, 33.430377024854799 ], [ 129.899324976071995, 33.430446819154703 ], [ 129.900021420399014, 33.430035104353898 ], [ 129.901387293028989, 33.429966539218803 ], [ 129.902501136327999, 33.4294908071317 ], [ 129.902594496673998, 33.429295420985497 ], [ 129.903233800572991, 33.429249716349901 ], [ 129.903499092636991, 33.4286765618834 ], [ 129.903868621700013, 33.428518550033402 ], [ 129.90395014415401, 33.428970016454301 ], [ 129.902687087385999, 33.429908117198401 ], [ 129.899969403239993, 33.430674801600901 ], [ 129.899270673359013, 33.430941177871802 ], [ 129.898987171730994, 33.431217254355502 ], [ 129.898839552635991, 33.432513587616697 ], [ 129.900730734696992, 33.433109502150003 ], [ 129.900987699409995, 33.433551639336898 ], [ 129.898783063623, 33.4343894968138 ], [ 129.89802540189001, 33.4353727681968 ], [ 129.897765270708987, 33.436037663062898 ], [ 129.897290582739004, 33.436502291383199 ], [ 129.897643413352995, 33.437088778970903 ], [ 129.897046632758986, 33.437846275109102 ], [ 129.896768399005992, 33.4389248514996 ], [ 129.897150607648001, 33.440415954159697 ], [ 129.897783897104006, 33.4402602047711 ], [ 129.897361993885994, 33.439779466429599 ], [ 129.89836677905501, 33.439156367232201 ], [ 129.899293739014013, 33.439166393345701 ], [ 129.900160364342014, 33.439609582157303 ], [ 129.901169351161002, 33.440957469445998 ], [ 129.901675243242011, 33.441178347261797 ], [ 129.90180862458601, 33.441522154450098 ], [ 129.901739465515988, 33.441889385150198 ], [ 129.900287743003986, 33.442364598670501 ], [ 129.898403264147987, 33.442514842722503 ], [ 129.897608793214005, 33.442085206373697 ], [ 129.895860591211999, 33.441972762266403 ], [ 129.895207886276012, 33.4422143005159 ], [ 129.894385894642994, 33.442798603104997 ], [ 129.892197035193988, 33.443667495149398 ], [ 129.891566459046999, 33.443515484974903 ], [ 129.89062836501401, 33.442591866321003 ], [ 129.889792937256999, 33.442204083207201 ], [ 129.889255232370004, 33.442202367449298 ], [ 129.887228547912002, 33.442995314387403 ], [ 129.887068500455996, 33.443191779196603 ], [ 129.887003543609012, 33.444310804570698 ], [ 129.887703454437002, 33.446293978458201 ], [ 129.88922828220899, 33.448860459979997 ], [ 129.889427899299989, 33.449715404244202 ], [ 129.889344485799995, 33.450473242950999 ], [ 129.888215859848003, 33.451360190493098 ], [ 129.888050354752011, 33.451872152852097 ], [ 129.888030733238992, 33.452297725217598 ], [ 129.888382295669004, 33.453250011461897 ], [ 129.888889192176009, 33.453922811958101 ], [ 129.888793678196009, 33.454217600663902 ], [ 129.889006375631993, 33.454692635084797 ], [ 129.890015727710988, 33.455034952585102 ], [ 129.890803155082011, 33.454735023611001 ], [ 129.891178159273011, 33.454201718465299 ], [ 129.890903088738014, 33.453568443194101 ], [ 129.890953150582988, 33.453093477805702 ], [ 129.891278109546988, 33.452510206402202 ], [ 129.891587754222996, 33.452418340104103 ], [ 129.891947862568998, 33.452415646196101 ], [ 129.892662626781004, 33.453397769039597 ], [ 129.892831790356013, 33.454259700935403 ], [ 129.894052902856004, 33.454576794874903 ], [ 129.894468620080005, 33.455188004286498 ], [ 129.895315276967011, 33.454668512467798 ], [ 129.896790178620989, 33.4545602232565 ], [ 129.896465234348994, 33.455051833580697 ], [ 129.895927871476005, 33.455301797075201 ], [ 129.895777814141013, 33.455885096219603 ], [ 129.895777828607009, 33.456176728373798 ], [ 129.896365189407987, 33.456560067500703 ], [ 129.896315161664006, 33.456901690335201 ], [ 129.895802769339014, 33.456943365428501 ], [ 129.894320338726999, 33.457702884118703 ], [ 129.894098528605014, 33.457931530706198 ], [ 129.894082974751996, 33.458330588910798 ], [ 129.894312610948987, 33.458592819965702 ], [ 129.895150208983011, 33.458813178105999 ], [ 129.895713829470992, 33.459187820692797 ], [ 129.896177837298012, 33.459651492254601 ], [ 129.896034312602012, 33.460089561652502 ], [ 129.896329571205001, 33.460473606475297 ], [ 129.897752337921986, 33.460483330647698 ], [ 129.897945000621007, 33.460600361921301 ], [ 129.897969742671989, 33.4608844306861 ], [ 129.897613780323013, 33.461667784783799 ], [ 129.898476281715006, 33.46271033379 ], [ 129.898552706966001, 33.463567942005596 ], [ 129.898302798288995, 33.463684622723299 ], [ 129.898365284991002, 33.464134564346999 ], [ 129.897927762693001, 33.4644262070967 ], [ 129.897577821983987, 33.464151217995898 ], [ 129.897152830153999, 33.464176205973502 ], [ 129.897015367059993, 33.463501237103699 ], [ 129.896290436697001, 33.463159573474599 ], [ 129.895827904772005, 33.463142907739403 ], [ 129.895515320404002, 33.4633178783033 ], [ 129.894774478319988, 33.463948728245803 ], [ 129.894656746222012, 33.464326161818903 ], [ 129.894677904359014, 33.465217689730103 ], [ 129.895103020432998, 33.465867652117304 ], [ 129.896540380981008, 33.467417596533799 ], [ 129.898852840340993, 33.468367573957003 ], [ 129.899115154686996, 33.467534324994602 ], [ 129.899890225399986, 33.467242720080698 ], [ 129.900302674972011, 33.467467714613498 ], [ 129.901027636272005, 33.468392646302298 ], [ 129.901565076687007, 33.468684327114602 ], [ 129.901802678973013, 33.469159276250302 ], [ 129.904527501616002, 33.470484263781501 ], [ 129.905027478746007, 33.470909218544001 ], [ 129.905027408567008, 33.471209190032702 ], [ 129.904415001914003, 33.472125774019297 ], [ 129.904502473804001, 33.474067264066001 ], [ 129.903664982898988, 33.474833828871098 ], [ 129.903989976614014, 33.475325457228301 ], [ 129.903989973740011, 33.477083627617802 ], [ 129.903290000838012, 33.4774002371325 ], [ 129.903027464245014, 33.4788167582482 ], [ 129.903077496918002, 33.479041759277997 ], [ 129.903827380230013, 33.479741679727397 ], [ 129.903889856932011, 33.480033284727803 ], [ 129.903777342374013, 33.480283264067502 ], [ 129.902239859130987, 33.480758197950799 ], [ 129.901864878211001, 33.4811164764021 ], [ 129.901702399766009, 33.481474768321597 ], [ 129.901789898722001, 33.481774731085999 ], [ 129.902252417979014, 33.482066355341203 ], [ 129.902539810695004, 33.482766276338602 ], [ 129.901327465197994, 33.483391182518901 ], [ 129.901602308775011, 33.484066094124401 ], [ 129.901227329660998, 33.484449375013298 ], [ 129.901414819965993, 33.485490920831303 ], [ 129.90003983331701, 33.485465913133403 ], [ 129.898189933341001, 33.486165779724303 ], [ 129.898139906832, 33.486815694421502 ], [ 129.897464906599993, 33.487857224188303 ], [ 129.897389837936004, 33.4894320630656 ], [ 129.897227307381002, 33.489698671112599 ], [ 129.89533980912401, 33.490515211516303 ], [ 129.89482743854299, 33.491073446942501 ], [ 129.894802507402005, 33.491281758823199 ], [ 129.895827239596002, 33.492339981267897 ], [ 129.898266378674009, 33.4944164362186 ], [ 129.898277019430992, 33.494856421458003 ], [ 129.897955480013991, 33.495839815672397 ], [ 129.898375748874003, 33.496504445503 ], [ 129.899495522731996, 33.497137530754301 ], [ 129.89910491017099, 33.497700533260598 ], [ 129.897681513871987, 33.497876730386601 ], [ 129.89765422360199, 33.499132168511601 ], [ 129.897353794504994, 33.499695999329496 ], [ 129.897501777770003, 33.500172463218099 ], [ 129.898852814304007, 33.500175811099098 ], [ 129.898929922603998, 33.4999365807871 ], [ 129.899952400583999, 33.499360311048697 ], [ 129.900115784201006, 33.498927468901897 ], [ 129.900478845132, 33.498760720474301 ], [ 129.901564089690993, 33.498597696078001 ], [ 129.903039112518002, 33.498781045025702 ], [ 129.903901445076002, 33.498506071569302 ], [ 129.904676520474993, 33.497589535634702 ], [ 129.904676478851002, 33.497339546571403 ], [ 129.904114092566999, 33.496639623011397 ], [ 129.904189048588989, 33.496322992288597 ], [ 129.904838934443006, 33.495764728586103 ], [ 129.904814089599, 33.495581437576703 ], [ 129.904601547318009, 33.495448120147202 ], [ 129.904276671130987, 33.494023260738501 ], [ 129.902717227810001, 33.493002437731597 ], [ 129.902475363149989, 33.492509372553101 ], [ 129.902526149638987, 33.492056617837598 ], [ 129.902734171561008, 33.491661922852899 ], [ 129.904276798467009, 33.491481893562899 ], [ 129.90477674828, 33.491523573132199 ], [ 129.905401482146004, 33.492110352965497 ], [ 129.90642661019001, 33.491906884650803 ], [ 129.906694027777007, 33.491574164537703 ], [ 129.906296332288008, 33.490909762669297 ], [ 129.906151755903011, 33.490240408113799 ], [ 129.906951762798002, 33.489298860319401 ], [ 129.906476807956011, 33.488915569412697 ], [ 129.906476762470987, 33.488732251325402 ], [ 129.906801783721988, 33.488390634968802 ], [ 129.907689141373993, 33.4883489716197 ], [ 129.909351650154008, 33.487607441775303 ], [ 129.911126842310011, 33.487940465930897 ], [ 129.912046280915007, 33.488363941083101 ], [ 129.914750210177004, 33.488595330514201 ], [ 129.915147405863991, 33.489297456684298 ], [ 129.915726141975995, 33.489815524423001 ], [ 129.916426112506997, 33.489882214459499 ], [ 129.916973802379005, 33.490248103292799 ], [ 129.917671842716999, 33.490348616258103 ], [ 129.917893143327007, 33.490690452999601 ], [ 129.919223747518004, 33.490702046243698 ], [ 129.921802279009995, 33.490139078823702 ], [ 129.922837331674003, 33.490452086790597 ], [ 129.923318061278991, 33.491373078757597 ], [ 129.924525058602995, 33.491272192492701 ], [ 129.92456227464001, 33.493636907326298 ], [ 129.925058665980004, 33.493648643809401 ], [ 129.92549016967601, 33.493169835241403 ], [ 129.925960912246012, 33.493107137516603 ], [ 129.927264818317013, 33.493779118425202 ], [ 129.926674133211009, 33.494226828933201 ], [ 129.926642713453987, 33.494612567617303 ], [ 129.926237751673, 33.494923399459303 ], [ 129.925737719855988, 33.4957149701617 ], [ 129.925575180234006, 33.4966815485678 ], [ 129.926069423445995, 33.497595598518799 ], [ 129.925898659209992, 33.498499766428502 ], [ 129.926066038722013, 33.498582891567501 ], [ 129.92668497579001, 33.498729272176099 ], [ 129.927140584595008, 33.4984511385139 ], [ 129.927471830542004, 33.498194186403701 ], [ 129.927794055244988, 33.497591928704502 ], [ 129.928637489824013, 33.497089867658197 ], [ 129.929396562113993, 33.496351203602003 ], [ 129.930128923044009, 33.496639637666597 ], [ 129.930221081664996, 33.497798503099901 ], [ 129.931055587020012, 33.496996520016303 ], [ 129.931543726607998, 33.496956209339302 ], [ 129.931814009688992, 33.496609613061501 ], [ 129.933710665630997, 33.497397997789399 ], [ 129.934424630097993, 33.496481686730903 ], [ 129.935284255494992, 33.496335088988303 ], [ 129.936110500876993, 33.496928663821102 ], [ 129.937750654936991, 33.497670227192103 ], [ 129.938679993654006, 33.497804376188903 ], [ 129.939721112667996, 33.498589037100103 ], [ 129.939646673278986, 33.500325488512701 ], [ 129.939219131841014, 33.501212653447503 ], [ 129.939154987980004, 33.5024704110307 ], [ 129.940245364922987, 33.505037141201001 ], [ 129.940223660614009, 33.506180734920697 ], [ 129.940412593974003, 33.507110614453701 ], [ 129.939524400781011, 33.508417271886003 ], [ 129.938342590350999, 33.509156725179302 ], [ 129.937941867707991, 33.5087963735361 ], [ 129.934923997522986, 33.507705545229499 ], [ 129.934161613389989, 33.506888955892101 ], [ 129.932249229976009, 33.506255642412597 ], [ 129.931461743068013, 33.507480505014001 ], [ 129.930686792317999, 33.507863776429801 ], [ 129.930499254354999, 33.508138741471498 ], [ 129.930524238326001, 33.509263642648499 ], [ 129.930011755187991, 33.509963548638297 ], [ 129.930261620446004, 33.5124299781518 ], [ 129.929611636727003, 33.513579810932498 ], [ 129.928645182341995, 33.514451308919099 ], [ 129.9283666444, 33.514936972043103 ], [ 129.927968184065008, 33.515313859513199 ], [ 129.925716956587991, 33.5160930236609 ], [ 129.924140471785989, 33.516199787239998 ], [ 129.923761083843999, 33.515958792962898 ], [ 129.923657828259991, 33.5163445365949 ], [ 129.924094047572993, 33.517197719487697 ], [ 129.924036674803006, 33.517552199579498 ], [ 129.922724465497993, 33.517429214601798 ], [ 129.920449106778989, 33.518604907896098 ], [ 129.92025785509199, 33.518761729883003 ], [ 129.920106723782993, 33.519337239831401 ], [ 129.92024969290901, 33.519715652545699 ], [ 129.919581953359994, 33.520432433822897 ], [ 129.919207475384013, 33.520701768290998 ], [ 129.918369054414995, 33.520529624664 ], [ 129.917737205261005, 33.520753775002198 ], [ 129.917624733987992, 33.521370368992102 ], [ 129.917622402324014, 33.521800380381499 ], [ 129.917958431018008, 33.522484744726697 ], [ 129.91796777601499, 33.524164591344601 ], [ 129.918389564915003, 33.524352085350998 ], [ 129.918332559924011, 33.524674868653101 ], [ 129.919458585824003, 33.5257844621771 ], [ 129.919230022080001, 33.526505104844098 ], [ 129.91944075692399, 33.526602035971997 ], [ 129.919311831339002, 33.5272569825609 ], [ 129.919513991006994, 33.5280362893484 ], [ 129.919661783932014, 33.5282779521213 ], [ 129.920759398951986, 33.528369368833999 ], [ 129.921027717684012, 33.529328865031196 ], [ 129.921844198347003, 33.529757479349499 ], [ 129.922049913982988, 33.530266394057101 ], [ 129.921611634431002, 33.530469388566502 ], [ 129.922310210630002, 33.531263818742701 ], [ 129.921523750976007, 33.532385265195401 ], [ 129.920349098603992, 33.532952422586803 ], [ 129.920112914198995, 33.533460095239398 ], [ 129.919771270651012, 33.533526816471998 ], [ 129.919455801607995, 33.533923418979803 ], [ 129.919351403418005, 33.534397935704398 ], [ 129.918436733468013, 33.535327109290101 ], [ 129.918666252303012, 33.536483922437498 ], [ 129.918492867722989, 33.5370400407703 ], [ 129.917291913355001, 33.538078005634098 ], [ 129.916871435910991, 33.538954081244697 ], [ 129.917170806510001, 33.539432620159801 ], [ 129.916938616738008, 33.540298472016701 ], [ 129.917062359758006, 33.541424291071799 ], [ 129.917383997503009, 33.541885202930601 ], [ 129.917885064843006, 33.541826149564301 ], [ 129.919368079451999, 33.542142016361197 ], [ 129.920307778026995, 33.542769615509201 ], [ 129.921023988108999, 33.543011191925501 ], [ 129.921668768554014, 33.543464023705397 ], [ 129.921603531019002, 33.543684353225302 ], [ 129.921355176068005, 33.543653311278 ], [ 129.922382044601989, 33.543942665184296 ], [ 129.922710088509007, 33.544405345027897 ], [ 129.923953748855013, 33.5444026268557 ], [ 129.926377750840004, 33.545511021799904 ], [ 129.92811333046501, 33.545783890438699 ], [ 129.928532419265991, 33.546288832053598 ], [ 129.92848530356801, 33.546964642526198 ], [ 129.927991883082996, 33.546899972610497 ], [ 129.928329177926997, 33.547230151710998 ], [ 129.928418538437001, 33.548449032278597 ], [ 129.927763373054006, 33.549363019143399 ], [ 129.928420297624996, 33.549615734218897 ], [ 129.927957062659004, 33.549810083241297 ], [ 129.928513743249994, 33.549814899693899 ], [ 129.927716293234994, 33.550035236468403 ], [ 129.928020844971996, 33.5504904801737 ], [ 129.928583116003011, 33.550819929358298 ], [ 129.930190705893011, 33.551002421199698 ], [ 129.930412534992001, 33.550743781586696 ], [ 129.930035080562988, 33.550612462828802 ], [ 129.930038241196002, 33.550185134313502 ], [ 129.930711695434013, 33.550408255271101 ], [ 129.930813448083995, 33.550274770389898 ], [ 129.93055500300801, 33.5501048582857 ], [ 129.930812404221996, 33.550099860263899 ], [ 129.929939149673999, 33.549658624343898 ], [ 129.930797612376011, 33.549640784433898 ], [ 129.931905730555002, 33.549891986640098 ], [ 129.931925416202006, 33.549522489927199 ], [ 129.931422386200012, 33.548917690436703 ], [ 129.932295750641003, 33.5490009432812 ], [ 129.932844422798013, 33.549568271543002 ], [ 129.933160018628996, 33.5492085431937 ], [ 129.932074571793009, 33.548160524857998 ], [ 129.932257169014008, 33.548019634774299 ], [ 129.932444703779993, 33.548270994252498 ], [ 129.932504578940012, 33.547957772495401 ], [ 129.931897472120994, 33.547587381505501 ], [ 129.931888124377991, 33.547471885774698 ], [ 129.932118926330986, 33.5476181354625 ], [ 129.931710420694003, 33.547125939679603 ], [ 129.931081863953011, 33.545525521923999 ], [ 129.930683703609986, 33.545335457233897 ], [ 129.930849415701005, 33.544291009183901 ], [ 129.930611849795014, 33.543124959622297 ], [ 129.929652578841001, 33.541289106821097 ], [ 129.929928346671005, 33.540665781697001 ], [ 129.929710334995008, 33.539920944887299 ], [ 129.928914389612004, 33.538724844945499 ], [ 129.929081905555989, 33.537535242982102 ], [ 129.930014983849986, 33.537480196212201 ], [ 129.930657346470014, 33.5373378943628 ], [ 129.929108403990995, 33.537480494621903 ], [ 129.929181449229986, 33.537232265833701 ], [ 129.929497158038998, 33.537216082907896 ], [ 129.929510266389002, 33.536937575386801 ], [ 129.929949111172988, 33.53653292912 ], [ 129.930179379654987, 33.536719750602103 ], [ 129.930247328837993, 33.537062071540603 ], [ 129.930238866650996, 33.536697724173003 ], [ 129.929985209498994, 33.536490872070402 ], [ 129.930602166010004, 33.5360481049646 ], [ 129.932110352144008, 33.535538183035101 ], [ 129.932555537252, 33.534794593496599 ], [ 129.935959610829002, 33.5338483166123 ], [ 129.937201414967006, 33.533197213736997 ], [ 129.937969001717988, 33.532496947160503 ], [ 129.938847024329988, 33.532270058222302 ], [ 129.939142417331993, 33.531884893441003 ], [ 129.939736803773002, 33.531879140077002 ], [ 129.939954832550001, 33.531657433736001 ], [ 129.941420938506013, 33.531229984958799 ], [ 129.943040362060003, 33.5300635799669 ], [ 129.945501517776989, 33.528817791198897 ], [ 129.94603244177901, 33.528357095653703 ], [ 129.947414140955004, 33.527961323731503 ], [ 129.949178017304007, 33.527925813427302 ], [ 129.949201945857993, 33.527547329958097 ], [ 129.948541635346999, 33.527137780391897 ], [ 129.946803843287995, 33.527159984365497 ], [ 129.946916858757987, 33.5270716631954 ], [ 129.947773100809002, 33.526949123779403 ], [ 129.948645568916987, 33.527090869983702 ], [ 129.949047829904998, 33.526939213458697 ], [ 129.949620482933994, 33.527037867610296 ], [ 129.949051594527987, 33.526982530957099 ], [ 129.948688353123998, 33.527113774400199 ], [ 129.949338128812002, 33.527504320590197 ], [ 129.949229756145996, 33.5277441296871 ], [ 129.949329091931986, 33.527986618737202 ], [ 129.950265566012007, 33.528261432960001 ], [ 129.950896357353002, 33.528714007023098 ], [ 129.950994969314991, 33.529016889072302 ], [ 129.950892791716001, 33.5291828237253 ], [ 129.951159143306995, 33.529330223860697 ], [ 129.951278729604013, 33.5298533021937 ], [ 129.951538822226013, 33.529892453098398 ], [ 129.951305005297002, 33.530261054190298 ], [ 129.951349898002007, 33.530645542821702 ], [ 129.951547761314998, 33.530753584517299 ], [ 129.951901128126991, 33.530556425301199 ], [ 129.95180918549201, 33.530056157604399 ], [ 129.952694335335991, 33.529770626977097 ], [ 129.953724570639991, 33.529777550789397 ], [ 129.954355175572999, 33.529975818951399 ], [ 129.95620013388401, 33.529286335318702 ], [ 129.956559883625005, 33.529270422597797 ], [ 129.957064865265011, 33.5295361553462 ], [ 129.957492430150012, 33.529434276224698 ], [ 129.957895465132992, 33.529042750642802 ], [ 129.957345893872997, 33.5274692627832 ], [ 129.957371985198989, 33.526641761258603 ], [ 129.959050826863006, 33.524718258804597 ], [ 129.957767555792003, 33.526065360826003 ], [ 129.956674249613997, 33.526117431959499 ], [ 129.956745636816009, 33.525999938963302 ], [ 129.956264561432988, 33.5259020899354 ], [ 129.955931747877997, 33.525379039109097 ], [ 129.956654833071013, 33.525137183286603 ], [ 129.956517967726995, 33.5248808559829 ], [ 129.955841667779993, 33.525078939369699 ], [ 129.955934020439003, 33.523309777288198 ], [ 129.956767188420002, 33.523759523154901 ], [ 129.956853431382996, 33.5236583563766 ], [ 129.957316202990995, 33.524116671782501 ], [ 129.956875284337002, 33.523631491003698 ], [ 129.957812272923007, 33.5222508386355 ], [ 129.958631908471006, 33.523022340963898 ], [ 129.957635353348991, 33.524524221454101 ], [ 129.957425648401994, 33.524331312740898 ], [ 129.957933260240992, 33.5249991805495 ], [ 129.957680931169989, 33.524587720758298 ], [ 129.958736654429998, 33.522997968432499 ], [ 129.957482655907, 33.5218260851968 ], [ 129.958173618077012, 33.521209758725 ], [ 129.958011262693987, 33.520652997034098 ], [ 129.957090018642987, 33.520186285331199 ], [ 129.956438428066008, 33.520123108342297 ], [ 129.956287729649006, 33.519947813910697 ], [ 129.956358963051002, 33.519213566630597 ], [ 129.956915380778014, 33.517882006748799 ], [ 129.959019500253987, 33.515663584580302 ], [ 129.961444711578991, 33.514128538152498 ], [ 129.962649585158999, 33.513818512001102 ], [ 129.963436093100995, 33.514480582460301 ], [ 129.963870632965012, 33.5145058336972 ], [ 129.96456334803301, 33.514276293913397 ], [ 129.965318498981986, 33.5137749343899 ], [ 129.966107264127999, 33.513606587772401 ], [ 129.967020006611989, 33.513704346241703 ], [ 129.968084489865987, 33.5134309552692 ], [ 129.968641191355005, 33.513054154912602 ], [ 129.969188527940986, 33.511284184139903 ], [ 129.968621974136994, 33.5106871247852 ], [ 129.968036206951012, 33.509345141702703 ], [ 129.967426265357005, 33.508417702213798 ], [ 129.966842848106012, 33.507876383636102 ], [ 129.966188650059991, 33.507595065502798 ], [ 129.966011856427997, 33.507076951734199 ], [ 129.965282630916988, 33.506671450937802 ], [ 129.964618242450001, 33.505709302140403 ], [ 129.96348225428099, 33.505386932976997 ], [ 129.962774576677987, 33.505438752251202 ], [ 129.962170230184, 33.505034271162799 ], [ 129.961380934221012, 33.503897029544603 ], [ 129.959909925272001, 33.503608800792797 ], [ 129.961296349072001, 33.503953097342198 ], [ 129.961712528800007, 33.504517426541703 ], [ 129.960845822269988, 33.504726572259102 ], [ 129.95996080021601, 33.504660557205298 ], [ 129.959994603118986, 33.504358789807 ], [ 129.959785318948008, 33.504934088408397 ], [ 129.959275344800005, 33.504829718491301 ], [ 129.95898143522399, 33.505736998024403 ], [ 129.959426714464996, 33.505851639887197 ], [ 129.958881128895996, 33.506023802039202 ], [ 129.956229783623996, 33.505171114794798 ], [ 129.95478125410699, 33.504356469362399 ], [ 129.954091695941997, 33.504146913453901 ], [ 129.953903480003987, 33.503871208301398 ], [ 129.953809795295996, 33.5039632949631 ], [ 129.953309510699, 33.503684078860097 ], [ 129.952254418573006, 33.502106338933103 ], [ 129.951543736681998, 33.500265520318599 ], [ 129.95103845731299, 33.499609049450399 ], [ 129.989658350310009, 33.480798762842497 ], [ 129.991018701027997, 33.480566117242901 ], [ 129.991871802036002, 33.480023966701403 ], [ 129.991960207365992, 33.480098649011801 ], [ 129.992746630352002, 33.479361219613402 ], [ 129.993518520190008, 33.478120557317901 ], [ 129.994385169134006, 33.477144856775404 ], [ 129.994688466266012, 33.476124877011003 ], [ 129.994448471851001, 33.474083490124997 ], [ 129.994573527878998, 33.469242331292698 ], [ 129.994401334169993, 33.454817987878599 ], [ 129.99469294744901, 33.447750035013399 ], [ 129.999686490193994, 33.4466917905103 ], [ 130.007828605677986, 33.446076594474697 ], [ 130.013251538811005, 33.445959469609598 ], [ 130.020412144879003, 33.4464472576025 ], [ 130.018510445322988, 33.441319766553598 ], [ 130.018020292616995, 33.439478621237399 ], [ 130.018136011849009, 33.4363848380532 ], [ 130.018219235009013, 33.435948627398098 ], [ 130.019115670323004, 33.435762632158202 ], [ 130.020859597949993, 33.433289110754899 ], [ 130.021234283633987, 33.432498676934898 ], [ 130.020796261767003, 33.432243311206101 ], [ 130.02086188909999, 33.431756878240698 ], [ 130.02140908450599, 33.432105420902502 ], [ 130.021871757847009, 33.429720425966103 ], [ 130.023190519879989, 33.4300750875882 ], [ 130.024067600772014, 33.430501775710802 ], [ 130.024998814676991, 33.430559460083302 ], [ 130.026868852229995, 33.428434549584402 ], [ 130.029381273712005, 33.427409660045797 ], [ 130.030521888066005, 33.426375241726397 ], [ 130.031173550926013, 33.424541484002702 ], [ 130.031699460507014, 33.424108983293998 ], [ 130.032581165783, 33.4243683295959 ], [ 130.033718599448008, 33.424468346728901 ], [ 130.034602698990994, 33.423892314119499 ], [ 130.033821340862005, 33.422971036410999 ], [ 130.033836373053987, 33.422517747311304 ], [ 130.033409466174987, 33.422161748466401 ], [ 130.033389844499993, 33.421221216578601 ], [ 130.033186430878004, 33.420589905537597 ], [ 130.03374244025801, 33.420598430351397 ], [ 130.034156334231994, 33.420227038811298 ], [ 130.034218794590004, 33.419935397694097 ], [ 130.033906365349992, 33.419460459593303 ], [ 130.033818898528011, 33.4189021418401 ], [ 130.033868933008989, 33.418518857416203 ], [ 130.034268892390998, 33.417993888666203 ], [ 130.034173269395012, 33.4178981145498 ], [ 130.036478005313995, 33.416518007525802 ], [ 130.036393918772006, 33.415402469681197 ], [ 130.037106387298991, 33.414902493995598 ], [ 130.038456342600995, 33.414894190759199 ], [ 130.038968777310004, 33.415202515649902 ], [ 130.039806200267009, 33.415077550890302 ], [ 130.040631187020011, 33.414327608267399 ], [ 130.042091619340994, 33.413530297771999 ], [ 130.041490566067012, 33.412161219752498 ], [ 130.041648028031005, 33.411507514703402 ], [ 130.041449268050002, 33.410448007684501 ], [ 130.042438100368997, 33.4098091013418 ], [ 130.042678172064001, 33.409386912046898 ], [ 130.042910811951003, 33.408271947239101 ], [ 130.043743846054014, 33.407736472346897 ], [ 130.044361969436011, 33.407044640150602 ], [ 130.044916035351008, 33.4067634271156 ], [ 130.047544024220997, 33.406472957461403 ], [ 130.048668596513011, 33.405886663554497 ], [ 130.049731071291006, 33.404461764331998 ], [ 130.049381198289012, 33.402995177941499 ], [ 130.049993652858006, 33.402445220392103 ], [ 130.051018635485008, 33.402011928589602 ], [ 130.052431070797013, 33.401095340445302 ], [ 130.053830939967014, 33.4012203305181 ], [ 130.055080872258003, 33.400578718459499 ], [ 130.056543276192997, 33.400628741867799 ], [ 130.05663077884401, 33.400995364357399 ], [ 130.057543146358995, 33.401288674368402 ], [ 130.058005117687003, 33.401183021064 ], [ 130.058873044409012, 33.401517054499003 ], [ 130.059256164213991, 33.401293262823998 ], [ 130.060254891118007, 33.401577873414602 ], [ 130.060860986687999, 33.4011038494912 ], [ 130.061264638093007, 33.399897782806299 ], [ 130.061098210325014, 33.399535497482603 ], [ 130.061393637109006, 33.399084309145799 ], [ 130.062055490994993, 33.398803858715297 ], [ 130.063430394932993, 33.398628876736801 ], [ 130.063967899393987, 33.398195565298302 ], [ 130.064930289877992, 33.397987241094498 ], [ 130.065842700491999, 33.3975433889699 ], [ 130.066586309168002, 33.396381873936697 ], [ 130.06610524864999, 33.395904064155701 ], [ 130.066017702683013, 33.395404093469402 ], [ 130.066668823300006, 33.393808904161098 ], [ 130.066646796788007, 33.3935274550225 ], [ 130.065334840701013, 33.393975214172997 ], [ 130.064161631334002, 33.393626363261099 ], [ 130.063779913231002, 33.3937326453363 ], [ 130.063405139150007, 33.394116070185703 ], [ 130.062974449563995, 33.394121210758101 ], [ 130.062230543954996, 33.393387603470401 ], [ 130.061510348324987, 33.391939693251999 ], [ 130.060899127400006, 33.391960266959998 ], [ 130.060262778560997, 33.390120822728697 ], [ 130.058946028120005, 33.389615473151302 ], [ 130.058668286704005, 33.3893379359059 ], [ 130.058768269850987, 33.388388015167997 ], [ 130.057966959660007, 33.387525701964798 ], [ 130.057636702328011, 33.3865660068927 ], [ 130.057379223590999, 33.3862953500579 ], [ 130.055229784046986, 33.386392419605897 ], [ 130.054215456743009, 33.386644998696603 ], [ 130.054227899472011, 33.3864183713359 ], [ 130.053806179297993, 33.385946539335301 ], [ 130.053443658113991, 33.385071621370997 ], [ 130.053452065138998, 33.384527475002898 ], [ 130.054035546416003, 33.384288427201703 ], [ 130.054418662234013, 33.383530094685099 ], [ 130.054218624907008, 33.382763523147197 ], [ 130.053806222622995, 33.382021927600903 ], [ 130.05373119744101, 33.380830369910903 ], [ 130.05218818344099, 33.380550508932203 ], [ 130.050993895591006, 33.380563694082298 ], [ 130.050677955163991, 33.379896682706899 ], [ 130.048456632488012, 33.380380379034698 ], [ 130.046956726679014, 33.380930286543702 ], [ 130.04553176697101, 33.380880286184301 ], [ 130.043631849738006, 33.380196990310203 ], [ 130.043192667635992, 33.379801485197397 ], [ 130.042206936887993, 33.380205315051803 ], [ 130.038640870828999, 33.379787340097103 ], [ 130.037984030634988, 33.380319597527198 ], [ 130.03761278860199, 33.380375507279602 ], [ 130.037803392379999, 33.379436600578899 ], [ 130.03696776085701, 33.378926315891498 ], [ 130.036293250643013, 33.3787909420723 ], [ 130.035779402530011, 33.378157231088501 ], [ 130.034832337462007, 33.377947107177199 ], [ 130.033682414650997, 33.3779804209546 ], [ 130.033107451961996, 33.377355455027804 ], [ 130.03255750067899, 33.377088807369397 ], [ 130.03115756014401, 33.376855462855701 ], [ 130.030720093812988, 33.376455529000403 ], [ 130.029720109404991, 33.375947223364903 ], [ 130.029232624005004, 33.375947213695099 ], [ 130.028127697307013, 33.375469490980798 ], [ 130.026595332782989, 33.375180570624302 ], [ 130.025520318345997, 33.375863799418902 ], [ 130.022582958890013, 33.375197134808502 ], [ 130.021907989392986, 33.375355409821601 ], [ 130.021432996302991, 33.375680376245498 ], [ 130.020620575148001, 33.375688679882401 ], [ 130.020195617144992, 33.375938629066397 ], [ 130.018758112434995, 33.377555058332199 ], [ 130.018533159002999, 33.378229975841101 ], [ 130.017683152779995, 33.379571512126603 ], [ 130.017927126173987, 33.380867725073998 ], [ 130.017726213477005, 33.382704931763797 ], [ 130.016508210641007, 33.3838210418253 ], [ 130.016117537083005, 33.384593932588203 ], [ 130.015383200596006, 33.3846625873406 ], [ 130.014295786522013, 33.385645762395399 ], [ 130.011620851114998, 33.386837201245598 ], [ 130.011433424652012, 33.387245504289503 ], [ 130.011852720728001, 33.388409712028498 ], [ 130.011446513294999, 33.388901855490801 ], [ 130.011502739781008, 33.3892465576264 ], [ 130.010953364641011, 33.389989422821301 ], [ 130.010995837140001, 33.390228527387698 ], [ 130.010695871877999, 33.390703448282601 ], [ 130.010270859607004, 33.391045077009998 ], [ 130.009545946473992, 33.391145050297901 ], [ 130.009070910064992, 33.391669956426199 ], [ 130.008595948393008, 33.392594869107597 ], [ 130.007958524877012, 33.392828141899201 ], [ 130.007608493427995, 33.393236439827902 ], [ 130.007333481482988, 33.394144669753601 ], [ 130.004987831053995, 33.394903882297598 ], [ 130.00441868661801, 33.395629805289801 ], [ 130.004163162156004, 33.395199525109398 ], [ 130.004391051645001, 33.394538032879296 ], [ 130.003815188382987, 33.393206793564801 ], [ 130.003938588930993, 33.392930700590497 ], [ 130.003741301557, 33.392660445888502 ], [ 130.003394083751004, 33.392363765950101 ], [ 130.002302298464002, 33.391930981388803 ], [ 130.001610371601998, 33.391119331301098 ], [ 130.000696527293002, 33.390953077429103 ], [ 130.000193109728002, 33.389365677462301 ], [ 129.99754679286599, 33.388536519753998 ], [ 129.996496885974011, 33.388719795005599 ], [ 129.995784425582997, 33.388628114252299 ], [ 129.995301960533993, 33.388339507352399 ], [ 129.99457200203301, 33.387344852839497 ], [ 129.994183203222008, 33.385899682080201 ], [ 129.993997068216004, 33.385678358571496 ], [ 129.992859652636014, 33.385303348513602 ], [ 129.992697111228011, 33.384936718767399 ], [ 129.992867214992003, 33.384062835397998 ], [ 129.992431620820014, 33.383622662941697 ], [ 129.989944770731995, 33.383447084626802 ], [ 129.989348128603012, 33.383081171538599 ], [ 129.988958135900987, 33.382162817535601 ], [ 129.987542713382993, 33.383309941465001 ], [ 129.986900117127988, 33.383447400606101 ], [ 129.98649066779501, 33.383775722609599 ], [ 129.986112077895996, 33.384469497502501 ], [ 129.984485251796997, 33.3859113163535 ], [ 129.983933449750992, 33.386117206477998 ], [ 129.984089917863002, 33.385138371761002 ], [ 129.983830589418005, 33.3848304994413 ], [ 129.982107794933995, 33.384197275543102 ], [ 129.981820813164006, 33.384354329180503 ], [ 129.978710690062002, 33.383444848295603 ], [ 129.976875699411011, 33.382201214510502 ], [ 129.97608883183301, 33.381206267648203 ], [ 129.974359001779987, 33.380102553276899 ], [ 129.973842144082994, 33.379864454688899 ], [ 129.97263995335399, 33.379700388417596 ], [ 129.97223619262499, 33.379370238781199 ], [ 129.971136285750987, 33.379370217960002 ], [ 129.969573925106005, 33.3789202521059 ], [ 129.968861423111008, 33.3789702327811 ], [ 129.966574137719988, 33.379353469759202 ], [ 129.966068662237006, 33.380654871981903 ], [ 129.964519009686001, 33.382613156131001 ], [ 129.96229031339999, 33.383666575285801 ], [ 129.961548445847995, 33.384530517100899 ], [ 129.96201764184201, 33.385026711062302 ], [ 129.961545267325988, 33.385525877755398 ], [ 129.961973311875994, 33.386044303823397 ], [ 129.961544287570007, 33.386237242740698 ], [ 129.961862328597988, 33.3866077759197 ], [ 129.961789494029006, 33.386773088858902 ], [ 129.960644009600998, 33.387596106602601 ], [ 129.959574520161993, 33.387718978031501 ], [ 129.958337054670011, 33.388210560810798 ], [ 129.957762093803012, 33.3885771666829 ], [ 129.957374617617006, 33.389135426000202 ], [ 129.956037217431998, 33.389343713429497 ], [ 129.955603309974009, 33.390174070902802 ], [ 129.955067111555991, 33.389965811533102 ], [ 129.953240379723013, 33.391084743877101 ], [ 129.951962415938993, 33.390493468187401 ], [ 129.950796056282002, 33.389477108514399 ], [ 129.949292111724986, 33.3874807192269 ], [ 129.948969738344999, 33.386400236279897 ], [ 129.94855795955101, 33.3865529515666 ], [ 129.946550487193008, 33.386443981363001 ], [ 129.946162960858999, 33.386577276238 ], [ 129.944263129810992, 33.388227024438201 ], [ 129.942838217373009, 33.388860267321597 ], [ 129.942613230777994, 33.389493501549197 ], [ 129.942950700999006, 33.390076756654999 ], [ 129.942263203581007, 33.390909974923403 ], [ 129.942013221599012, 33.391359889076398 ], [ 129.942075689483005, 33.391651510623802 ], [ 129.942925639119011, 33.3922847728116 ], [ 129.944212930974004, 33.392530140139797 ], [ 129.944039546156006, 33.3933334673752 ], [ 129.944553754856997, 33.394455984751303 ], [ 129.944917613139012, 33.395860325700298 ], [ 129.942093128641005, 33.396517243316502 ], [ 129.941388065676989, 33.396384199605201 ], [ 129.940650606757998, 33.397917324735701 ], [ 129.939663133041989, 33.399317113647697 ], [ 129.938913222281997, 33.399500398630998 ], [ 129.93856321462701, 33.399367094761999 ], [ 129.938471274850002, 33.3999109417894 ], [ 129.938728980301988, 33.401136069479598 ], [ 129.939088107261995, 33.401908403049397 ], [ 129.938975622993013, 33.402649972651901 ], [ 129.938725591522001, 33.4030582460693 ], [ 129.937375745139008, 33.403399836528799 ], [ 129.936428880708007, 33.404076249106197 ], [ 129.935889442604008, 33.403993505929797 ], [ 129.935400891414986, 33.4035331158099 ], [ 129.934850903288009, 33.403441442837803 ], [ 129.934146813680997, 33.404002016285403 ], [ 129.933201092587012, 33.402591570690099 ], [ 129.932838654883, 33.402458252623902 ], [ 129.930288900726993, 33.402274916351502 ], [ 129.929552271359995, 33.402542825247799 ], [ 129.928138863608012, 33.402266811495402 ], [ 129.927474323084994, 33.403111978022103 ], [ 129.926876680683989, 33.402758145424301 ], [ 129.926696673007001, 33.402201215114502 ], [ 129.926320782098003, 33.402656735999798 ], [ 129.925674455006003, 33.402853555465697 ], [ 129.924756780394006, 33.402859106495598 ] ] ], [ [ [ 129.971021538889005, 33.539884752174501 ], [ 129.971114722858999, 33.539928811979301 ], [ 129.970816439201002, 33.540382527173797 ], [ 129.970540646630013, 33.540217060648096 ], [ 129.970451089986, 33.540320881633001 ], [ 129.970730130363989, 33.540489122488701 ], [ 129.970149768077988, 33.540944996725997 ], [ 129.969735796699013, 33.540713468546102 ], [ 129.970058740481988, 33.540266230151097 ], [ 129.969555015046012, 33.540891370296599 ], [ 129.968846567042988, 33.540792592870098 ], [ 129.967882300058989, 33.5402147354771 ], [ 129.967971796346006, 33.540024346387497 ], [ 129.96780958827901, 33.540168132142597 ], [ 129.966718637870997, 33.539288081604198 ], [ 129.967105811983998, 33.538780985705003 ], [ 129.966657464419995, 33.5392686224722 ], [ 129.966318102582989, 33.539285615314903 ], [ 129.96593820446401, 33.539005650021601 ], [ 129.965244878712014, 33.5381838866926 ], [ 129.965489572530998, 33.537619710164002 ], [ 129.965398506865, 33.537222236176099 ], [ 129.964745474127994, 33.537360149986199 ], [ 129.964316727202998, 33.5377415445612 ], [ 129.964343058683994, 33.538058247407299 ], [ 129.963828223169003, 33.538252291407701 ], [ 129.964367954073992, 33.538135973970299 ], [ 129.965087022246991, 33.539140077807197 ], [ 129.966734321979004, 33.540414319271001 ], [ 129.967399765554006, 33.541312477651402 ], [ 129.968358560149994, 33.541990386347898 ], [ 129.969777483954999, 33.542280797246498 ], [ 129.971605370497002, 33.543134509591503 ], [ 129.972898517207994, 33.543222802252302 ], [ 129.973569190808007, 33.543600730151297 ], [ 129.974377336726008, 33.543458650644503 ], [ 129.975360290655004, 33.542832017456703 ], [ 129.976847713799998, 33.541063602532297 ], [ 129.977511445597997, 33.539833857980199 ], [ 129.977959205448002, 33.538570772524601 ], [ 129.977661402975997, 33.5361556050443 ], [ 129.977745253975996, 33.534615404379302 ], [ 129.977469700406004, 33.533146205711397 ], [ 129.97630706940501, 33.530770798085001 ], [ 129.974039100536999, 33.528728860501097 ], [ 129.973924894189992, 33.527831684802401 ], [ 129.973184246278009, 33.527647945505301 ], [ 129.973827736756988, 33.527854341707297 ], [ 129.973914881538008, 33.528948731039101 ], [ 129.973722809028999, 33.528896677273003 ], [ 129.973771079356993, 33.528726649652199 ], [ 129.972698548365003, 33.528570861964099 ], [ 129.97288527667601, 33.527979987339201 ], [ 129.972508714068994, 33.528869489634602 ], [ 129.971187756686987, 33.528781848341602 ], [ 129.97011368822001, 33.528478984883201 ], [ 129.968806465934989, 33.5276890042622 ], [ 129.967175209588987, 33.527075747706903 ], [ 129.965185013199999, 33.528494564205502 ], [ 129.964661578207, 33.529054570467999 ], [ 129.964365740056991, 33.529846435213599 ], [ 129.96472409646401, 33.530398516623201 ], [ 129.965909001895994, 33.531429991879897 ], [ 129.966440979093989, 33.532320746123602 ], [ 129.967581948812011, 33.533245430657097 ], [ 129.968951339218989, 33.534068319863401 ], [ 129.969211408903988, 33.5350099659642 ], [ 129.968541284025008, 33.5355047738054 ], [ 129.969223461120009, 33.5350857880996 ], [ 129.969760559284992, 33.535642081741898 ], [ 129.969500452658991, 33.535785968697198 ], [ 129.969778680034011, 33.535660265027097 ], [ 129.969994092476014, 33.536014569768497 ], [ 129.970044825441988, 33.536275579948303 ], [ 129.969770418194997, 33.536808839625003 ], [ 129.967099471295995, 33.537689094510696 ], [ 129.969141822132997, 33.537064154919797 ], [ 129.970203746366991, 33.538121589550499 ], [ 129.969666019986988, 33.538522838738999 ], [ 129.969809751651013, 33.5386592785784 ], [ 129.970363626910995, 33.538258163209697 ], [ 129.971047023512, 33.538921150266901 ], [ 129.970259203507993, 33.539982093769403 ], [ 129.971078067198988, 33.538934932772399 ], [ 129.971708887938007, 33.539216052439201 ], [ 129.971526683719986, 33.539599520606203 ], [ 129.971021538889005, 33.539884752174501 ] ] ] ] } }
]
}
