{
"type": "FeatureCollection",
"name": "基山(¥7900)",
"crs": { "type": "name", "properties": { "name": "urn:ogc:def:crs:OGC:1.3:CRS84" } },
"features": [
{ "type": "Feature", "properties": { "prefec_cd": 41, "area_cd": 41341, "layer_no": 1 }, "geometry": { "type": "MultiPolygon", "coordinates": [ [ [ [ 130.54156445000001, 33.40591416 ], [ 130.54157139, 33.40574749 ], [ 130.54165917, 33.40428556 ], [ 130.541666670000012, 33.40416114 ], [ 130.541682220000013, 33.40390305 ], [ 130.54168361, 33.40326528 ], [ 130.541686390000024, 33.40212777 ], [ 130.541666670000012, 33.40103459 ], [ 130.541648, 33.4 ], [ 130.541633330000025, 33.39918695 ], [ 130.541666670000012, 33.39854053 ], [ 130.54173445, 33.39722611 ], [ 130.54174778, 33.39696667 ], [ 130.54175584, 33.39681249 ], [ 130.54177805, 33.39637916 ], [ 130.54182222, 33.39552556 ], [ 130.541818330000012, 33.39457722 ], [ 130.541821390000024, 33.39425305 ], [ 130.541666670000012, 33.39425867 ], [ 130.541025280000014, 33.39428167 ], [ 130.54055888000002, 33.39431 ], [ 130.540465550000022, 33.39437389 ], [ 130.540465550000022, 33.39457333 ], [ 130.540770830000014, 33.39543389 ], [ 130.540591950000021, 33.39570277 ], [ 130.540506670000013, 33.39583083 ], [ 130.54049472, 33.39584889 ], [ 130.54046195, 33.39622416 ], [ 130.5404925, 33.39677195 ], [ 130.540514160000015, 33.39716361 ], [ 130.540525280000026, 33.39730305 ], [ 130.54053805, 33.39746472 ], [ 130.540555550000022, 33.39768389 ], [ 130.540526390000025, 33.39777222 ], [ 130.540320830000013, 33.39839944 ], [ 130.540290560000017, 33.39849167 ], [ 130.540289730000012, 33.39851389 ], [ 130.54027861, 33.39882695 ], [ 130.54029222, 33.39886139 ], [ 130.540534720000011, 33.39945749 ], [ 130.54072861, 33.39990528 ], [ 130.54073445, 33.39995083 ], [ 130.540740610000029, 33.4 ], [ 130.540776390000019, 33.40028556 ], [ 130.54077056, 33.40060278 ], [ 130.540770270000024, 33.40062056 ], [ 130.540724450000027, 33.40072333 ], [ 130.540663890000019, 33.40085972 ], [ 130.540621110000018, 33.40095583 ], [ 130.540224450000011, 33.40164861 ], [ 130.540153890000028, 33.40179305 ], [ 130.54012917, 33.40184389 ], [ 130.540161950000027, 33.40284695 ], [ 130.54020555, 33.40290111 ], [ 130.540306940000022, 33.40302723 ], [ 130.540680830000014, 33.4034925 ], [ 130.54068694, 33.40354223 ], [ 130.54045111, 33.40366972 ], [ 130.540164990000022, 33.404045 ], [ 130.539795280000021, 33.40414695 ], [ 130.539765280000012, 33.40415528 ], [ 130.539710830000018, 33.40415667 ], [ 130.53963250000001, 33.40415833 ], [ 130.53871584, 33.40418056 ], [ 130.53870973, 33.40368 ], [ 130.53872166, 33.40327972 ], [ 130.53813528, 33.40326749 ], [ 130.537788050000017, 33.40326056 ], [ 130.536908330000017, 33.40324223 ], [ 130.535878880000013, 33.40322111 ], [ 130.53578694, 33.40321944 ], [ 130.534245840000011, 33.40318749 ], [ 130.53362861, 33.40316 ], [ 130.53333333, 33.40302372 ], [ 130.533216940000017, 33.40297 ], [ 130.532338880000026, 33.40292277 ], [ 130.5322525, 33.40291833 ], [ 130.531933970000011, 33.4029011 ], [ 130.531451660000016, 33.402875 ], [ 130.531073060000011, 33.40305277 ], [ 130.530833890000025, 33.40306777 ], [ 130.53071666, 33.40307516 ], [ 130.53068678, 33.40307705 ], [ 130.530595840000018, 33.40308278 ], [ 130.53040944, 33.40300223 ], [ 130.530368330000016, 33.40298472 ], [ 130.530178330000012, 33.40290249 ], [ 130.52961166, 33.4028475 ], [ 130.52931805, 33.40289056 ], [ 130.5291775, 33.40291125 ], [ 130.529005080000019, 33.40292505 ], [ 130.528584380000012, 33.40298149 ], [ 130.528430830000019, 33.40302111 ], [ 130.528167420000017, 33.40305672 ], [ 130.527970080000017, 33.4030755 ], [ 130.52770361, 33.40312805 ], [ 130.52720416, 33.40318889 ], [ 130.52705372, 33.40327178 ], [ 130.527061660000015, 33.40347389 ], [ 130.527230410000016, 33.40421816 ], [ 130.52734817000001, 33.40448572 ], [ 130.527304860000015, 33.40451853 ], [ 130.5273075, 33.40461223 ], [ 130.52713166, 33.40472667 ], [ 130.52711431, 33.40486122 ], [ 130.527088780000014, 33.40496503 ], [ 130.527485860000013, 33.40489464 ], [ 130.52765861, 33.40484667 ], [ 130.527824940000016, 33.40479103 ], [ 130.52783886, 33.40474216 ], [ 130.527802220000012, 33.40459861 ], [ 130.52773786, 33.40443472 ], [ 130.527620950000028, 33.40420141 ], [ 130.527828780000021, 33.40431441 ], [ 130.527996030000025, 33.40446711 ], [ 130.528051850000026, 33.40452039 ], [ 130.52814122, 33.404558 ], [ 130.52825661, 33.40457995 ], [ 130.528353410000022, 33.40455487 ], [ 130.52857681, 33.40441383 ], [ 130.528714450000024, 33.40459244 ], [ 130.52879008, 33.40491956 ], [ 130.52883358, 33.4050438 ], [ 130.528842, 33.40551747 ], [ 130.52881833, 33.40565195 ], [ 130.528733750000015, 33.40599139 ], [ 130.5286125, 33.40625386 ], [ 130.528516420000017, 33.40683961 ], [ 130.52841591, 33.40730664 ], [ 130.528096940000012, 33.40791583 ], [ 130.52779397, 33.40833333 ], [ 130.527742190000026, 33.40840469 ], [ 130.52773786, 33.40868177 ], [ 130.52769455, 33.40891141 ], [ 130.52772920000001, 33.40899892 ], [ 130.527688330000018, 33.40918416 ], [ 130.527665580000019, 33.40926022 ], [ 130.52771562, 33.40939303 ], [ 130.5275925, 33.40953395 ], [ 130.527378950000013, 33.40934605 ], [ 130.527255810000014, 33.40920353 ], [ 130.52719, 33.40923305 ], [ 130.527083990000023, 33.40943639 ], [ 130.527023610000015, 33.40953028 ], [ 130.52694306, 33.40975556 ], [ 130.526915160000016, 33.40987383 ], [ 130.526881120000013, 33.41008967 ], [ 130.52689228, 33.4105755 ], [ 130.526935470000012, 33.4111152 ], [ 130.526888140000011, 33.41119489 ], [ 130.526643580000012, 33.41129116 ], [ 130.526501610000025, 33.41129116 ], [ 130.52536178, 33.41119156 ], [ 130.52504234, 33.41124136 ], [ 130.525, 33.41125286 ], [ 130.524553280000021, 33.4113742 ], [ 130.524289440000018, 33.41139664 ], [ 130.524107, 33.41136531 ], [ 130.52361166, 33.41129249 ], [ 130.52338839, 33.411265 ], [ 130.52323202, 33.41124933 ], [ 130.523105140000013, 33.41125564 ], [ 130.52307536, 33.41116787 ], [ 130.522881, 33.41119156 ], [ 130.522576470000018, 33.41121803 ], [ 130.52237917, 33.41120861 ], [ 130.522193, 33.41118356 ], [ 130.522133450000013, 33.41132147 ], [ 130.52204783000002, 33.41134025 ], [ 130.52190633, 33.41132772 ], [ 130.52160949, 33.41128975 ], [ 130.521344160000012, 33.41127444 ], [ 130.52113141000001, 33.4113305 ], [ 130.520923260000018, 33.41149695 ], [ 130.520338760000016, 33.4115032 ], [ 130.52001114, 33.41150947 ], [ 130.519891530000024, 33.41141078 ], [ 130.5198363, 33.41134769 ], [ 130.519603610000019, 33.41132111 ], [ 130.519363020000014, 33.4112348 ], [ 130.51916978, 33.41117169 ], [ 130.519000190000014, 33.41120825 ], [ 130.518960780000015, 33.4114108 ], [ 130.518925280000019, 33.41148383 ], [ 130.519027810000011, 33.41167311 ], [ 130.51915008, 33.41187567 ], [ 130.519173750000022, 33.4120118 ], [ 130.51910669, 33.41210478 ], [ 130.51897258, 33.41219111 ], [ 130.518751720000012, 33.41221103 ], [ 130.518260030000022, 33.41218341 ], [ 130.51805506, 33.41225233 ], [ 130.517746, 33.41222097 ], [ 130.51747075, 33.41221161 ], [ 130.51723992, 33.4121928 ], [ 130.51725829, 33.41214438 ], [ 130.51732555000001, 33.41196713 ], [ 130.51744553, 33.41186139 ], [ 130.517567250000013, 33.41170914 ], [ 130.517675059999988, 33.41150711 ], [ 130.51771331, 33.41135192 ], [ 130.517671580000012, 33.41112064 ], [ 130.517633330000024, 33.41100059 ], [ 130.517567250000013, 33.41085711 ], [ 130.51749073000002, 33.41072244 ], [ 130.517440640000018, 33.41064444 ], [ 130.517449, 33.41055847 ], [ 130.51748156, 33.41012103 ], [ 130.51666667, 33.41013787 ], [ 130.514397780000024, 33.41018472 ], [ 130.51389817, 33.41016905 ], [ 130.51365472, 33.41012805 ], [ 130.51331389, 33.41005487 ], [ 130.51315044, 33.41000803 ], [ 130.512900050000013, 33.40992016 ], [ 130.51277484, 33.40987041 ], [ 130.510883670000027, 33.40912441 ], [ 130.51047603, 33.40893933 ], [ 130.51027302, 33.40883605 ], [ 130.51011294, 33.408695 ], [ 130.5100065, 33.40854697 ], [ 130.509886280000018, 33.40833333 ], [ 130.50988131, 33.40832447 ], [ 130.509832870000025, 33.40817964 ], [ 130.509801220000014, 33.40801383 ], [ 130.509540969999989, 33.40810264 ], [ 130.509034550000024, 33.40805528 ], [ 130.508485940000014, 33.40802864 ], [ 130.50852817, 33.40813523 ], [ 130.50850786, 33.40819028 ], [ 130.50851058, 33.4082655 ], [ 130.50857328, 33.40833333 ], [ 130.50857944, 33.40834 ], [ 130.508711020000021, 33.40838689 ], [ 130.508831750000013, 33.40843636 ], [ 130.50870667, 33.40846639 ], [ 130.50859895, 33.40849708 ], [ 130.5084718, 33.40855956 ], [ 130.508333330000028, 33.40862313 ], [ 130.50831781, 33.40863028 ], [ 130.50817978, 33.40866564 ], [ 130.507951750000018, 33.40870775 ], [ 130.507807720000017, 33.40870605 ], [ 130.507632780000023, 33.40867639 ], [ 130.506840830000016, 33.40833333 ], [ 130.50629973, 33.40809889 ], [ 130.50608499, 33.40804361 ], [ 130.505883610000012, 33.40801361 ], [ 130.505548050000016, 33.40796361 ], [ 130.505190270000014, 33.40761333 ], [ 130.504745840000027, 33.40699056 ], [ 130.50451333, 33.40688028 ], [ 130.504179170000015, 33.40681028 ], [ 130.502765550000021, 33.40632 ], [ 130.50240166, 33.40616 ], [ 130.50207973, 33.40582972 ], [ 130.501831950000025, 33.40567695 ], [ 130.50097306, 33.40570723 ], [ 130.50041250000001, 33.40581222 ], [ 130.5, 33.406064 ], [ 130.49982222, 33.40617249 ], [ 130.499362780000013, 33.40634749 ], [ 130.49903472, 33.40633223 ], [ 130.498757500000011, 33.4065 ], [ 130.49803555, 33.40726528 ], [ 130.49766861, 33.40764056 ], [ 130.497303610000017, 33.40807111 ], [ 130.4971825, 33.40823139 ], [ 130.497063640000022, 33.40833333 ], [ 130.496977500000014, 33.40840722 ], [ 130.496867300000019, 33.40846727 ], [ 130.49679805, 33.408505 ], [ 130.4966358, 33.40851213 ], [ 130.4965325, 33.40851667 ], [ 130.49639278, 33.40850472 ], [ 130.496183060000021, 33.40845389 ], [ 130.496171660000016, 33.40845583 ], [ 130.495996670000011, 33.40848528 ], [ 130.49561, 33.40860639 ], [ 130.49548027000003, 33.40862056 ], [ 130.495181390000027, 33.40865333 ], [ 130.49499499, 33.40879 ], [ 130.49490667, 33.40889167 ], [ 130.49484361, 33.40913777 ], [ 130.494834990000015, 33.40922861 ], [ 130.49482973, 33.40928249 ], [ 130.494755280000021, 33.40933333 ], [ 130.49452222, 33.40934111 ], [ 130.49430333, 33.40936861 ], [ 130.49407973000001, 33.40943111 ], [ 130.493692780000032, 33.40961444 ], [ 130.49344111000002, 33.40965361 ], [ 130.49327968, 33.40965832 ], [ 130.49304056, 33.40966528 ], [ 130.49283917, 33.40962056 ], [ 130.492723610000013, 33.409595 ], [ 130.49259333, 33.40969278 ], [ 130.492548880000015, 33.40982556 ], [ 130.492493060000015, 33.41000528 ], [ 130.492488330000015, 33.41021639 ], [ 130.49242333, 33.41050167 ], [ 130.492299730000013, 33.41087278 ], [ 130.492220560000021, 33.41103305 ], [ 130.49215528000002, 33.41122861 ], [ 130.491871120000013, 33.41142 ], [ 130.49166667, 33.41142544 ], [ 130.49143333, 33.41143167 ], [ 130.49109612, 33.4114671 ], [ 130.491060560000022, 33.41147083 ], [ 130.49084611, 33.41155695 ], [ 130.490711120000014, 33.41167028 ], [ 130.49060080000001, 33.41178232 ], [ 130.49048056, 33.41190444 ], [ 130.490149730000013, 33.41223277 ], [ 130.49009166, 33.41238916 ], [ 130.490084450000012, 33.41269 ], [ 130.49018694, 33.41312389 ], [ 130.490189440000023, 33.41340889 ], [ 130.48997361, 33.41351702 ], [ 130.48990056, 33.41355361 ], [ 130.48977, 33.41357722 ], [ 130.489604, 33.41348878 ], [ 130.489579170000013, 33.41347556 ], [ 130.489448880000026, 33.41341833 ], [ 130.489206390000021, 33.41331139 ], [ 130.489135620000013, 33.41330215 ], [ 130.48893611, 33.41327611 ], [ 130.488745280000018, 33.41328389 ], [ 130.48853083000003, 33.41329944 ], [ 130.48827917, 33.4134325 ], [ 130.488046390000022, 33.41371 ], [ 130.48793559, 33.41384696 ], [ 130.487815840000025, 33.413995 ], [ 130.48760139, 33.41417083 ], [ 130.48753166, 33.41429611 ], [ 130.487513370000016, 33.41435599 ], [ 130.48747555, 33.41447972 ], [ 130.487426390000024, 33.41460861 ], [ 130.487198330000012, 33.41469083 ], [ 130.487044450000013, 33.41481583 ], [ 130.486941950000016, 33.41494444 ], [ 130.486819880000013, 33.4151496 ], [ 130.486776670000012, 33.41522223 ], [ 130.48671611, 33.41538639 ], [ 130.48674639, 33.41555444 ], [ 130.486782420000026, 33.4157158 ], [ 130.486802220000015, 33.41580444 ], [ 130.486788330000024, 33.41593749 ], [ 130.486745840000026, 33.41600861 ], [ 130.486705380000018, 33.41607649 ], [ 130.486650830000031, 33.41616805 ], [ 130.48658555, 33.4162775 ], [ 130.48657639000001, 33.41641805 ], [ 130.48657750000001, 33.41654611 ], [ 130.48657861, 33.41666667 ], [ 130.48657861, 33.41666805 ], [ 130.48648083, 33.41715667 ], [ 130.486375840000022, 33.41751223 ], [ 130.485889440000022, 33.41779223 ], [ 130.48566306, 33.41792249 ], [ 130.48529973, 33.41802028 ], [ 130.48500166, 33.41818056 ], [ 130.48477112, 33.41831723 ], [ 130.484491390000017, 33.41857916 ], [ 130.484258610000012, 33.41882139 ], [ 130.484060560000017, 33.41908695 ], [ 130.48404639, 33.41923167 ], [ 130.484060270000015, 33.41954028 ], [ 130.48399973, 33.41978667 ], [ 130.48396306, 33.41997722 ], [ 130.48394805, 33.42013195 ], [ 130.48390778000001, 33.42016556 ], [ 130.483752780000032, 33.42017528 ], [ 130.483511390000018, 33.42013667 ], [ 130.483333330000022, 33.42008564 ], [ 130.48327584, 33.42006916 ], [ 130.48296, 33.42007861 ], [ 130.48249166, 33.42018695 ], [ 130.48174472, 33.42043723 ], [ 130.48115306, 33.42072611 ], [ 130.480951950000019, 33.42079833 ], [ 130.480317219999989, 33.42092083 ], [ 130.480041390000025, 33.42097361 ], [ 130.47981166, 33.42105556 ], [ 130.47942083, 33.42127223 ], [ 130.479333890000021, 33.42132028 ], [ 130.47865973, 33.42169305 ], [ 130.47855056, 33.42179416 ], [ 130.478458610000018, 33.42193361 ], [ 130.478453060000021, 33.42205416 ], [ 130.478556390000023, 33.42233805 ], [ 130.478599440000011, 33.42252833 ], [ 130.478588050000013, 33.42266777 ], [ 130.478513330000027, 33.42275444 ], [ 130.478363890000026, 33.42294223 ], [ 130.47823166, 33.42311056 ], [ 130.478108330000026, 33.423445 ], [ 130.478085280000016, 33.42363749 ], [ 130.478038880000014, 33.42379639 ], [ 130.477895280000013, 33.42390695 ], [ 130.477717219999988, 33.42395528 ], [ 130.47722611, 33.42393361 ], [ 130.47698472, 33.42397195 ], [ 130.476841120000017, 33.42402972 ], [ 130.476783610000012, 33.42412611 ], [ 130.4766975, 33.42440028 ], [ 130.47663445, 33.42444833 ], [ 130.47661722, 33.42445111 ], [ 130.476548050000019, 33.42446278 ], [ 130.4761, 33.42441472 ], [ 130.475152220000012, 33.42428472 ], [ 130.475, 33.42427964 ], [ 130.47450584, 33.42426305 ], [ 130.4744025, 33.42429195 ], [ 130.47432778000001, 33.42438805 ], [ 130.47418973, 33.42466249 ], [ 130.474023330000023, 33.42486916 ], [ 130.47383197000002, 33.425 ], [ 130.47349195000001, 33.4252325 ], [ 130.473290830000025, 33.42544444 ], [ 130.47307805, 33.42557444 ], [ 130.472153330000026, 33.42580028 ], [ 130.47186499, 33.42586083 ], [ 130.471271390000027, 33.42598556 ], [ 130.470898050000017, 33.426005 ], [ 130.47036667, 33.42590139 ], [ 130.47009083, 33.42586305 ], [ 130.46984361, 33.4258775 ], [ 130.469590830000016, 33.42593028 ], [ 130.46938416, 33.42590639 ], [ 130.469099730000011, 33.42575944 ], [ 130.468967500000019, 33.42571583 ], [ 130.46885278000002, 33.42572556 ], [ 130.46875499, 33.42578333 ], [ 130.468542500000012, 33.42606722 ], [ 130.46825805, 33.42675805 ], [ 130.46789333000001, 33.42720305 ], [ 130.467778330000016, 33.42729916 ], [ 130.46764056, 33.42734749 ], [ 130.46741083, 33.42737639 ], [ 130.466686940000017, 33.42740528 ], [ 130.46666667, 33.42740941 ], [ 130.466215840000018, 33.42750139 ], [ 130.465302220000012, 33.42776583 ], [ 130.46513, 33.42778528 ], [ 130.465014990000014, 33.42775639 ], [ 130.464819730000016, 33.42765028 ], [ 130.46461278000001, 33.42754444 ], [ 130.464279730000015, 33.42749639 ], [ 130.463888880000013, 33.42751556 ], [ 130.46285805, 33.42768639 ], [ 130.462501950000018, 33.4277825 ], [ 130.462372500000015, 33.42792444 ], [ 130.46283195, 33.42795333 ], [ 130.463073330000014, 33.42802083 ], [ 130.463400830000012, 33.42820361 ], [ 130.463705280000028, 33.42837695 ], [ 130.464474990000014, 33.42877195 ], [ 130.46506112, 33.42910889 ], [ 130.46553222, 33.42954222 ], [ 130.46591694, 33.42988389 ], [ 130.466422500000022, 33.43016305 ], [ 130.46666667, 33.430349 ], [ 130.466675280000032, 33.43035556 ], [ 130.46681333, 33.43058667 ], [ 130.46703416, 33.43105083 ], [ 130.467235280000011, 33.43130111 ], [ 130.468088330000029, 33.43196305 ], [ 130.468206940000016, 33.43211028 ], [ 130.46843306, 33.43239139 ], [ 130.468861120000014, 33.43284167 ], [ 130.469067780000017, 33.43299083 ], [ 130.46980611, 33.43325305 ], [ 130.470127780000013, 33.43333028 ], [ 130.47015776, 33.43333333 ], [ 130.4705525, 33.43337361 ], [ 130.47063639000001, 33.43338223 ], [ 130.47076278000003, 33.43339528 ], [ 130.47097499, 33.433535 ], [ 130.47139139, 33.43406667 ], [ 130.47166139, 33.43427833 ], [ 130.47185694, 33.43435056 ], [ 130.472428330000014, 33.43443028 ], [ 130.47278472, 33.43453139 ], [ 130.47321833, 33.43471667 ], [ 130.473637780000018, 33.43495249 ], [ 130.474137500000012, 33.43527472 ], [ 130.47437611, 33.435465 ], [ 130.47457083, 33.43583278 ], [ 130.47474667, 33.43616528 ], [ 130.474978890000017, 33.43662028 ], [ 130.475, 33.43664205 ], [ 130.47537528, 33.43702944 ], [ 130.475395580000026, 33.43704972 ], [ 130.4757975, 33.43745056 ], [ 130.47617112, 33.43807639 ], [ 130.47633195, 33.43825916 ], [ 130.476593330000014, 33.43846389 ], [ 130.4768, 33.43852639 ], [ 130.477001120000011, 33.43852167 ], [ 130.47716778000003, 33.43839167 ], [ 130.47737472, 33.43830972 ], [ 130.477460830000012, 33.43822805 ], [ 130.47767056, 33.43774916 ], [ 130.47775667, 33.43759972 ], [ 130.47787166, 33.43747944 ], [ 130.47788445, 33.43747472 ], [ 130.47804973, 33.43741223 ], [ 130.478233610000018, 33.43743611 ], [ 130.478693060000012, 33.43748416 ], [ 130.4789575, 33.43740723 ], [ 130.47910667, 33.43729667 ], [ 130.47918139, 33.43717167 ], [ 130.479248330000019, 33.43704028 ], [ 130.47945445000002, 33.436635 ], [ 130.47964389, 33.43644723 ], [ 130.480071950000024, 33.43612723 ], [ 130.48025, 33.43611749 ], [ 130.48037639, 33.43619444 ], [ 130.48051722, 33.43639416 ], [ 130.480586110000019, 33.43650028 ], [ 130.48066083, 33.43656749 ], [ 130.480907780000024, 33.43665916 ], [ 130.481100700000013, 33.43674713 ], [ 130.481424990000022, 33.436895 ], [ 130.48171222, 33.43713083 ], [ 130.48215166, 33.43752305 ], [ 130.482306670000014, 33.43762889 ], [ 130.48254222, 33.43768195 ], [ 130.483333330000022, 33.43767978 ], [ 130.483452780000022, 33.43767944 ], [ 130.484101950000024, 33.43772777 ], [ 130.484400830000027, 33.43781916 ], [ 130.48468222, 33.43795861 ], [ 130.484820270000029, 33.43801167 ], [ 130.48494667, 33.43802611 ], [ 130.48528278, 33.43799 ], [ 130.48553555, 33.43800916 ], [ 130.485753610000017, 33.43807667 ], [ 130.486092500000012, 33.43833667 ], [ 130.48680195, 33.43885416 ], [ 130.48681389, 33.43886556 ], [ 130.48694555, 33.43898889 ], [ 130.487008880000019, 33.43914277 ], [ 130.48708056000001, 33.43992972 ], [ 130.487149440000024, 33.44018 ], [ 130.48728166, 33.44029056 ], [ 130.487534450000027, 33.44036777 ], [ 130.48779861, 33.44040139 ], [ 130.4880975, 33.44037249 ], [ 130.48833306, 33.44027611 ], [ 130.48881555, 33.44001167 ], [ 130.489045280000028, 33.43996361 ], [ 130.48920861000002, 33.43996472 ], [ 130.48939306, 33.43996611 ], [ 130.48979499, 33.43994195 ], [ 130.48991611, 33.43991723 ], [ 130.490099440000023, 33.43987944 ], [ 130.490587780000027, 33.43973 ], [ 130.49080056, 33.43965305 ], [ 130.49090973, 33.43965305 ], [ 130.491096670000019, 33.43970111 ], [ 130.49111639, 33.43970611 ], [ 130.491219730000012, 33.43980723 ], [ 130.49136056, 33.44009833 ], [ 130.491400560000017, 33.44035361 ], [ 130.491503890000018, 33.44054611 ], [ 130.49166667, 33.44070436 ], [ 130.491753890000012, 33.44078916 ], [ 130.49231389000002, 33.44121972 ], [ 130.492558050000014, 33.44143389 ], [ 130.492713330000015, 33.44163611 ], [ 130.49270895, 33.44166667 ], [ 130.49269611, 33.44175639 ], [ 130.492563890000014, 33.44188167 ], [ 130.492540830000024, 33.44201139 ], [ 130.49267889, 33.44214639 ], [ 130.492833890000014, 33.44223778 ], [ 130.49296611, 33.44225222 ], [ 130.49365555, 33.44220889 ], [ 130.49398861, 33.44223778 ], [ 130.49411555, 33.44225528 ], [ 130.49425, 33.44227389 ], [ 130.494290270000022, 33.44231223 ], [ 130.494178330000011, 33.44264695 ], [ 130.494183890000016, 33.44287305 ], [ 130.49427555, 33.44312333 ], [ 130.494465280000014, 33.44376333 ], [ 130.49455722, 33.44393195 ], [ 130.494718050000017, 33.44412444 ], [ 130.494890270000013, 33.444235 ], [ 130.495005280000015, 33.44427361 ], [ 130.495438880000023, 33.44429528 ], [ 130.495634450000011, 33.44429056 ], [ 130.495674450000024, 33.44433389 ], [ 130.495726390000016, 33.44456972 ], [ 130.4958125, 33.44469972 ], [ 130.49591, 33.44476695 ], [ 130.496820830000019, 33.44490889 ], [ 130.497033330000022, 33.44491389 ], [ 130.497222780000016, 33.44487056 ], [ 130.497344990000016, 33.44483195 ], [ 130.497401950000011, 33.44481389 ], [ 130.49753694, 33.44483833 ], [ 130.497665840000025, 33.44488861 ], [ 130.498229440000017, 33.44507056 ], [ 130.49913805, 33.44508361 ], [ 130.49932694, 33.44504416 ], [ 130.499767500000019, 33.44512278 ], [ 130.5, 33.44522941 ], [ 130.500382780000024, 33.445405 ], [ 130.50070445, 33.44552944 ], [ 130.501227780000022, 33.4455375 ], [ 130.501515550000022, 33.44554222 ], [ 130.5019, 33.44567333 ], [ 130.50217973, 33.44588333 ], [ 130.50219361, 33.44604556 ], [ 130.5022075, 33.44620472 ], [ 130.502508050000017, 33.44641444 ], [ 130.50317222000001, 33.44670305 ], [ 130.50338195, 33.44689305 ], [ 130.503535840000012, 33.44692583 ], [ 130.50372472, 33.44689972 ], [ 130.503920560000012, 33.44682749 ], [ 130.5044125, 33.44657222 ], [ 130.504629170000015, 33.44651249 ], [ 130.50476917, 33.44647389 ], [ 130.505048610000017, 33.44644749 ], [ 130.505300560000023, 33.44646056 ], [ 130.505636110000012, 33.44638195 ], [ 130.505880830000024, 33.44625083 ], [ 130.505992780000014, 33.4461 ], [ 130.50612555, 33.44579833 ], [ 130.506083610000019, 33.44537861 ], [ 130.506628880000022, 33.44498528 ], [ 130.50713944, 33.44463777 ], [ 130.50750306, 33.44440167 ], [ 130.50771278000002, 33.44421833 ], [ 130.50774056, 33.44415944 ], [ 130.507824450000015, 33.44398223 ], [ 130.507943330000018, 33.44383139 ], [ 130.50821611, 33.44374611 ], [ 130.508333330000028, 33.4437365 ], [ 130.50865306, 33.44371028 ], [ 130.50869861000001, 33.44370667 ], [ 130.50938389, 33.44366749 ], [ 130.50963166, 33.44379861 ], [ 130.509806390000023, 33.44423111 ], [ 130.50989, 33.44449333 ], [ 130.50990416, 33.44476889 ], [ 130.510197780000027, 33.44535889 ], [ 130.51015584000001, 33.44583778 ], [ 130.51022584, 33.44594249 ], [ 130.5104775, 33.44609333 ], [ 130.510757219999988, 33.44619167 ], [ 130.51111361, 33.44640833 ], [ 130.51130917, 33.44659195 ], [ 130.51143973, 33.44689639 ], [ 130.511453890000013, 33.4472375 ], [ 130.51139778000001, 33.44756528 ], [ 130.511306940000026, 33.44779444 ], [ 130.51113917, 33.44814222 ], [ 130.51110416, 33.44839139 ], [ 130.51124389, 33.44871916 ], [ 130.51113222, 33.44911278 ], [ 130.511467780000032, 33.44919139 ], [ 130.5122925, 33.44942083 ], [ 130.51246027000002, 33.44944695 ], [ 130.51260027, 33.44934861 ], [ 130.512830830000013, 33.44906667 ], [ 130.513187500000015, 33.44877195 ], [ 130.51339667, 33.44869028 ], [ 130.51377499, 33.44854249 ], [ 130.51487973, 33.44815556 ], [ 130.515564720000015, 33.44788667 ], [ 130.516116940000018, 33.44777528 ], [ 130.516445550000014, 33.44749333 ], [ 130.51666667, 33.44716705 ], [ 130.51697, 33.44671944 ], [ 130.51730555, 33.44609028 ], [ 130.51758805, 33.44576472 ], [ 130.518000560000019, 33.44576472 ], [ 130.518294160000011, 33.44581722 ], [ 130.51882555, 33.44588278 ], [ 130.51952472, 33.44598749 ], [ 130.519930270000032, 33.44604 ], [ 130.520351190000014, 33.44605897 ], [ 130.52065722, 33.44607277 ], [ 130.521027780000026, 33.4460925 ], [ 130.52160611, 33.44605889 ], [ 130.52181805, 33.44604667 ], [ 130.52223056, 33.44592195 ], [ 130.522727780000025, 33.44577083 ], [ 130.523002780000013, 33.44568695 ], [ 130.52328917, 33.44556223 ], [ 130.52382750000001, 33.44497223 ], [ 130.52424, 33.44465083 ], [ 130.52473667000001, 33.44431639 ], [ 130.525, 33.44424292 ], [ 130.52506528, 33.44422472 ], [ 130.52538694, 33.44415916 ], [ 130.525883330000028, 33.44416556 ], [ 130.52621195, 33.44418528 ], [ 130.52706472, 33.44387695 ], [ 130.527302500000019, 33.44375249 ], [ 130.52782278, 33.44326305 ], [ 130.527914620000018, 33.44313589 ], [ 130.5282075, 33.44304028 ], [ 130.528308330000016, 33.44301167 ], [ 130.52862611, 33.44292222 ], [ 130.52863111000002, 33.44292056 ], [ 130.52885778000001, 33.44285667 ], [ 130.52902416, 33.44281139 ], [ 130.52922139, 33.44275805 ], [ 130.52953555000002, 33.44259416 ], [ 130.529578610000016, 33.44249305 ], [ 130.52966139, 33.44229916 ], [ 130.529773330000012, 33.44205 ], [ 130.53028258, 33.44166667 ], [ 130.53030472, 33.44165 ], [ 130.53048139, 33.44156611 ], [ 130.53077306, 33.44142778 ], [ 130.53087112, 33.44138111 ], [ 130.53110555, 33.44140749 ], [ 130.53122306, 33.44142056 ], [ 130.53145973, 33.44144695 ], [ 130.531685840000023, 33.44147249 ], [ 130.53180805, 33.44148611 ], [ 130.53229722, 33.44155805 ], [ 130.53242667, 33.44155695 ], [ 130.532691390000025, 33.44155444 ], [ 130.53297889000001, 33.44155167 ], [ 130.533192219999989, 33.44157833 ], [ 130.533244450000012, 33.44158472 ], [ 130.53333333, 33.44155956 ], [ 130.533684990000012, 33.44146 ], [ 130.533712220000012, 33.44144111 ], [ 130.534206940000018, 33.44109472 ], [ 130.53435667, 33.44099972 ], [ 130.53445869, 33.44093675 ], [ 130.534407500000015, 33.44075933 ], [ 130.53457008, 33.44068077 ], [ 130.53497647, 33.44050589 ], [ 130.534838, 33.44017641 ], [ 130.53486508, 33.43999647 ], [ 130.535735840000029, 33.43977778 ], [ 130.53617445, 33.43927028 ], [ 130.53647075, 33.43898195 ], [ 130.536928610000018, 33.43839736 ], [ 130.53700222, 33.43826583 ], [ 130.536491950000027, 33.43800361 ], [ 130.53596056, 33.43772167 ], [ 130.535478330000018, 33.43753833 ], [ 130.53533139000001, 33.43737416 ], [ 130.53533139000001, 33.43690222 ], [ 130.535387500000013, 33.43660056 ], [ 130.53574389000002, 33.43634472 ], [ 130.53593973, 33.43616778 ], [ 130.53601667, 33.43588583 ], [ 130.535815840000026, 33.43524139 ], [ 130.53562944, 33.43501 ], [ 130.53557805, 33.43494639 ], [ 130.535207500000013, 33.43449416 ], [ 130.53515139000001, 33.43438916 ], [ 130.535221950000022, 33.43417028 ], [ 130.535375280000011, 33.43369416 ], [ 130.53552195, 33.43339249 ], [ 130.53556083, 33.43333333 ], [ 130.53606056000001, 33.43257277 ], [ 130.536207500000017, 33.43228861 ], [ 130.53629805, 33.43211361 ], [ 130.536521390000019, 33.43156667 ], [ 130.53661917, 33.43108139 ], [ 130.5367, 33.43061805 ], [ 130.536758890000016, 33.43028139 ], [ 130.53682022000001, 33.43010558 ], [ 130.5368636, 33.4299812 ], [ 130.536877780000026, 33.42994056 ], [ 130.53699667, 33.429665 ], [ 130.537010830000014, 33.42963333 ], [ 130.537045280000029, 33.42955556 ], [ 130.537097780000011, 33.4294375 ], [ 130.5371169, 33.42939447 ], [ 130.537206390000023, 33.42919305 ], [ 130.537248330000011, 33.42847833 ], [ 130.53727405, 33.42791981 ], [ 130.537296390000023, 33.42743472 ], [ 130.53730472, 33.42725583 ], [ 130.537367780000011, 33.42629861 ], [ 130.537500560000012, 33.42583305 ], [ 130.537752220000016, 33.42542028 ], [ 130.5377575, 33.42541416 ], [ 130.53799722, 33.425145 ], [ 130.538202580000018, 33.425 ], [ 130.538256940000025, 33.42496167 ], [ 130.53857499, 33.42473695 ], [ 130.539218330000011, 33.42385195 ], [ 130.53961222, 33.42335833 ], [ 130.54001528, 33.42285528 ], [ 130.54044195, 33.42226528 ], [ 130.54086139, 33.42157667 ], [ 130.54106416, 33.42122277 ], [ 130.54109416, 33.42078528 ], [ 130.54109917, 33.42062611 ], [ 130.541007780000029, 33.41997722 ], [ 130.54100306, 33.41973056 ], [ 130.54113584000001, 33.41877611 ], [ 130.54115722, 33.41862444 ], [ 130.54115722, 33.41862416 ], [ 130.54116944, 33.41853639 ], [ 130.541182500000019, 33.41844139 ], [ 130.541188330000011, 33.41840056 ], [ 130.541288150000014, 33.41810875 ], [ 130.54128603, 33.41757786 ], [ 130.54130090000001, 33.41709703 ], [ 130.541283060000012, 33.41666667 ], [ 130.54127964, 33.416584 ], [ 130.541189440000011, 33.4159 ], [ 130.541172780000011, 33.41436056 ], [ 130.541162440000022, 33.41342552 ], [ 130.54115973, 33.41318056 ], [ 130.541335280000027, 33.41037583 ], [ 130.54141472, 33.40910556 ], [ 130.541453800000028, 33.40833333 ], [ 130.54150944, 33.40723361 ], [ 130.541523610000013, 33.40689195 ], [ 130.54156222, 33.40597 ], [ 130.541562559999988, 33.40596142 ], [ 130.54156445000001, 33.40591416 ] ] ] ] } }
]
}
