{
"type": "FeatureCollection",
"name": "大宰府A",
"crs": { "type": "name", "properties": { "name": "urn:ogc:def:crs:EPSG::4612" } },
"features": [
{ "type": "Feature", "properties": { "KEY_CODE": "402210004101", "PREF": "40", "CITY": "221", "K_AREA": "007000180", "S_AREA": "0004101", "PREF_NAME": "福岡県", "CITY_NAME": "太宰府市", "S_NAME": "白川", "KIGO_E": null, "HCODE": 8101, "AREA": 5928.508, "PERIMETER": 400.36, "KIHON1": "0070", "DUMMY1": "-", "KIHON2": "00", "KIHON3": "180", "C1": 2, "C2": 4, "DUMMY2": "-", "C3": 1, "DUMMY3": "-", "C4": 1, "KIGO_A": null, "KIGO_D": null, "N_KEN": null, "N_CITY": null, "N_C1": 0, "KIGO_I": null, "KEYCODE1": "2210004-1-01", "JINKO": 35, "SETAI": 18, "KEN_OLD": "40", "CITY_OLD": "221", "X_CODE": 130.524931, "Y_CODE": 33.517891, "KCODE1": "0070-00180", "CCODE1": "4-1- 1" }, "geometry": { "type": "MultiPolygon", "coordinates": [ [ [ [ 130.529979501152184, 33.505262077275177 ], [ 130.52989449354061, 33.505346748404271 ], [ 130.529860235432238, 33.505423122781025 ], [ 130.529841469552338, 33.505457039961037 ], [ 130.529815925433269, 33.505492378448601 ], [ 130.529797124399408, 33.505524887694591 ], [ 130.529777536539029, 33.505555282279374 ], [ 130.529757667845388, 33.505582926806056 ], [ 130.529659117169928, 33.505559062353562 ], [ 130.529578082964264, 33.505530436240775 ], [ 130.529586654746339, 33.505507785924642 ], [ 130.529616959620938, 33.505416041414591 ], [ 130.52962448274036, 33.5053931736038 ], [ 130.529575467488598, 33.505391580356395 ], [ 130.529500849462949, 33.505428143629672 ], [ 130.52941184979656, 33.505465352627716 ], [ 130.529338865252981, 33.505518897494809 ], [ 130.529252502652071, 33.505542663037403 ], [ 130.528852964527232, 33.505617657034286 ], [ 130.528675166835711, 33.505662316841637 ], [ 130.528635869766788, 33.505737262920725 ], [ 130.528604259946093, 33.505790258744405 ], [ 130.528500857296592, 33.505839460874483 ], [ 130.528424061995736, 33.505851074521928 ], [ 130.528382483345666, 33.505834749655349 ], [ 130.52828622163122, 33.505807477302142 ], [ 130.528181274158015, 33.505831173432824 ], [ 130.528110135013861, 33.505846471412426 ], [ 130.528042332974508, 33.505874567697248 ], [ 130.527977919925632, 33.505905496763347 ], [ 130.527909980080295, 33.505959058215808 ], [ 130.527837040057932, 33.506004113759168 ], [ 130.527727508518012, 33.506082349917392 ], [ 130.527591948750825, 33.506129984808268 ], [ 130.527527828142695, 33.506107059215381 ], [ 130.527390907675425, 33.506095234498837 ], [ 130.527169115681374, 33.506142542599832 ], [ 130.526919284107919, 33.506211723215024 ], [ 130.526843106509943, 33.506225628222055 ], [ 130.526763693126441, 33.506208313900238 ], [ 130.52663702436999, 33.506182333202652 ], [ 130.526498457757583, 33.506156305543804 ], [ 130.526356454456845, 33.506151504852127 ], [ 130.526288612507528, 33.506186679706325 ], [ 130.526251218594012, 33.506220527748404 ], [ 130.52622057135008, 33.506258663318349 ], [ 130.526182224164472, 33.506313077015591 ], [ 130.526149848987671, 33.506359694035204 ], [ 130.526105423480857, 33.506441698374381 ], [ 130.525988319189764, 33.506520609179681 ], [ 130.525822315154215, 33.506607223718717 ], [ 130.525791576026222, 33.50662327441875 ], [ 130.525698442743135, 33.506647011704366 ], [ 130.525634186446268, 33.506641097009116 ], [ 130.525474814538825, 33.506629113204404 ], [ 130.525324392048702, 33.506641608120013 ], [ 130.525104419758605, 33.506670464564408 ], [ 130.524758534729159, 33.50672771921316 ], [ 130.524452985271211, 33.506782487816999 ], [ 130.524175205367584, 33.506856522592251 ], [ 130.523863521674684, 33.506948847446957 ], [ 130.52365428571261, 33.507020993119241 ], [ 130.523513433959522, 33.507105482706486 ], [ 130.523447360440287, 33.507132140032915 ], [ 130.523516013701908, 33.507387622855575 ], [ 130.523768171905232, 33.508325817123804 ], [ 130.523772828088084, 33.508343235287057 ], [ 130.523268110879684, 33.508672605825488 ], [ 130.522903025137026, 33.508910086976911 ], [ 130.522800202829558, 33.508982427523534 ], [ 130.522738202461255, 33.509025127288375 ], [ 130.522425567252753, 33.509227829407521 ], [ 130.521991841606393, 33.509513578366409 ], [ 130.521980156567992, 33.509520509153269 ], [ 130.521848078237952, 33.509598723079442 ], [ 130.521831074309148, 33.509609470996011 ], [ 130.521533757197801, 33.509770843441174 ], [ 130.521324545140857, 33.509875248476121 ], [ 130.521206464108246, 33.509938757927138 ], [ 130.520874991283677, 33.510094362285663 ], [ 130.520511671307816, 33.510268193822945 ], [ 130.520175571165964, 33.51041609939 ], [ 130.520041494206311, 33.510452003283234 ], [ 130.519846252702024, 33.510523419447125 ], [ 130.519769638551196, 33.51054707440565 ], [ 130.519486260618919, 33.510634389496339 ], [ 130.519352533256722, 33.510675540439706 ], [ 130.51889384114159, 33.510811592598529 ], [ 130.518421752280659, 33.510921668140966 ], [ 130.518143760152498, 33.510977652570915 ], [ 130.517904479714844, 33.511020717798743 ], [ 130.517494893086791, 33.511081542975319 ], [ 130.517036234957118, 33.511134606298874 ], [ 130.516544883515166, 33.511168906679366 ], [ 130.516591243396618, 33.511483480371155 ], [ 130.517220672838477, 33.511420481221634 ], [ 130.517773649980057, 33.511359083482333 ], [ 130.518198230959939, 33.511316841279985 ], [ 130.518575539771149, 33.511291990077275 ], [ 130.519031425623353, 33.511276177684692 ], [ 130.519492478656787, 33.511269189128022 ], [ 130.519905785961498, 33.511281105117732 ], [ 130.520412929750734, 33.511288167978314 ], [ 130.520816596094107, 33.511310081026323 ], [ 130.521109677068949, 33.511324453425075 ], [ 130.521457453210189, 33.511340056383126 ], [ 130.521614291784147, 33.511347809563865 ], [ 130.521898730181448, 33.511381482814109 ], [ 130.522132125883104, 33.511406858282072 ], [ 130.522505119937819, 33.511478559159301 ], [ 130.52267031037951, 33.51151997974884 ], [ 130.523027446101224, 33.511600809360147 ], [ 130.523316484193799, 33.51168546176919 ], [ 130.523533813046697, 33.511750467746381 ], [ 130.523899223662909, 33.511879227882595 ], [ 130.52437245972385, 33.512082752216358 ], [ 130.524671058447723, 33.512195969749939 ], [ 130.52496363001444, 33.512304090479567 ], [ 130.525075230637981, 33.512357490113146 ], [ 130.525134606110498, 33.512395403667348 ], [ 130.525197423995763, 33.512473062212976 ], [ 130.525237501528466, 33.512588003381282 ], [ 130.525260594131424, 33.512671463721311 ], [ 130.525280871596067, 33.512800982512758 ], [ 130.525276566267991, 33.513112542427237 ], [ 130.525250001299639, 33.513658810230794 ], [ 130.524692028958782, 33.513663270000215 ], [ 130.524736956712161, 33.514554285746264 ], [ 130.524743792099457, 33.514765928139141 ], [ 130.524759360450332, 33.51524994178444 ], [ 130.524774363389838, 33.515375072376131 ], [ 130.524806209347332, 33.515781097549201 ], [ 130.524841786788272, 33.51622774550259 ], [ 130.524885144753966, 33.516442942512391 ], [ 130.524901696070629, 33.516523102812961 ], [ 130.524903896285338, 33.516844584238321 ], [ 130.524876724271422, 33.517262465051473 ], [ 130.52484930713743, 33.517486162056628 ], [ 130.524771384827659, 33.51784132972459 ], [ 130.524341986879108, 33.51782898374902 ], [ 130.524075284535627, 33.517808911002142 ], [ 130.523858924082248, 33.518203032512396 ], [ 130.523990159092648, 33.51872788719222 ], [ 130.524028297244882, 33.518943805796802 ], [ 130.524017494677025, 33.518943199887993 ], [ 130.524043427753298, 33.518991589800834 ], [ 130.524079723742375, 33.519059741016655 ], [ 130.52401929830063, 33.51909022578895 ], [ 130.524024350930262, 33.51912754440599 ], [ 130.52406299040095, 33.519243995457622 ], [ 130.524054713736206, 33.51932733615407 ], [ 130.524056697720454, 33.519441463450228 ], [ 130.524142208229023, 33.519615118347765 ], [ 130.524079824629126, 33.51976517429086 ], [ 130.523948980734815, 33.519738363017879 ], [ 130.523837944434177, 33.519926625314902 ], [ 130.523745764693587, 33.520011862808325 ], [ 130.523682430812357, 33.520097175851511 ], [ 130.523666417571405, 33.52014977081911 ], [ 130.523637168049163, 33.520230844369244 ], [ 130.523636680265184, 33.520435693509562 ], [ 130.523768668553942, 33.520615336392233 ], [ 130.52375713114489, 33.520810562410325 ], [ 130.524022943368323, 33.520825843828469 ], [ 130.524111864862391, 33.520852528819837 ], [ 130.524156002305261, 33.520925078875372 ], [ 130.524155092514775, 33.521091850482399 ], [ 130.524120707171164, 33.521166354361256 ], [ 130.524070790326903, 33.521274400039715 ], [ 130.524034873394442, 33.521352245215994 ], [ 130.524005637882709, 33.521415567060139 ], [ 130.523953947824594, 33.521501734214098 ], [ 130.523886736273909, 33.521773671012603 ], [ 130.523830832197405, 33.52199993461138 ], [ 130.523814147144492, 33.522067462177603 ], [ 130.523861132663029, 33.522527498500743 ], [ 130.523803859057097, 33.522573279937866 ], [ 130.523723800628403, 33.522640599929034 ], [ 130.523693413621061, 33.522683771445756 ], [ 130.523694329195024, 33.522716213735713 ], [ 130.523712419910879, 33.522753266403448 ], [ 130.523740190254529, 33.522796660233702 ], [ 130.523781769439779, 33.522868037781087 ], [ 130.523811349748371, 33.522972759789361 ], [ 130.523817632269271, 33.523177703528631 ], [ 130.52381236198832, 33.523203431670822 ], [ 130.523766121400996, 33.523338681898856 ], [ 130.523699811584549, 33.523452723355753 ], [ 130.523634815969132, 33.523557224667471 ], [ 130.523550767129365, 33.523677539227961 ], [ 130.523481655188249, 33.523719258795012 ], [ 130.523428334546509, 33.523811195755535 ], [ 130.52341043715586, 33.523854201965605 ], [ 130.523440377255923, 33.523877529358856 ], [ 130.523597117480591, 33.523999431849901 ], [ 130.52367789392693, 33.524039577210551 ], [ 130.523696976058034, 33.524049018637257 ], [ 130.523807020098872, 33.524097305854234 ], [ 130.523909437090538, 33.524148065132302 ], [ 130.523946864463966, 33.524178816519132 ], [ 130.523966019496754, 33.524221261623005 ], [ 130.523959278371962, 33.524269911927952 ], [ 130.52394272331469, 33.524305739190069 ], [ 130.523894987769609, 33.524376176035041 ], [ 130.523822505703009, 33.524480403891616 ], [ 130.523808676905958, 33.524510077726347 ], [ 130.523774443437532, 33.524602826893513 ], [ 130.523766688396478, 33.52464435903709 ], [ 130.52375318276259, 33.524753354822195 ], [ 130.523741643404435, 33.524910433753142 ], [ 130.523737771566232, 33.524964873589042 ], [ 130.523730056554143, 33.525045396472514 ], [ 130.523734105455304, 33.525089579610672 ], [ 130.52375005690385, 33.525125707784319 ], [ 130.523771269277177, 33.525145548352654 ], [ 130.523798290339784, 33.525164671467316 ], [ 130.523817631741252, 33.525172882213013 ], [ 130.523863887989563, 33.525181160076258 ], [ 130.523917725777466, 33.525179569560095 ], [ 130.523978104414141, 33.525166275139675 ], [ 130.524232423233428, 33.525070279954718 ], [ 130.524317743089824, 33.525048662603041 ], [ 130.524449354530674, 33.525013168413466 ], [ 130.524601209403812, 33.524967219453771 ], [ 130.52473029126574, 33.524925376462356 ], [ 130.524826686386263, 33.52486223919059 ], [ 130.524863734749061, 33.524785138939571 ], [ 130.524887181885958, 33.524649799700093 ], [ 130.524898515824447, 33.524429742499073 ], [ 130.524881814036604, 33.52424557402307 ], [ 130.524817845566787, 33.524161713281792 ], [ 130.524754924486757, 33.524117058460789 ], [ 130.524666717843502, 33.524074384671479 ], [ 130.524550669716632, 33.524040058366829 ], [ 130.524444644776338, 33.524018519989411 ], [ 130.524386661836274, 33.524001358007503 ], [ 130.52432625627128, 33.523950337428516 ], [ 130.524308825100292, 33.523907933627143 ], [ 130.524306809886525, 33.523814798199112 ], [ 130.524322688738408, 33.523679431826295 ], [ 130.524325190434723, 33.523451942186938 ], [ 130.524298316609986, 33.523282529671413 ], [ 130.524243586448392, 33.523132062514378 ], [ 130.524179645773984, 33.5230198496442 ], [ 130.524173481507319, 33.523009047658192 ], [ 130.524125999926042, 33.522909400288462 ], [ 130.524117532757145, 33.522842691838484 ], [ 130.524122307156375, 33.522830876624639 ], [ 130.524150825686888, 33.522760293589371 ], [ 130.524252334447084, 33.522684496852406 ], [ 130.524368716333612, 33.522657432338193 ], [ 130.52450762236262, 33.522664303550997 ], [ 130.52463638432468, 33.522688075984149 ], [ 130.524763930419169, 33.522695994349746 ], [ 130.524905561779718, 33.522673252804353 ], [ 130.525032140408314, 33.522627172592209 ], [ 130.525161321475395, 33.522566273192787 ], [ 130.525239987574736, 33.522507329172093 ], [ 130.525351276079107, 33.522488698657988 ], [ 130.52542449677577, 33.52249531639859 ], [ 130.525512482344197, 33.522578176950759 ], [ 130.525567500505218, 33.52268422937366 ], [ 130.52565493308245, 33.522868665504014 ], [ 130.525740052684881, 33.523053412529357 ], [ 130.525841358254524, 33.523270094732389 ], [ 130.526047148179742, 33.523691286453804 ], [ 130.526127426975563, 33.523799548637406 ], [ 130.526213145523229, 33.523835835129951 ], [ 130.526346967887861, 33.523857511815024 ], [ 130.526460613001888, 33.523862171024092 ], [ 130.526525078468239, 33.523854879658145 ], [ 130.526587061491313, 33.523847824277411 ], [ 130.526737681128338, 33.523827367415052 ], [ 130.526802734997631, 33.52391320434598 ], [ 130.526857833800648, 33.524004427614813 ], [ 130.52691053676989, 33.524072323752023 ], [ 130.526963174627781, 33.524144481475325 ], [ 130.526985305488523, 33.524258860647251 ], [ 130.526960758593731, 33.524357179137645 ], [ 130.526920070191238, 33.524407814632319 ], [ 130.526884485637709, 33.524447867147501 ], [ 130.526816038491262, 33.524483603966061 ], [ 130.526747611053366, 33.524523567999069 ], [ 130.526641212285909, 33.524578179257432 ], [ 130.52659038954144, 33.524628775566363 ], [ 130.526569759772229, 33.524702770493484 ], [ 130.526522549868446, 33.524792512041884 ], [ 130.526497058189051, 33.52483263911374 ], [ 130.526436164824503, 33.524878970434784 ], [ 130.526375374935611, 33.524906247614709 ], [ 130.526301915567075, 33.524935590446503 ], [ 130.526241136435402, 33.524960754283079 ], [ 130.526144922870685, 33.52499849674669 ], [ 130.526077649599443, 33.52503466189868 ], [ 130.525956890851802, 33.525054278854505 ], [ 130.525836720734844, 33.525081400194502 ], [ 130.525753672405443, 33.525110810745836 ], [ 130.52567384283779, 33.525143897673729 ], [ 130.525734579728123, 33.525257719008458 ], [ 130.52602967309042, 33.525195795093779 ], [ 130.526055781345832, 33.52518951982767 ], [ 130.526091254657672, 33.525193246885394 ], [ 130.52613111604353, 33.525194314863832 ], [ 130.526175273154138, 33.525186381813953 ], [ 130.526238197150718, 33.525161226177254 ], [ 130.526278894708611, 33.525139859834709 ], [ 130.526425938603552, 33.52501960840484 ], [ 130.527008625214563, 33.525176903972891 ], [ 130.526945514954235, 33.525298391243368 ], [ 130.526974689919427, 33.525308081856515 ], [ 130.526985234934045, 33.525325522630624 ], [ 130.526995055500976, 33.525336971276026 ], [ 130.52698970536764, 33.525361923847129 ], [ 130.526943677694987, 33.525435432737282 ], [ 130.526839908845886, 33.525540069765796 ], [ 130.526694741212026, 33.525678857167691 ], [ 130.526564995095754, 33.525781141008743 ], [ 130.526541884259416, 33.525824093772719 ], [ 130.526538289165472, 33.52584334758842 ], [ 130.526539808643065, 33.525857935233311 ], [ 130.526538032327295, 33.525983529240669 ], [ 130.526515487071038, 33.526146979375618 ], [ 130.52650005502889, 33.526223915230908 ], [ 130.526500979382376, 33.526270517321279 ], [ 130.526554378646352, 33.526287944399321 ], [ 130.526613911731175, 33.526290776580666 ], [ 130.526667784331352, 33.52628288086126 ], [ 130.526701312689084, 33.526257753633161 ], [ 130.526717325786137, 33.526244042173872 ], [ 130.526735915533067, 33.526228122624573 ], [ 130.52675856245159, 33.526216515561984 ], [ 130.52678447369729, 33.526207597213293 ], [ 130.52688864661576, 33.526183725106897 ], [ 130.526907347564304, 33.526178301530862 ], [ 130.52695598902659, 33.526142419061827 ], [ 130.52699501683108, 33.526095686932187 ], [ 130.527061186763262, 33.525999429635 ], [ 130.52709082287916, 33.525939558701459 ], [ 130.527110925618643, 33.525885287067332 ], [ 130.527130919032317, 33.525850917046817 ], [ 130.527144982147689, 33.525840157312246 ], [ 130.527162225286759, 33.525832122286843 ], [ 130.527182730413841, 33.525827691727791 ], [ 130.527272963234736, 33.525815071483187 ], [ 130.527323871809074, 33.525802973352555 ], [ 130.527364897511688, 33.525783262782255 ], [ 130.527377851835013, 33.525775211449812 ], [ 130.527397355728738, 33.525753659751011 ], [ 130.527419987066338, 33.525713873308611 ], [ 130.527449182759909, 33.525634347316327 ], [ 130.527486194178778, 33.525532837812214 ], [ 130.527517671848216, 33.52544373953868 ], [ 130.527601571925828, 33.525171722932399 ], [ 130.527775371400963, 33.525111552586132 ], [ 130.527876642108737, 33.525071748252195 ], [ 130.527899885479655, 33.525035240759443 ], [ 130.527903396576079, 33.525147859694101 ], [ 130.527918255002618, 33.525192084315456 ], [ 130.527951485325815, 33.525213835974043 ], [ 130.528059995338765, 33.525258451240234 ], [ 130.528108245248006, 33.52529470131212 ], [ 130.528146674168369, 33.52535074411378 ], [ 130.52816717826957, 33.525408478450274 ], [ 130.528198664091803, 33.525496125888779 ], [ 130.528256254586807, 33.525593696916133 ], [ 130.52829375356913, 33.525627229889047 ], [ 130.528336718545944, 33.525645426234995 ], [ 130.528380874547992, 33.525645593442938 ], [ 130.528425057601453, 33.525633115510047 ], [ 130.528528697180633, 33.525583035372549 ], [ 130.528571764725484, 33.525582282620178 ], [ 130.528622232884572, 33.525605015677407 ], [ 130.528631816171469, 33.525629389760432 ], [ 130.528625983184781, 33.525658037798706 ], [ 130.528607641257423, 33.525713724719736 ], [ 130.528541056525114, 33.525886941864734 ], [ 130.528537720815677, 33.525904962872325 ], [ 130.528539767947251, 33.525923004256263 ], [ 130.528547213256815, 33.525938353984934 ], [ 130.528569261643554, 33.525959464394433 ], [ 130.528743486716337, 33.526077061164344 ], [ 130.529008378585218, 33.526210884625797 ], [ 130.529349081047826, 33.526417411519908 ], [ 130.529351212337218, 33.526443377054804 ], [ 130.529347213863446, 33.526716367862726 ], [ 130.529338934995678, 33.526847573020582 ], [ 130.529305438993447, 33.526968082153118 ], [ 130.529241816574853, 33.527052478899741 ], [ 130.529222803960863, 33.527068751108324 ], [ 130.529164370803585, 33.527118827676901 ], [ 130.529075600056018, 33.527179882198993 ], [ 130.529004624878468, 33.527224064958951 ], [ 130.528913276082818, 33.527287188797231 ], [ 130.528818216829364, 33.527328989797645 ], [ 130.52878170835038, 33.527360975154849 ], [ 130.528730862521456, 33.527423301669806 ], [ 130.528702282209196, 33.5274823311305 ], [ 130.528677665879115, 33.527554900810216 ], [ 130.52866523449282, 33.527613955611763 ], [ 130.528665910436075, 33.527621283232342 ], [ 130.528313908255626, 33.527963189617729 ], [ 130.528380406939903, 33.527984750238119 ], [ 130.528445693595472, 33.527997148532364 ], [ 130.528481944618477, 33.527997251700498 ], [ 130.528515719674317, 33.527988607691668 ], [ 130.528556022277456, 33.527978301038928 ], [ 130.528626309691816, 33.527960320545297 ], [ 130.528682069529566, 33.527937989593674 ], [ 130.528751246398997, 33.527923283764437 ], [ 130.528821558748803, 33.527908332887101 ], [ 130.528923106855956, 33.527872368638349 ], [ 130.528986617642033, 33.527839993392753 ], [ 130.529049747168216, 33.527807757007558 ], [ 130.529093650408555, 33.527777069736231 ], [ 130.529158496182191, 33.527738886723078 ], [ 130.529247187060577, 33.527692693329264 ], [ 130.529380220589502, 33.527620181667444 ], [ 130.529466606827157, 33.527533721253917 ], [ 130.529545387421393, 33.527453607209253 ], [ 130.529593871231555, 33.52736911680087 ], [ 130.529612227345297, 33.527287401864356 ], [ 130.529702584279306, 33.527298837523603 ], [ 130.529765033882001, 33.527299073367921 ], [ 130.529794122979752, 33.527293794804372 ], [ 130.529853437382002, 33.527275068800314 ], [ 130.529916018349553, 33.527250967238686 ], [ 130.529971092849109, 33.527230816841431 ], [ 130.530062665029646, 33.52720397109951 ], [ 130.530086210902795, 33.527204870061055 ], [ 130.530134168164693, 33.527217730383505 ], [ 130.530176991103303, 33.52723905981059 ], [ 130.53022741443931, 33.527262531214959 ], [ 130.530308158753826, 33.527286119173091 ], [ 130.53040652154985, 33.527318224044656 ], [ 130.530524028104452, 33.527317152026789 ], [ 130.530516169793458, 33.527370520010273 ], [ 130.530485590035937, 33.52741059298198 ], [ 130.530417264785115, 33.527431503193334 ], [ 130.530351507223401, 33.52744393455535 ], [ 130.530288239150565, 33.527462752099467 ], [ 130.530250165594339, 33.527496492005682 ], [ 130.530222140248782, 33.527538687858105 ], [ 130.530217996374517, 33.527574034527362 ], [ 130.530229315526668, 33.527650685557006 ], [ 130.530243163949933, 33.527679584592526 ], [ 130.530291185607808, 33.527743164740798 ], [ 130.530333011302332, 33.527785449085435 ], [ 130.530374552831347, 33.52781829175796 ], [ 130.530451966936823, 33.527866942926174 ], [ 130.530494850206338, 33.527892746778235 ], [ 130.530590551327379, 33.527950272312815 ], [ 130.530657035024632, 33.527990429431938 ], [ 130.53069026508291, 33.528020317804234 ], [ 130.530717098340773, 33.528058951229447 ], [ 130.530734959402878, 33.52808466069343 ], [ 130.530781095020615, 33.528146895682212 ], [ 130.530820692204912, 33.528189416384336 ], [ 130.53064478654133, 33.528265396407036 ], [ 130.530632919969662, 33.52827436849693 ], [ 130.530626390030818, 33.528284277025719 ], [ 130.530625266409601, 33.528297798025989 ], [ 130.530628365282894, 33.528315843194136 ], [ 130.530637977192384, 33.528334792877203 ], [ 130.530657511655193, 33.528362127482239 ], [ 130.53066368017636, 33.528364652018546 ], [ 130.530716604422764, 33.528392394244641 ], [ 130.530774545615003, 33.528417973265455 ], [ 130.530829831222036, 33.528467843500003 ], [ 130.53078046709183, 33.528497383956086 ], [ 130.53073967970073, 33.528558587362198 ], [ 130.530721617953532, 33.528632589754991 ], [ 130.530718683141231, 33.52870876300446 ], [ 130.530730946312843, 33.528774427603537 ], [ 130.530730139480283, 33.528814858953062 ], [ 130.53067474859921, 33.528901189095343 ], [ 130.53063800107563, 33.528930813381635 ], [ 130.530565957797222, 33.528985628375892 ], [ 130.530497100938447, 33.529034573339629 ], [ 130.53014856557806, 33.529295306320606 ], [ 130.530059730356214, 33.529352418633827 ], [ 130.53002297313779, 33.529375737499898 ], [ 130.529960094671509, 33.529454642017228 ], [ 130.529877258441815, 33.529646569390351 ], [ 130.52984031245083, 33.529705038659259 ], [ 130.529800227331805, 33.52975268358356 ], [ 130.529729960159926, 33.529805602329148 ], [ 130.529707279732349, 33.529823550142318 ], [ 130.529692054485281, 33.529846950784972 ], [ 130.529665789038745, 33.529928917935628 ], [ 130.529628540654215, 33.530043282700809 ], [ 130.529624881429669, 33.530128927829999 ], [ 130.529657835988928, 33.530202066134308 ], [ 130.529700695833156, 33.530240126992062 ], [ 130.529728646268239, 33.530251045570765 ], [ 130.529798577680083, 33.530260326347133 ], [ 130.52988800490283, 33.530257668459782 ], [ 130.530015295283476, 33.530244413013442 ], [ 130.530133592462278, 33.530214675022741 ], [ 130.530223448947766, 33.530163414914227 ], [ 130.530317799196609, 33.530097589402253 ], [ 130.530498784265319, 33.529985245747504 ], [ 130.530686510772142, 33.529917411569883 ], [ 130.530755459628978, 33.529905978368198 ], [ 130.530785584161436, 33.529911480224939 ], [ 130.530810272722789, 33.529926894631934 ], [ 130.530847943328808, 33.529967929361554 ], [ 130.530932242391486, 33.530081484293611 ], [ 130.531029452370717, 33.530210867042072 ], [ 130.531074214170701, 33.53029398240826 ], [ 130.531167111916602, 33.530310428410687 ], [ 130.531230414771443, 33.530340252816885 ], [ 130.531080495064458, 33.530494169738446 ], [ 130.530886810099929, 33.530645245925697 ], [ 130.530706711251838, 33.530725682209933 ], [ 130.530542594859355, 33.530821465207545 ], [ 130.530733485929176, 33.531032739183289 ], [ 130.531059310471846, 33.530843100588655 ], [ 130.53119259688745, 33.530763438037447 ], [ 130.531453775950411, 33.530582149756484 ], [ 130.531524616705809, 33.530625703544587 ], [ 130.531572044047948, 33.530667160503995 ], [ 130.531645147906346, 33.530743338448708 ], [ 130.531629933604421, 33.530765012943547 ], [ 130.531633169520262, 33.530765342656373 ], [ 130.531435218862839, 33.531060494525185 ], [ 130.531268170091607, 33.531310150481723 ], [ 130.531200618724029, 33.531413271023609 ], [ 130.531145798184241, 33.531502809805751 ], [ 130.531054558218443, 33.531678186223978 ], [ 130.531000513472634, 33.531779667986278 ], [ 130.530955721683767, 33.531904817144138 ], [ 130.53093325975675, 33.531983347667513 ], [ 130.530920341631202, 33.532031376471423 ], [ 130.530919327884789, 33.532063389063495 ], [ 130.530924647842141, 33.532075137879147 ], [ 130.530934262472698, 33.532085987104637 ], [ 130.530947125776407, 33.532095052261148 ], [ 130.530966472031935, 33.532102731311376 ], [ 130.530981538965818, 33.532108706913618 ], [ 130.531022383635872, 33.532115165346355 ], [ 130.531061469829979, 33.532112352772479 ], [ 130.531112928513096, 33.532100184798324 ], [ 130.531206263820991, 33.532059185398069 ], [ 130.53129490914165, 33.532014505792908 ], [ 130.53134194078433, 33.531988759667726 ], [ 130.531374171118301, 33.531970425368222 ], [ 130.531418432820374, 33.531951642115075 ], [ 130.531470126346619, 33.531942819830043 ], [ 130.531495828541495, 33.531941824077094 ], [ 130.531533687146975, 33.531940346811943 ], [ 130.531575541752119, 33.531938882910275 ], [ 130.531603683000526, 33.531937933729402 ], [ 130.531638151263991, 33.531933554966429 ], [ 130.531684960077712, 33.531925982203923 ], [ 130.531685546019702, 33.531926512730095 ], [ 130.531704827562294, 33.531922780186015 ], [ 130.531781493322569, 33.531907923646102 ], [ 130.531595371363011, 33.532278705735791 ], [ 130.531509430248036, 33.532446108192396 ], [ 130.531500590173607, 33.532486650185021 ], [ 130.531795598220242, 33.53270983002021 ], [ 130.531862970858981, 33.532772954761278 ], [ 130.531884333982021, 33.532804593539979 ], [ 130.531897080450847, 33.532835284179832 ], [ 130.531905343080609, 33.532902024287772 ], [ 130.531902786430578, 33.532978656772777 ], [ 130.531902847259147, 33.533162619698032 ], [ 130.531908517393276, 33.533218748375084 ], [ 130.531916866105405, 33.533269498767538 ], [ 130.531924712073163, 33.533304257238164 ], [ 130.531935362246799, 33.533325922726299 ], [ 130.531949275519224, 33.533343128435348 ], [ 130.532015888070674, 33.533367716733565 ], [ 130.532341272692378, 33.533425362782019 ], [ 130.532522512322629, 33.533454361004821 ], [ 130.532814919178151, 33.533481521640866 ], [ 130.532829869813355, 33.533454280461122 ], [ 130.532848537364686, 33.533392888882929 ], [ 130.532879854470679, 33.533254761793557 ], [ 130.532954618113024, 33.532999052544355 ], [ 130.533101287874814, 33.532816133873673 ], [ 130.533146586668948, 33.532729270678217 ], [ 130.533242359199164, 33.532641716587051 ], [ 130.533280632197602, 33.53261805021674 ], [ 130.533297580763559, 33.532484906449646 ], [ 130.533317286096491, 33.53244151580256 ], [ 130.533390505196451, 33.532410512789731 ], [ 130.533501094450514, 33.53236742890509 ], [ 130.533564615185327, 33.532325542351231 ], [ 130.533632869447075, 33.53231082817851 ], [ 130.533717079096334, 33.532347845305999 ], [ 130.533769610080071, 33.532386785022936 ], [ 130.534269763022877, 33.532330223798375 ], [ 130.534330941531465, 33.532278112225548 ], [ 130.534415531382734, 33.53223630400727 ], [ 130.534561119041655, 33.532176336912052 ], [ 130.534722033653026, 33.532136152038582 ], [ 130.534871500490681, 33.532105468698042 ], [ 130.534974613141628, 33.532099723989276 ], [ 130.535077645984472, 33.53209317155477 ], [ 130.535278160924975, 33.532103710072285 ], [ 130.535398839300626, 33.532131916286907 ], [ 130.535510735198841, 33.53215135357668 ], [ 130.53557974626969, 33.532144143619753 ], [ 130.53569590033365, 33.532122141475661 ], [ 130.535833107893382, 33.532111101189706 ], [ 130.535964575503925, 33.532111591452875 ], [ 130.536066655036194, 33.532141875091021 ], [ 130.536160014337611, 33.532143454734815 ], [ 130.536271119462299, 33.532145349185626 ], [ 130.536340969347776, 33.532138811135248 ], [ 130.53635283121011, 33.532043721455025 ], [ 130.536340005444174, 33.531988199230163 ], [ 130.53625113949434, 33.531648968331545 ], [ 130.536175116758045, 33.531393609161178 ], [ 130.536123103249736, 33.531194485289078 ], [ 130.536078536469773, 33.531018670029461 ], [ 130.536005136286434, 33.530807842210166 ], [ 130.535985112126781, 33.530769657335881 ], [ 130.535942725230456, 33.530665807178586 ], [ 130.535875231560766, 33.530562040063238 ], [ 130.535827477197586, 33.530479160786882 ], [ 130.535744905776085, 33.530324337188205 ], [ 130.535674778392121, 33.530209815950236 ], [ 130.535621899086465, 33.530094514803757 ], [ 130.535602832370671, 33.52997923355845 ], [ 130.535603342272793, 33.529883750485041 ], [ 130.535615545867273, 33.529811381120837 ], [ 130.535641512789113, 33.529729200513302 ], [ 130.535720903262728, 33.529613195691304 ], [ 130.535749695720938, 33.52957691867627 ], [ 130.535687573872735, 33.529294175216364 ], [ 130.535690031596971, 33.529235575771963 ], [ 130.535716123523144, 33.529185201178301 ], [ 130.535772347850809, 33.52914663191963 ], [ 130.535811161655488, 33.529131455261954 ], [ 130.535939539847419, 33.529087730225747 ], [ 130.536020482578266, 33.529051085036244 ], [ 130.536088525494534, 33.529004422935948 ], [ 130.536145896272359, 33.528947860110257 ], [ 130.536213171977067, 33.528848011109091 ], [ 130.53624480767553, 33.528775078921775 ], [ 130.536263447702794, 33.528710235051264 ], [ 130.536264964954626, 33.528630886580942 ], [ 130.536237417311355, 33.528544245225802 ], [ 130.536163919426087, 33.528454648018815 ], [ 130.536128964312411, 33.528440183200601 ], [ 130.536022987731855, 33.528408019118125 ], [ 130.535894199824781, 33.528394860005037 ], [ 130.535790633676328, 33.528383871751792 ], [ 130.53570484025866, 33.528360271030067 ], [ 130.535652114355912, 33.528302944572388 ], [ 130.535652498558989, 33.528230987947715 ], [ 130.535678217058972, 33.528140103642642 ], [ 130.535701500247143, 33.528040723940222 ], [ 130.535686791426741, 33.52796022248522 ], [ 130.535636861348166, 33.5278436631937 ], [ 130.53560927882782, 33.527803336197181 ], [ 130.535564054761295, 33.527758716198612 ], [ 130.535495880197999, 33.527743669190755 ], [ 130.535427622219771, 33.527751868389657 ], [ 130.535344059534538, 33.527783290570071 ], [ 130.535250255865947, 33.527842220874845 ], [ 130.535161554615428, 33.52789056666947 ], [ 130.535046515937665, 33.527901759897929 ], [ 130.53493793878792, 33.527884413166007 ], [ 130.534831993497875, 33.527854395683661 ], [ 130.534761484423456, 33.527811830579353 ], [ 130.534678588992108, 33.52771839318347 ], [ 130.53463365258952, 33.527612383545289 ], [ 130.534616442691942, 33.527527680091715 ], [ 130.534622287800801, 33.527488604359817 ], [ 130.534626909396252, 33.527457874432443 ], [ 130.534677888675873, 33.527377652994417 ], [ 130.534769214019292, 33.527310261104425 ], [ 130.534862903866042, 33.527272536593834 ], [ 130.53499460966998, 33.527211636414307 ], [ 130.535122689807793, 33.527128532101592 ], [ 130.535219196839307, 33.527035766328225 ], [ 130.535280358912104, 33.526938639744856 ], [ 130.53533147306743, 33.526833022891374 ], [ 130.535363728251667, 33.526707224945525 ], [ 130.535391031150368, 33.526556013404949 ], [ 130.535384512269331, 33.526359167639207 ], [ 130.535371556665751, 33.526186637941805 ], [ 130.535346892270297, 33.526072283859655 ], [ 130.535266679294523, 33.525949236652963 ], [ 130.535183762462225, 33.525860026045905 ], [ 130.535040809605647, 33.52573621631435 ], [ 130.534877978135796, 33.525633499611587 ], [ 130.53465508729002, 33.525500407716407 ], [ 130.534591173144861, 33.525475302701409 ], [ 130.534513883806056, 33.525442715268206 ], [ 130.534308418946466, 33.525354137597262 ], [ 130.534184931599214, 33.525294397702723 ], [ 130.534068991157795, 33.525238946689143 ], [ 130.533987196126816, 33.525183977190153 ], [ 130.533938107766431, 33.525138990538963 ], [ 130.533898227568073, 33.525039374804102 ], [ 130.533875987101197, 33.524944050060363 ], [ 130.533871508266685, 33.52483822571071 ], [ 130.533876735188983, 33.524757447534192 ], [ 130.533842049704873, 33.524677293245574 ], [ 130.533784226864157, 33.524622023695564 ], [ 130.533703653921833, 33.524566706392847 ], [ 130.533575178885144, 33.524496379571531 ], [ 130.533492003496804, 33.524455879778884 ], [ 130.533396349350539, 33.524389902329865 ], [ 130.533344829644165, 33.524335749186108 ], [ 130.533313456541549, 33.524296499974938 ], [ 130.533298703466471, 33.52422448717499 ], [ 130.533306739076465, 33.524137730160973 ], [ 130.533325138205328, 33.524000255896937 ], [ 130.533353479759, 33.523898781673928 ], [ 130.53338961577424, 33.523763453571718 ], [ 130.533412890841873, 33.523657733703757 ], [ 130.533408422743264, 33.523549761941219 ], [ 130.533364832652381, 33.52343639392938 ], [ 130.533322457352085, 33.523324052995505 ], [ 130.533317830318168, 33.523245737050054 ], [ 130.533318341078711, 33.523150499091301 ], [ 130.533317595944823, 33.523054198114764 ], [ 130.533281172352645, 33.522781057229253 ], [ 130.533241534791557, 33.522628536518567 ], [ 130.533146164858749, 33.522509692829239 ], [ 130.533009881035127, 33.522406157139351 ], [ 130.532933513627768, 33.522351207416726 ], [ 130.532870772489161, 33.522272673636429 ], [ 130.532856033376788, 33.522190092581411 ], [ 130.532816098709418, 33.522101041882671 ], [ 130.532766006738115, 33.522016216610801 ], [ 130.532663520559538, 33.521946444349688 ], [ 130.532587262170495, 33.521894910285283 ], [ 130.532388185436844, 33.521801037499962 ], [ 130.532181518484862, 33.521702907076268 ], [ 130.531982445271836, 33.521600579302088 ], [ 130.531693955312761, 33.521446068995068 ], [ 130.531398187556789, 33.521315798121421 ], [ 130.531202657801771, 33.521188157863193 ], [ 130.530564405905636, 33.52076354983879 ], [ 130.53072166345234, 33.520649846032093 ], [ 130.530798120198625, 33.520531647553959 ], [ 130.530860618184363, 33.520420757332019 ], [ 130.530876405804406, 33.520300180786428 ], [ 130.530849123786169, 33.520204838318087 ], [ 130.530801541986961, 33.520130586220127 ], [ 130.530734811799363, 33.520082751182194 ], [ 130.530623956376417, 33.520029394021506 ], [ 130.530510410269784, 33.519999344157227 ], [ 130.530366442755195, 33.519988236343764 ], [ 130.530229995311345, 33.519994062718553 ], [ 130.530106075300637, 33.520008423018389 ], [ 130.53000243539546, 33.520020713317741 ], [ 130.529918968998487, 33.5200352259479 ], [ 130.529795471876923, 33.520072378361675 ], [ 130.529783593268348, 33.520075960318742 ], [ 130.529589948380391, 33.520137678293629 ], [ 130.529453328630041, 33.520175237063583 ], [ 130.529397645665085, 33.520191969729566 ], [ 130.529311655968741, 33.520206474062014 ], [ 130.529240883434909, 33.520206206797333 ], [ 130.529205474161557, 33.520214525239261 ], [ 130.529154916743522, 33.520216448144829 ], [ 130.529084186912115, 33.52021618095155 ], [ 130.529021049118086, 33.520211715215886 ], [ 130.528940207839895, 33.520207184197318 ], [ 130.528819023651039, 33.520189783847677 ], [ 130.528642546343832, 33.520117158676207 ], [ 130.528592013693441, 33.520083541923213 ], [ 130.528524218022113, 33.52003841271523 ], [ 130.528435199409614, 33.519959777455917 ], [ 130.528405461914275, 33.519930112883102 ], [ 130.528331932301739, 33.519856748928476 ], [ 130.528239041820115, 33.519739987112395 ], [ 130.528190333498088, 33.51964139216755 ], [ 130.528168260566133, 33.519516444417668 ], [ 130.528158925278802, 33.519376717384311 ], [ 130.528167514153211, 33.519188417278535 ], [ 130.52816340835659, 33.519014860286262 ], [ 130.528179175144487, 33.518867973010785 ], [ 130.52852038255412, 33.518812908332329 ], [ 130.528795253477824, 33.518746354949428 ], [ 130.528198433483396, 33.517727088726588 ], [ 130.527809774430722, 33.517049243891236 ], [ 130.527730043879274, 33.516910164229742 ], [ 130.5280475018142, 33.516821410369467 ], [ 130.528102668583841, 33.516790869577179 ], [ 130.528168223576188, 33.516775760238197 ], [ 130.528227205937014, 33.516770524565089 ], [ 130.528294117380256, 33.51674552336862 ], [ 130.528379428081081, 33.516716223628649 ], [ 130.528479078081631, 33.516694657087633 ], [ 130.528602293964894, 33.516677583475897 ], [ 130.528935274439561, 33.51662618317345 ], [ 130.529303487180357, 33.516591366041993 ], [ 130.529551097636357, 33.516580220032452 ], [ 130.529718761084325, 33.516578704649078 ], [ 130.529721872467718, 33.516578645942154 ], [ 130.529945393487566, 33.516574275518565 ], [ 130.530106243996784, 33.516580694168397 ], [ 130.530374996968106, 33.516571279452364 ], [ 130.530470098921313, 33.516566179325643 ], [ 130.530299126418811, 33.516206935547331 ], [ 130.530024548776936, 33.515753329422076 ], [ 130.529985538224338, 33.51568883223365 ], [ 130.529412164774982, 33.514712946401474 ], [ 130.52940928921501, 33.514708040741496 ], [ 130.529133150334303, 33.514217971007454 ], [ 130.528856402068499, 33.513771220718752 ], [ 130.528691454321915, 33.513512805404432 ], [ 130.528209783969913, 33.512728729178171 ], [ 130.528922477179037, 33.512804476018218 ], [ 130.529667245606447, 33.512881783895224 ], [ 130.530033935129552, 33.51292406047807 ], [ 130.530981386973536, 33.513031498162718 ], [ 130.530988295081102, 33.513029129031551 ], [ 130.531359261685509, 33.512901892583656 ], [ 130.531392920705144, 33.512890359955222 ], [ 130.531391752738585, 33.512888736437304 ], [ 130.531479235892874, 33.512853314546021 ], [ 130.531544918445093, 33.512829538621574 ], [ 130.531602458095364, 33.512802810263835 ], [ 130.531627042954284, 33.512789835684693 ], [ 130.531668085793314, 33.512765651222161 ], [ 130.531681977706967, 33.512754890143242 ], [ 130.531684300194485, 33.512753066754549 ], [ 130.531703776334354, 33.512736022397938 ], [ 130.531764956146702, 33.512665983034459 ], [ 130.531808171424473, 33.512613135132518 ], [ 130.531851992074962, 33.512557297238473 ], [ 130.53188054233712, 33.51251834284588 ], [ 130.531914232431859, 33.512469967601263 ], [ 130.531958962859818, 33.5124091304072 ], [ 130.532008380882218, 33.512344401660656 ], [ 130.532043561283757, 33.512300117767118 ], [ 130.532061425170838, 33.512285602760294 ], [ 130.532093804840997, 33.512269522552657 ], [ 130.532162820156231, 33.51224361078971 ], [ 130.532249151710886, 33.512203358561038 ], [ 130.532295420510934, 33.512169050002775 ], [ 130.532336867940131, 33.512140040817521 ], [ 130.532373370914655, 33.512123588556953 ], [ 130.532435569365589, 33.512121813062627 ], [ 130.532473480728981, 33.512124844021628 ], [ 130.532609102461322, 33.512129754779032 ], [ 130.532609569418952, 33.512129053183045 ], [ 130.532731690627401, 33.511954420021048 ], [ 130.532762441834478, 33.511826536642964 ], [ 130.532757797993725, 33.511759386509468 ], [ 130.532876220515277, 33.511623449268299 ], [ 130.532933487563952, 33.511458964121616 ], [ 130.533047733008715, 33.511167750456671 ], [ 130.533244755281089, 33.510855889831483 ], [ 130.53336542369334, 33.510778710897412 ], [ 130.533571162568904, 33.510708120801887 ], [ 130.533796934036531, 33.510641866622123 ], [ 130.533860710659212, 33.510407348061918 ], [ 130.53317385229667, 33.510637598555121 ], [ 130.5329388981622, 33.510494419203859 ], [ 130.532920651401184, 33.510439157970112 ], [ 130.532923080552052, 33.510370202250883 ], [ 130.532937917107859, 33.510292627210482 ], [ 130.532977278754004, 33.510244483706124 ], [ 130.533018691400599, 33.51019807541671 ], [ 130.53303062030264, 33.510090340785261 ], [ 130.533041521837731, 33.509978268852088 ], [ 130.533056638765288, 33.509840359491804 ], [ 130.533059243117435, 33.509738611301366 ], [ 130.533047490822298, 33.509624728623976 ], [ 130.533032793009795, 33.50948755348265 ], [ 130.533004599405899, 33.509373609220525 ], [ 130.532966119219793, 33.509249271046528 ], [ 130.532922906331351, 33.509105507609355 ], [ 130.532865374945317, 33.509028999895691 ], [ 130.532796913818885, 33.508936460799951 ], [ 130.532743748395063, 33.508869022087076 ], [ 130.532643452459013, 33.508761711101357 ], [ 130.532555513817897, 33.508647542779897 ], [ 130.532483955069779, 33.508552420117347 ], [ 130.532456910334957, 33.50850681196777 ], [ 130.532449867969802, 33.508487096259863 ], [ 130.532399621714433, 33.508345982062444 ], [ 130.532396941263841, 33.508336040954859 ], [ 130.532383462410365, 33.50828555143103 ], [ 130.532357173867666, 33.508200953287343 ], [ 130.532304001518469, 33.508135206135279 ], [ 130.532271370382773, 33.508072986156357 ], [ 130.532251099824606, 33.508010848310498 ], [ 130.532263899477329, 33.507528702134373 ], [ 130.532213450381164, 33.507166463260482 ], [ 130.532197681509757, 33.507033579446443 ], [ 130.53215743353806, 33.50686267149527 ], [ 130.532092045004646, 33.506573566929724 ], [ 130.532051724140047, 33.506416465282797 ], [ 130.531992519738765, 33.506323114037883 ], [ 130.531933085246578, 33.506272839964012 ], [ 130.531858074098608, 33.506241845017435 ], [ 130.531811941136368, 33.506212049248603 ], [ 130.531798668016364, 33.506193895112901 ], [ 130.53175263553959, 33.506137648248043 ], [ 130.531549605059013, 33.506175701289145 ], [ 130.531420345338006, 33.50590358069703 ], [ 130.531312767445542, 33.505618579078366 ], [ 130.53128094439424, 33.505602081061618 ], [ 130.531254791095506, 33.50548469224865 ], [ 130.531206102620501, 33.50535172031713 ], [ 130.531173682191053, 33.505258435801068 ], [ 130.531127789263167, 33.505176371780195 ], [ 130.531070572314093, 33.505096800069722 ], [ 130.531003064425533, 33.505015500606447 ], [ 130.530961292298969, 33.504933415699185 ], [ 130.530936103431998, 33.50483240884634 ], [ 130.530936566560371, 33.504746186761032 ], [ 130.530946475644186, 33.504240006362551 ], [ 130.530958517520332, 33.504111560412966 ], [ 130.530979659710283, 33.504002980537742 ], [ 130.53104631047583, 33.503860087435768 ], [ 130.531127557925856, 33.503684456584125 ], [ 130.531229650964121, 33.503455471120908 ], [ 130.531254937026432, 33.503350358551707 ], [ 130.531246873888676, 33.503317535652457 ], [ 130.531177019533146, 33.503289693930355 ], [ 130.531115266818603, 33.503287735867985 ], [ 130.530987454872275, 33.503287502357558 ], [ 130.530985283801698, 33.503339375670279 ], [ 130.530984650693341, 33.503457262610425 ], [ 130.530837985069297, 33.503820241135877 ], [ 130.530778875709672, 33.503975843656576 ], [ 130.530626161820464, 33.504243593035412 ], [ 130.530657351958183, 33.504377731026196 ], [ 130.530685550723604, 33.504474170356389 ], [ 130.530686855149895, 33.504552086612861 ], [ 130.530679636721061, 33.504635677367837 ], [ 130.530669172874298, 33.504689457776713 ], [ 130.530653701800048, 33.504736140191042 ], [ 130.530601049257314, 33.50478553511217 ], [ 130.530508591797428, 33.504832666259929 ], [ 130.530410168338051, 33.504894604590746 ], [ 130.530347965614652, 33.504944949662701 ], [ 130.530475723343244, 33.505065293051743 ], [ 130.530591454062545, 33.504967105005534 ], [ 130.530475723343244, 33.50506529305175 ], [ 130.530347965614652, 33.504944949662722 ], [ 130.530277697366643, 33.505001780459814 ], [ 130.530158744931668, 33.505104779882672 ], [ 130.530059426708192, 33.505184430856097 ], [ 130.529979501152184, 33.505262077275177 ] ] ] ] } }
]
}
