{
"type": "FeatureCollection",
"name": "大宰府B",
"crs": { "type": "name", "properties": { "name": "urn:ogc:def:crs:EPSG::4612" } },
"features": [
{ "type": "Feature", "properties": { "KEY_CODE": "402210084101", "PREF": "40", "CITY": "221", "K_AREA": "005002030", "S_AREA": "0084101", "PREF_NAME": "福岡県", "CITY_NAME": "太宰府市", "S_NAME": "宰府二丁目", "KIGO_E": null, "HCODE": 8101, "AREA": 964.717, "PERIMETER": 128.126, "KIHON1": "0050", "DUMMY1": "-", "KIHON2": "02", "KIHON3": "030", "C1": 5, "C2": 84, "DUMMY2": "-", "C3": 1, "DUMMY3": "-", "C4": 1, "KIGO_A": null, "KIGO_D": null, "N_KEN": null, "N_CITY": null, "N_C1": 0, "KIGO_I": null, "KEYCODE1": "2210084-1-01", "JINKO": 1, "SETAI": 1, "KEN_OLD": "40", "CITY_OLD": "221", "X_CODE": 130.531799, "Y_CODE": 33.517966, "KCODE1": "0050-02030", "CCODE1": "84-1- 1" }, "geometry": { "type": "MultiPolygon", "coordinates": [ [ [ [ 130.533731049469822, 33.496556200863708 ], [ 130.533614137885365, 33.496587008469199 ], [ 130.533452114862001, 33.49662624012808 ], [ 130.533278657048697, 33.49666489885206 ], [ 130.533058278373375, 33.496704406692928 ], [ 130.5329709780911, 33.496716689436532 ], [ 130.53289629258586, 33.496728491501194 ], [ 130.532848146314109, 33.496738385089863 ], [ 130.532790290320975, 33.496755322614341 ], [ 130.532698702421811, 33.496783192134949 ], [ 130.532629752021279, 33.496854507369051 ], [ 130.532533393888883, 33.496948929401128 ], [ 130.532516023090864, 33.496965983617685 ], [ 130.53248288692609, 33.496975439561403 ], [ 130.532409581025632, 33.496965090982357 ], [ 130.532350619899887, 33.496960820212919 ], [ 130.532298948405156, 33.496953582800771 ], [ 130.53220388580101, 33.496955233944576 ], [ 130.5320739023106, 33.496961791012609 ], [ 130.53192108065889, 33.49696224096985 ], [ 130.53189461595062, 33.496966156052338 ], [ 130.531867898832871, 33.497009414773764 ], [ 130.531876068343536, 33.497053791022147 ], [ 130.531906865691326, 33.497143617505351 ], [ 130.531950242773803, 33.497247123321365 ], [ 130.531969173528864, 33.497307671232498 ], [ 130.531994049778973, 33.497380357949169 ], [ 130.532008162210531, 33.497437857569508 ], [ 130.531995906384168, 33.497481136375093 ], [ 130.531992612234205, 33.497483800387698 ], [ 130.531956047345659, 33.49751324967886 ], [ 130.531804672888228, 33.497580733172697 ], [ 130.531666086154985, 33.497623572378771 ], [ 130.531585328379322, 33.497646445323198 ], [ 130.53151419588562, 33.497677421911199 ], [ 130.531442984612596, 33.497715476769052 ], [ 130.531382227639682, 33.497756000058892 ], [ 130.531375392506703, 33.497760553327119 ], [ 130.531245044253666, 33.497834664687403 ], [ 130.531233359105869, 33.497873366604928 ], [ 130.531216709470442, 33.497928392543322 ], [ 130.53108848909153, 33.498083945402627 ], [ 130.53104881528057, 33.498112890689889 ], [ 130.530970846325999, 33.498124959820352 ], [ 130.530783433453394, 33.498295649665735 ], [ 130.530726039658276, 33.498382855463234 ], [ 130.530693247616028, 33.498484419326189 ], [ 130.530692854406027, 33.498557540131642 ], [ 130.530718937912098, 33.498648195001792 ], [ 130.530782984122965, 33.498731101627584 ], [ 130.530865991092071, 33.498814046457838 ], [ 130.530903603901208, 33.498871387347641 ], [ 130.530939333993871, 33.498935098615334 ], [ 130.530976861517729, 33.499008327233341 ], [ 130.531012447092678, 33.499091127946961 ], [ 130.531030937949993, 33.499186544508561 ], [ 130.531043675681246, 33.499288314164801 ], [ 130.531051744162909, 33.499374921738877 ], [ 130.531068454910866, 33.499441729353848 ], [ 130.531090720977147, 33.499530821159262 ], [ 130.531111274634213, 33.499586515123731 ], [ 130.531139429099909, 33.499643856767875 ], [ 130.53116390243855, 33.499682094027875 ], [ 130.531173080182896, 33.499734540016924 ], [ 130.531170940635377, 33.499780637582695 ], [ 130.53113971589093, 33.499942614431014 ], [ 130.531139617300113, 33.499960964942197 ], [ 130.531139152354257, 33.500047504133875 ], [ 130.530768384615811, 33.500031000332825 ], [ 130.530712440037092, 33.500028431190643 ], [ 130.530672421574252, 33.500066426027765 ], [ 130.530635887688732, 33.500160050129203 ], [ 130.530633534992745, 33.50024584305573 ], [ 130.530631250603903, 33.500310996460009 ], [ 130.530643349525292, 33.50035950798943 ], [ 130.530701790422, 33.500421719198634 ], [ 130.530754478304146, 33.500506133542103 ], [ 130.530793899348851, 33.500579403481225 ], [ 130.530871108451834, 33.500966930009355 ], [ 130.531051174763036, 33.501014451571145 ], [ 130.531165242466585, 33.501193422636881 ], [ 130.531196157662492, 33.501269021534448 ], [ 130.531201398618236, 33.501350087454512 ], [ 130.531198914803667, 33.501640134706534 ], [ 130.531196733354136, 33.501686197426473 ], [ 130.531196545458556, 33.501721172026556 ], [ 130.531211561894679, 33.501751415162424 ], [ 130.531234160320224, 33.501786474833409 ], [ 130.531282500220186, 33.501850797579394 ], [ 130.531286884303512, 33.501856590527098 ], [ 130.531328325216606, 33.501913945772088 ], [ 130.531371547570757, 33.501984059865443 ], [ 130.53141113090723, 33.502035035606859 ], [ 130.531411504091153, 33.50214549451232 ], [ 130.53136751397443, 33.502210491556717 ], [ 130.531336903281698, 33.502258032207187 ], [ 130.531321393606135, 33.502319965384018 ], [ 130.531317284670649, 33.502380356385075 ], [ 130.531315153816621, 33.502424834286742 ], [ 130.531301706854151, 33.502454968817496 ], [ 130.531274990756174, 33.502481882916499 ], [ 130.531202708038791, 33.50252296293047 ], [ 130.531149395315509, 33.502554533158914 ], [ 130.531113269484422, 33.502571868224784 ], [ 130.531095799333798, 33.502646509821361 ], [ 130.531072217256792, 33.502794214370205 ], [ 130.531049215766672, 33.502841818471175 ], [ 130.530938596578835, 33.502936186523087 ], [ 130.530993909657411, 33.503134696647038 ], [ 130.530987454872275, 33.503287502357558 ], [ 130.531115266818603, 33.503287735867985 ], [ 130.531177019533146, 33.503289693930355 ], [ 130.531246873888676, 33.503317535652457 ], [ 130.531254937026432, 33.503350358551707 ], [ 130.531229650964178, 33.503455471120908 ], [ 130.531127557925856, 33.503684456584125 ], [ 130.53104631047583, 33.503860087435768 ], [ 130.530979659710283, 33.504002980537734 ], [ 130.530958517520332, 33.504111560412966 ], [ 130.530946475644186, 33.504240006362551 ], [ 130.530936566560342, 33.504746186761054 ], [ 130.530936103431998, 33.50483240884634 ], [ 130.530961292298969, 33.504933415699185 ], [ 130.531003064425533, 33.505015500606447 ], [ 130.531070572314093, 33.505096800069722 ], [ 130.531127789263167, 33.505176371780195 ], [ 130.531173682191053, 33.505258435801068 ], [ 130.531206102620501, 33.50535172031713 ], [ 130.531254791095506, 33.50548469224865 ], [ 130.53128094439424, 33.505602081061618 ], [ 130.531312767445542, 33.505618579078366 ], [ 130.531420345338006, 33.50590358069703 ], [ 130.531549605059013, 33.506175701289145 ], [ 130.53175263553959, 33.506137648248043 ], [ 130.531798668016364, 33.506193895112901 ], [ 130.531811941136368, 33.506212049248603 ], [ 130.531858074098608, 33.506241845017435 ], [ 130.531933085246578, 33.506272839964012 ], [ 130.531992519738765, 33.506323114037883 ], [ 130.532051724140047, 33.506416465282797 ], [ 130.532092045004646, 33.506573566929724 ], [ 130.53215743353806, 33.50686267149527 ], [ 130.532197681509757, 33.507033579446443 ], [ 130.532213450381164, 33.507166463260482 ], [ 130.532263899477329, 33.507528702134373 ], [ 130.532251099824606, 33.508010848310498 ], [ 130.532271370382773, 33.508072986156357 ], [ 130.532304001518469, 33.508135206135279 ], [ 130.532357173867666, 33.508200953287343 ], [ 130.532383462410365, 33.50828555143103 ], [ 130.532396941263841, 33.508336040954859 ], [ 130.532399621714433, 33.508345982062444 ], [ 130.532449867969802, 33.508487096259863 ], [ 130.532456910334957, 33.50850681196777 ], [ 130.532483955069779, 33.508552420117347 ], [ 130.532555513817897, 33.508647542779897 ], [ 130.532643452459013, 33.508761711101357 ], [ 130.532743748395063, 33.508869022087076 ], [ 130.532796913818885, 33.508936460799951 ], [ 130.532865374945317, 33.509028999895691 ], [ 130.532922906331351, 33.509105507609355 ], [ 130.532966119219793, 33.509249271046528 ], [ 130.533004599405899, 33.509373609220525 ], [ 130.533032793009795, 33.50948755348265 ], [ 130.533047490822298, 33.509624728623976 ], [ 130.533059243117435, 33.509738611301366 ], [ 130.533056638765288, 33.509840359491804 ], [ 130.533041521837731, 33.509978268852088 ], [ 130.53303062030264, 33.510090340785261 ], [ 130.533018691400599, 33.51019807541671 ], [ 130.532977278754004, 33.510244483706124 ], [ 130.532937917107859, 33.510292627210482 ], [ 130.532923080552052, 33.510370202250883 ], [ 130.532920651401184, 33.510439157970112 ], [ 130.5329388981622, 33.510494419203859 ], [ 130.53317385229667, 33.510637598555121 ], [ 130.533860710659212, 33.510407348061918 ], [ 130.533796934036531, 33.510641866622123 ], [ 130.533571162568904, 33.510708120801887 ], [ 130.53336542369334, 33.510778710897412 ], [ 130.533244755281089, 33.510855889831483 ], [ 130.533047733008715, 33.511167750456671 ], [ 130.532933487563952, 33.511458964121616 ], [ 130.532876220515277, 33.511623449268299 ], [ 130.532757797993725, 33.511759386509468 ], [ 130.532762441834478, 33.511826536642964 ], [ 130.532731690627401, 33.511954420021048 ], [ 130.532609569418952, 33.512129053183045 ], [ 130.532609102461322, 33.512129754779032 ], [ 130.532473480728981, 33.512124844021628 ], [ 130.532435569365589, 33.512121813062627 ], [ 130.532373370914655, 33.512123588556953 ], [ 130.532336867940131, 33.512140040817521 ], [ 130.532295420510934, 33.512169050002775 ], [ 130.532249151710886, 33.512203358561038 ], [ 130.532162820156231, 33.51224361078971 ], [ 130.532093804840997, 33.512269522552657 ], [ 130.532061425170838, 33.512285602760294 ], [ 130.532043561283757, 33.512300117767118 ], [ 130.532008380882218, 33.512344401660656 ], [ 130.531958962859818, 33.5124091304072 ], [ 130.531914232431859, 33.512469967601263 ], [ 130.53188054233712, 33.51251834284588 ], [ 130.531851992074962, 33.512557297238473 ], [ 130.531808171424473, 33.512613135132518 ], [ 130.531764956146702, 33.512665983034459 ], [ 130.531703776334354, 33.512736022397938 ], [ 130.531684300194485, 33.512753066754549 ], [ 130.531681977706967, 33.512754890143242 ], [ 130.531668085793314, 33.512765651222161 ], [ 130.531627042954284, 33.512789835684693 ], [ 130.531602458095364, 33.512802810263835 ], [ 130.531544918445093, 33.512829538621574 ], [ 130.531479235892874, 33.512853314546021 ], [ 130.531391752738585, 33.512888736437304 ], [ 130.531392920705144, 33.512890359955222 ], [ 130.531359261685509, 33.512901892583656 ], [ 130.530988295081102, 33.513029129031551 ], [ 130.530981386973536, 33.513031498162718 ], [ 130.530033935129552, 33.51292406047807 ], [ 130.529667245606447, 33.512881783895224 ], [ 130.528922477179037, 33.512804476018218 ], [ 130.528209783969913, 33.512728729178171 ], [ 130.528691454321915, 33.513512805404432 ], [ 130.528856402068499, 33.513771220718752 ], [ 130.529133150334303, 33.514217971007454 ], [ 130.52940928921501, 33.514708040741496 ], [ 130.529412164774982, 33.514712946401474 ], [ 130.529985538224338, 33.51568883223365 ], [ 130.530024548776936, 33.515753329422076 ], [ 130.530299126418811, 33.516206935547331 ], [ 130.530470098921313, 33.516566179325643 ], [ 130.530374996968106, 33.516571279452364 ], [ 130.530106243996784, 33.516580694168397 ], [ 130.529945393487566, 33.516574275518565 ], [ 130.529721872467718, 33.516578645942154 ], [ 130.529718761084325, 33.516578704649078 ], [ 130.529551097636357, 33.516580220032452 ], [ 130.529303487180357, 33.516591366041993 ], [ 130.528935274439561, 33.51662618317345 ], [ 130.528602293964894, 33.516677583475897 ], [ 130.528479078081631, 33.516694657087633 ], [ 130.528379428081081, 33.516716223628649 ], [ 130.528294117380256, 33.51674552336862 ], [ 130.528227205937014, 33.516770524565089 ], [ 130.528168223576188, 33.516775760238197 ], [ 130.528102668583841, 33.516790869577179 ], [ 130.5280475018142, 33.516821410369467 ], [ 130.527730043879274, 33.516910164229742 ], [ 130.527809774430722, 33.517049243891236 ], [ 130.528198433483396, 33.517727088726588 ], [ 130.528795253477824, 33.518746354949428 ], [ 130.52852038255412, 33.518812908332329 ], [ 130.528179175144487, 33.518867973010771 ], [ 130.52816340835659, 33.519014860286262 ], [ 130.528167514153239, 33.519188417278535 ], [ 130.528158925278802, 33.519376717384297 ], [ 130.528168260566162, 33.519516444417683 ], [ 130.528190333498088, 33.51964139216755 ], [ 130.528239041820115, 33.519739987112402 ], [ 130.528331932301739, 33.519856748928468 ], [ 130.528405461914247, 33.51993011288311 ], [ 130.528435199409614, 33.519959777455931 ], [ 130.528524218022113, 33.520038412715223 ], [ 130.528592013693441, 33.520083541923213 ], [ 130.528642546343832, 33.520117158676207 ], [ 130.528819023651039, 33.520189783847677 ], [ 130.528940207839895, 33.520207184197318 ], [ 130.529021049118086, 33.520211715215886 ], [ 130.529084186912115, 33.52021618095155 ], [ 130.529154916743522, 33.520216448144829 ], [ 130.529205474161557, 33.520214525239261 ], [ 130.529240883434909, 33.520206206797333 ], [ 130.529311655968741, 33.520206474062014 ], [ 130.529397645665085, 33.520191969729566 ], [ 130.529453328630041, 33.520175237063583 ], [ 130.529589948380391, 33.520137678293629 ], [ 130.529783593268348, 33.520075960318742 ], [ 130.529795471876923, 33.520072378361675 ], [ 130.529918968998487, 33.5200352259479 ], [ 130.53000243539546, 33.520020713317741 ], [ 130.530106075300637, 33.520008423018389 ], [ 130.530229995311345, 33.519994062718553 ], [ 130.530366442755195, 33.519988236343764 ], [ 130.530510410269784, 33.519999344157227 ], [ 130.530623956376417, 33.520029394021506 ], [ 130.530734811799363, 33.520082751182194 ], [ 130.530801541986961, 33.520130586220127 ], [ 130.530849123786169, 33.520204838318087 ], [ 130.530876405804406, 33.520300180786428 ], [ 130.530860618184363, 33.520420757332019 ], [ 130.530798120198625, 33.520531647553959 ], [ 130.53072166345234, 33.520649846032093 ], [ 130.530564405905636, 33.52076354983879 ], [ 130.531202657801771, 33.521188157863193 ], [ 130.531398187556789, 33.521315798121421 ], [ 130.531693955312761, 33.521446068995068 ], [ 130.531982445271836, 33.521600579302088 ], [ 130.532181518484862, 33.521702907076268 ], [ 130.532388185436844, 33.521801037499962 ], [ 130.532587262170495, 33.521894910285283 ], [ 130.532663520559538, 33.521946444349688 ], [ 130.532766006738115, 33.522016216610801 ], [ 130.532816098709418, 33.522101041882671 ], [ 130.532856033376788, 33.522190092581411 ], [ 130.532870772489161, 33.522272673636429 ], [ 130.532933513627768, 33.522351207416726 ], [ 130.533009881035127, 33.522406157139351 ], [ 130.533146164858749, 33.522509692829239 ], [ 130.533241534791557, 33.522628536518567 ], [ 130.533281172352645, 33.522781057229253 ], [ 130.533317595944823, 33.523054198114764 ], [ 130.533318341078711, 33.523150499091301 ], [ 130.533317830318168, 33.523245737050054 ], [ 130.533322457352085, 33.523324052995505 ], [ 130.533364832652381, 33.52343639392938 ], [ 130.533408422743264, 33.523549761941219 ], [ 130.533412890841873, 33.523657733703757 ], [ 130.53338961577424, 33.523763453571718 ], [ 130.533353479759, 33.523898781673928 ], [ 130.533325138205328, 33.524000255896937 ], [ 130.533306739076465, 33.524137730160973 ], [ 130.533298703466471, 33.52422448717499 ], [ 130.533313456541549, 33.524296499974938 ], [ 130.533344829644165, 33.524335749186108 ], [ 130.533396349350539, 33.524389902329865 ], [ 130.533492003496804, 33.524455879778884 ], [ 130.533575178885144, 33.524496379571531 ], [ 130.533703653921833, 33.524566706392847 ], [ 130.533784226864157, 33.524622023695564 ], [ 130.533842049704873, 33.524677293245574 ], [ 130.533876735188983, 33.524757447534192 ], [ 130.533871508266685, 33.52483822571071 ], [ 130.533875987101197, 33.524944050060363 ], [ 130.533898227568073, 33.525039374804102 ], [ 130.533938107766431, 33.525138990538963 ], [ 130.533987196126816, 33.525183977190153 ], [ 130.534068991157795, 33.525238946689143 ], [ 130.534184931599214, 33.525294397702723 ], [ 130.534308418946466, 33.525354137597262 ], [ 130.534513883806056, 33.525442715268206 ], [ 130.534591173144861, 33.525475302701409 ], [ 130.53465508729002, 33.525500407716407 ], [ 130.534877978135796, 33.525633499611587 ], [ 130.535040809605647, 33.52573621631435 ], [ 130.535183762462225, 33.525860026045905 ], [ 130.535266679294523, 33.525949236652963 ], [ 130.535346892270297, 33.526072283859655 ], [ 130.535371556665751, 33.526186637941805 ], [ 130.535384512269331, 33.526359167639207 ], [ 130.535391031150368, 33.526556013404949 ], [ 130.535363728251667, 33.526707224945525 ], [ 130.53533147306743, 33.526833022891374 ], [ 130.535280358912104, 33.526938639744856 ], [ 130.535219196839307, 33.527035766328225 ], [ 130.535122689807793, 33.527128532101592 ], [ 130.53499460966998, 33.527211636414307 ], [ 130.534862903866042, 33.527272536593834 ], [ 130.534769214019292, 33.527310261104425 ], [ 130.534677888675873, 33.527377652994417 ], [ 130.534626909396252, 33.527457874432443 ], [ 130.534622287800801, 33.527488604359817 ], [ 130.534616442691942, 33.527527680091715 ], [ 130.53463365258952, 33.527612383545289 ], [ 130.534678588992108, 33.52771839318347 ], [ 130.534761484423456, 33.527811830579353 ], [ 130.534831993497875, 33.527854395683661 ], [ 130.53493793878792, 33.527884413166007 ], [ 130.535046515937665, 33.527901759897929 ], [ 130.535161554615428, 33.52789056666947 ], [ 130.535250255865947, 33.527842220874845 ], [ 130.535344059534538, 33.527783290570071 ], [ 130.535427622219771, 33.527751868389657 ], [ 130.535495880197999, 33.527743669190755 ], [ 130.535564054761295, 33.527758716198612 ], [ 130.53560927882782, 33.527803336197181 ], [ 130.535636861348166, 33.5278436631937 ], [ 130.535686791426741, 33.52796022248522 ], [ 130.535701500247143, 33.528040723940222 ], [ 130.535678217058972, 33.528140103642642 ], [ 130.535652498558989, 33.528230987947715 ], [ 130.535652114355912, 33.528302944572388 ], [ 130.53570484025866, 33.528360271030067 ], [ 130.535790633676328, 33.528383871751792 ], [ 130.535894199824781, 33.528394860005037 ], [ 130.536022987731855, 33.528408019118125 ], [ 130.536128964312411, 33.528440183200601 ], [ 130.536163919426087, 33.528454648018815 ], [ 130.536237417311355, 33.528544245225802 ], [ 130.536264964954626, 33.528630886580942 ], [ 130.536263447702794, 33.528710235051264 ], [ 130.53624480767553, 33.528775078921775 ], [ 130.536213171977067, 33.528848011109091 ], [ 130.536145896272359, 33.528947860110257 ], [ 130.536088525494534, 33.529004422935948 ], [ 130.536020482578266, 33.529051085036244 ], [ 130.535939539847419, 33.529087730225747 ], [ 130.535811161655488, 33.529131455261954 ], [ 130.535772347850809, 33.52914663191963 ], [ 130.535716123523144, 33.529185201178301 ], [ 130.535690031596971, 33.529235575771963 ], [ 130.535687573872735, 33.529294175216364 ], [ 130.535749695720938, 33.52957691867627 ], [ 130.535720903262728, 33.529613195691304 ], [ 130.535903967178115, 33.529898044899312 ], [ 130.535952471132816, 33.530021677134606 ], [ 130.535983403530309, 33.530112311190344 ], [ 130.536079925710396, 33.530261657407529 ], [ 130.536190140193867, 33.530414331831452 ], [ 130.536247726047037, 33.530491081643284 ], [ 130.536315640530802, 33.530555438357894 ], [ 130.536398481437089, 33.530596956636664 ], [ 130.536468746837045, 33.530606798003795 ], [ 130.536529152893422, 33.530588603158499 ], [ 130.536624637994407, 33.530585577357499 ], [ 130.536697575608571, 33.530583277663517 ], [ 130.536845491572222, 33.530606369867485 ], [ 130.536894539667657, 33.530620251872854 ], [ 130.536926118469154, 33.530629211605522 ], [ 130.537114288056358, 33.530674995018842 ], [ 130.537248626464049, 33.530720578056311 ], [ 130.537423218622678, 33.530788852337125 ], [ 130.537583394608532, 33.530879156196796 ], [ 130.53766474073899, 33.530925000373891 ], [ 130.537731730462127, 33.530981603655029 ], [ 130.537910896531486, 33.531186482932341 ], [ 130.538042741237234, 33.53148786899925 ], [ 130.538131304367653, 33.531679628497777 ], [ 130.538182441874824, 33.531822851908196 ], [ 130.538217072645296, 33.531922552304358 ], [ 130.538256704228729, 33.532030688649606 ], [ 130.538344328763912, 33.532201134406584 ], [ 130.538383403558072, 33.532295496475399 ], [ 130.538571599514029, 33.532646084866897 ], [ 130.538677919530272, 33.532804940870918 ], [ 130.538759600082386, 33.5328753703362 ], [ 130.538910680477159, 33.532960778990429 ], [ 130.53906244663952, 33.533083348223769 ], [ 130.539164647183753, 33.53322605768561 ], [ 130.539192637107277, 33.533317315326336 ], [ 130.539203574697467, 33.533467433304843 ], [ 130.539213715474517, 33.533601383829541 ], [ 130.539240027514666, 33.533699644342434 ], [ 130.539316105637056, 33.533875223821461 ], [ 130.539273071315591, 33.533940259052144 ], [ 130.539287510759124, 33.53405672036677 ], [ 130.539338748518418, 33.534181735892545 ], [ 130.53943776946042, 33.534297769042354 ], [ 130.539615823873618, 33.534515815632901 ], [ 130.53981002757132, 33.534655061732899 ], [ 130.539826692669919, 33.534478311044616 ], [ 130.539806385504676, 33.534246653482001 ], [ 130.539790142886034, 33.534033748279413 ], [ 130.539675827182123, 33.533573649071116 ], [ 130.539550837458592, 33.533096005715677 ], [ 130.539023050479614, 33.53099544329681 ], [ 130.538654330134875, 33.529491595156749 ], [ 130.538567679843482, 33.529130042610717 ], [ 130.538530491101511, 33.528799173019699 ], [ 130.538513760767216, 33.528520402064494 ], [ 130.53856126029217, 33.528152405622109 ], [ 130.53859082786775, 33.52804089719443 ], [ 130.538667474876974, 33.527790857824442 ], [ 130.538761247953886, 33.527594315284261 ], [ 130.538887288013825, 33.527395777203736 ], [ 130.539029086551153, 33.527199410670008 ], [ 130.539249705553573, 33.526969311226637 ], [ 130.539475831361756, 33.526787099040774 ], [ 130.539742490201974, 33.526614088914243 ], [ 130.539965026622355, 33.526490084584914 ], [ 130.540242081333048, 33.526378785010237 ], [ 130.540528130325526, 33.526300097819451 ], [ 130.54094566633546, 33.526240634041613 ], [ 130.541135350081845, 33.526221222058233 ], [ 130.541638667870444, 33.526227232734627 ], [ 130.541794315538937, 33.526226431429677 ], [ 130.541867306370307, 33.526197572008577 ], [ 130.541913984477901, 33.526133956774721 ], [ 130.541985618929374, 33.526051026030714 ], [ 130.542033776104716, 33.526026230252235 ], [ 130.542128100941909, 33.526034924775402 ], [ 130.542204142041101, 33.526057358458559 ], [ 130.542290087093761, 33.526084019916006 ], [ 130.542371988082351, 33.526096120329008 ], [ 130.542500996075518, 33.526122941558548 ], [ 130.542641620444783, 33.526140117633297 ], [ 130.542653817073642, 33.526139704549514 ], [ 130.542806418627009, 33.526134454474736 ], [ 130.542935688880249, 33.526111364502199 ], [ 130.542984347442768, 33.526102914289261 ], [ 130.54309888184963, 33.526083010478942 ], [ 130.543050945527625, 33.525761646700225 ], [ 130.543049224209142, 33.525720888035202 ], [ 130.543045779718057, 33.525640288119064 ], [ 130.543062977026153, 33.525512319993268 ], [ 130.543100987739876, 33.52536938737596 ], [ 130.543110934557291, 33.525349029819324 ], [ 130.54328509895106, 33.524992905723096 ], [ 130.543303298934063, 33.524834157811469 ], [ 130.543390932260849, 33.524699296868846 ], [ 130.543391674104043, 33.524557847680647 ], [ 130.543418960586536, 33.524406811466534 ], [ 130.543500776656998, 33.524273972546396 ], [ 130.543503586977266, 33.524219212716424 ], [ 130.543400033996733, 33.524070441728831 ], [ 130.543319749938036, 33.523910696865101 ], [ 130.543266421236325, 33.523815509230396 ], [ 130.543248576852847, 33.523746125837199 ], [ 130.543256093186443, 33.523579730209974 ], [ 130.543263437427839, 33.523438304666499 ], [ 130.543099142234126, 33.523437386333839 ], [ 130.542902209834381, 33.523324692095947 ], [ 130.54282277199556, 33.523284740954075 ], [ 130.542800502429998, 33.523217032973925 ], [ 130.542893702965245, 33.523102868675963 ], [ 130.542966716228023, 33.522932697152463 ], [ 130.542966195758481, 33.522623411133083 ], [ 130.542979895372042, 33.522472887519072 ], [ 130.543030323132342, 33.522295448843956 ], [ 130.543045498063492, 33.522072197267207 ], [ 130.542774854901808, 33.52183102400992 ], [ 130.542726266891663, 33.521786360124338 ], [ 130.542669019980082, 33.521764804686249 ], [ 130.542607444204776, 33.521759224639169 ], [ 130.542541534420678, 33.521769654630653 ], [ 130.542411843350919, 33.521794080307366 ], [ 130.54235019259113, 33.52180276420993 ], [ 130.542295006460648, 33.521797242727892 ], [ 130.542239854269866, 33.521777457542449 ], [ 130.542067485824759, 33.521640725058539 ], [ 130.541938357853951, 33.521558393354489 ], [ 130.541906772600356, 33.521503118895829 ], [ 130.541882226725903, 33.521325123347644 ], [ 130.541839986223977, 33.521073235682906 ], [ 130.541834019093869, 33.521000269508789 ], [ 130.54181321021855, 33.520911222123885 ], [ 130.541777382760728, 33.520863046286756 ], [ 130.541675804316526, 33.520787967963848 ], [ 130.541578605812987, 33.520695081152894 ], [ 130.541547124726463, 33.520620258746938 ], [ 130.541496553181702, 33.52054533186206 ], [ 130.541460490470797, 33.520462110807671 ], [ 130.54144724713089, 33.52038189671724 ], [ 130.541424797766808, 33.52010116503083 ], [ 130.541401628936512, 33.51994934258294 ], [ 130.541355428274869, 33.519915007312811 ], [ 130.541192343212941, 33.519829026878654 ], [ 130.541162758710129, 33.519793342265537 ], [ 130.541130958437577, 33.51963564256905 ], [ 130.541107120663384, 33.519546935068341 ], [ 130.541077589754821, 33.519437178910287 ], [ 130.541080367426076, 33.519309086604331 ], [ 130.541136282253461, 33.51917587176365 ], [ 130.54115366411807, 33.519101229065491 ], [ 130.541136416914924, 33.518974893344485 ], [ 130.541109859478809, 33.518851552377768 ], [ 130.541021382768832, 33.518524892310147 ], [ 130.54097428186725, 33.518438107663947 ], [ 130.540862176537985, 33.518230446461097 ], [ 130.540784552190559, 33.518110756614313 ], [ 130.540726543554399, 33.517979409597721 ], [ 130.540716357302472, 33.517909457003071 ], [ 130.540644248076859, 33.517677040009559 ], [ 130.540593428227567, 33.517514126773371 ], [ 130.540469248601596, 33.517204592479054 ], [ 130.540311053358835, 33.516727522676241 ], [ 130.540203010380736, 33.516539809747975 ], [ 130.540103056751008, 33.516412992828599 ], [ 130.539867098996353, 33.516098360698457 ], [ 130.539682496496738, 33.515852987884493 ], [ 130.539658046405663, 33.515721764390229 ], [ 130.539639335256851, 33.515562491108192 ], [ 130.53960617664498, 33.51548741647234 ], [ 130.539489880921877, 33.515278610336857 ], [ 130.539508782673124, 33.515139340587787 ], [ 130.539565462319104, 33.514996724875765 ], [ 130.539621900872959, 33.514891584175146 ], [ 130.539633382166869, 33.514835411439243 ], [ 130.539619918266595, 33.514741706710637 ], [ 130.539648121996947, 33.514687955251311 ], [ 130.539833356884429, 33.514550500622931 ], [ 130.539845490685337, 33.514482460944073 ], [ 130.539855003706009, 33.514464636833608 ], [ 130.539552684882949, 33.51435971834244 ], [ 130.539397758814999, 33.514276160101389 ], [ 130.539272772145125, 33.51419232684556 ], [ 130.539126292718038, 33.514094076635494 ], [ 130.538879431643267, 33.513934730071078 ], [ 130.538697440126526, 33.513856741775129 ], [ 130.538539518582269, 33.512736616849168 ], [ 130.538381323211695, 33.512588481938835 ], [ 130.538275420557255, 33.512450898143683 ], [ 130.538192789997339, 33.512230486352486 ], [ 130.538147340386672, 33.512182450298994 ], [ 130.53798743040403, 33.512175481043137 ], [ 130.537768571242395, 33.512160331476693 ], [ 130.537616391862031, 33.512131023231198 ], [ 130.537525372026977, 33.512057317458144 ], [ 130.537514452226532, 33.511967953017134 ], [ 130.537530148074978, 33.511878722329321 ], [ 130.537496067176136, 33.511843478252452 ], [ 130.537419887918446, 33.511849569853936 ], [ 130.537297605503085, 33.511922517228328 ], [ 130.537190893285526, 33.511938041869371 ], [ 130.536930199278032, 33.511906779204622 ], [ 130.536680786622071, 33.51188129764472 ], [ 130.536450836516991, 33.511825247513862 ], [ 130.536351937809457, 33.511802546923491 ], [ 130.536268003529074, 33.511827735709353 ], [ 130.536004424885533, 33.51198306665345 ], [ 130.535942478968423, 33.512016614609578 ], [ 130.535871697163401, 33.512043400956848 ], [ 130.535784180340272, 33.512062482033379 ], [ 130.535738923622006, 33.512057135229405 ], [ 130.535662689296942, 33.512065479793129 ], [ 130.53559267844588, 33.512073847025206 ], [ 130.535493791088214, 33.512080380907221 ], [ 130.535409515084808, 33.51205935557082 ], [ 130.535351993551075, 33.512028109540488 ], [ 130.535312191005431, 33.511970160761749 ], [ 130.535263112637921, 33.511901011775606 ], [ 130.535214004128818, 33.511845633497835 ], [ 130.535162769545622, 33.511802330165395 ], [ 130.53510730350186, 33.511779685585388 ], [ 130.535049739536873, 33.511763938414646 ], [ 130.535008630297625, 33.511753466048368 ], [ 130.535012994740498, 33.511700014215599 ], [ 130.535087612901492, 33.511608889337488 ], [ 130.535131641744783, 33.511560412532994 ], [ 130.535225066992467, 33.511513669973745 ], [ 130.535274719933767, 33.511467290686767 ], [ 130.535291420768772, 33.511425967448218 ], [ 130.535299923175046, 33.511369080478637 ], [ 130.535284088269833, 33.511255182580655 ], [ 130.535261930293217, 33.51116024531963 ], [ 130.535270612476182, 33.5110774700387 ], [ 130.535331509586626, 33.510877282651073 ], [ 130.535400537342781, 33.510650250997671 ], [ 130.535449155384384, 33.510379220146653 ], [ 130.535483590509614, 33.510363535207034 ], [ 130.535627736497929, 33.510297926123819 ], [ 130.535715539607168, 33.510296140503051 ], [ 130.535783181737514, 33.510321647781325 ], [ 130.535842999145814, 33.510395415618895 ], [ 130.535920392743407, 33.510469284319797 ], [ 130.536005647044135, 33.510480098560002 ], [ 130.536096127929, 33.51044891365774 ], [ 130.536201827721897, 33.51038626043016 ], [ 130.536354551594059, 33.510217622549199 ], [ 130.536475783405109, 33.510064646579067 ], [ 130.536551501588718, 33.509978740108274 ], [ 130.536688261855232, 33.509743824317994 ], [ 130.536832438342771, 33.509521580887785 ], [ 130.537109956037568, 33.509240941623169 ], [ 130.537278752545376, 33.509109170026399 ], [ 130.537376374716473, 33.509055291950027 ], [ 130.537467262919222, 33.509042105171488 ], [ 130.537630448026448, 33.509032709242796 ], [ 130.537768439402129, 33.50903322300509 ], [ 130.537868655681706, 33.509060893870675 ], [ 130.537966181739705, 33.50912011383047 ], [ 130.538023519996017, 33.509193907120419 ], [ 130.538078068915837, 33.509318126692101 ], [ 130.538147947938057, 33.509389853220647 ], [ 130.538156388930275, 33.509590687513629 ], [ 130.538298201701878, 33.50960805110747 ], [ 130.538528589251001, 33.509636239411066 ], [ 130.53853160264552, 33.509678658800645 ], [ 130.53852621987329, 33.509877890758546 ], [ 130.538565154317439, 33.510052985099648 ], [ 130.538681124433083, 33.510099380468091 ], [ 130.538890100326881, 33.510074022157376 ], [ 130.539042251477809, 33.509997026970566 ], [ 130.539174423709596, 33.509841518015136 ], [ 130.539432607131289, 33.509454749008803 ], [ 130.539601327635438, 33.509304799450163 ], [ 130.540103628989954, 33.508964934945858 ], [ 130.54081587450105, 33.508614115647923 ], [ 130.540921459014641, 33.50859647229116 ], [ 130.540996679686259, 33.508620172631815 ], [ 130.541247560030484, 33.508805066126683 ], [ 130.541446243168878, 33.508889628393497 ], [ 130.541626982590742, 33.508908329510291 ], [ 130.541829655703651, 33.508849587729465 ], [ 130.541928954624865, 33.50879585276153 ], [ 130.542091183023871, 33.50885685724365 ], [ 130.542227122641691, 33.508999832344337 ], [ 130.542254729322735, 33.509275829157659 ], [ 130.54235377003306, 33.509479990454871 ], [ 130.542479373339347, 33.509541775134181 ], [ 130.542689446121301, 33.509507361382632 ], [ 130.542851592649271, 33.509375417260117 ], [ 130.543057275997597, 33.508942483946512 ], [ 130.543253431057991, 33.508690732958165 ], [ 130.543418850448973, 33.508551579698626 ], [ 130.543531758190994, 33.508363520362614 ], [ 130.543556961677808, 33.508070564411419 ], [ 130.543571362382124, 33.507993973870413 ], [ 130.543624420711723, 33.507938271859842 ], [ 130.543702865087084, 33.507956593956514 ], [ 130.543946811717632, 33.508036845881634 ], [ 130.544098209915802, 33.508102316398478 ], [ 130.544211988690876, 33.508165852286595 ], [ 130.544369141925785, 33.508160124345906 ], [ 130.54435830074712, 33.507973442273837 ], [ 130.544402389088305, 33.507775232803027 ], [ 130.544412478453921, 33.507541815618787 ], [ 130.544458830515907, 33.507272291190993 ], [ 130.544757962184235, 33.506460953447188 ], [ 130.544743484081067, 33.506350902050585 ], [ 130.544781531090905, 33.506278906592854 ], [ 130.544862447283066, 33.506242219515492 ], [ 130.545019728689539, 33.506211237119615 ], [ 130.545163087688763, 33.506173018738281 ], [ 130.545245148487254, 33.506126402969642 ], [ 130.545318895966261, 33.50602118279194 ], [ 130.545363145479143, 33.505791414627623 ], [ 130.545564279628451, 33.505194325586231 ], [ 130.545781275144861, 33.504651431388176 ], [ 130.545830655797204, 33.504469442594051 ], [ 130.54586459442541, 33.504257282870213 ], [ 130.545940539953904, 33.504036154894038 ], [ 130.546039487008386, 33.503636146167317 ], [ 130.546125642913154, 33.503407905375894 ], [ 130.546186596911639, 33.503368784124028 ], [ 130.546303692888216, 33.503302960111903 ], [ 130.54637504373062, 33.503350559618625 ], [ 130.546438877158067, 33.50338865683608 ], [ 130.546544196909537, 33.503420600905322 ], [ 130.546638231013219, 33.503439858336428 ], [ 130.546706093961348, 33.503430667341753 ], [ 130.546811627476671, 33.503421578160513 ], [ 130.546924774847952, 33.503387261873826 ], [ 130.547038160398188, 33.503315118883037 ], [ 130.547076157624105, 33.503252139427232 ], [ 130.547089775837861, 33.503171706369919 ], [ 130.547074913293528, 33.503127483986695 ], [ 130.547063988757003, 33.503061155322222 ], [ 130.54710610501607, 33.502925633643542 ], [ 130.547347188227064, 33.502948140080584 ], [ 130.547329322193377, 33.502825958902136 ], [ 130.547267837041886, 33.502780897165771 ], [ 130.547276190662132, 33.502678394671364 ], [ 130.547333864839032, 33.502606646722334 ], [ 130.547465084681846, 33.502581377004866 ], [ 130.547489854437316, 33.502555650591539 ], [ 130.547485510249317, 33.502497690344541 ], [ 130.547483091289848, 33.502465422371699 ], [ 130.547775610269241, 33.502305101310839 ], [ 130.547784628293101, 33.502073972015054 ], [ 130.54773064531048, 33.501936336930655 ], [ 130.547681334186223, 33.501651700828511 ], [ 130.547404788203238, 33.501537170922425 ], [ 130.547161119205782, 33.50141416532319 ], [ 130.546982104232654, 33.50130083662971 ], [ 130.546945322349814, 33.501259421234366 ], [ 130.546953698518735, 33.500836362860795 ], [ 130.546957241054628, 33.500575308010049 ], [ 130.546958691342439, 33.50046573966879 ], [ 130.5469512251249, 33.500324679226111 ], [ 130.546844472955456, 33.500123910265245 ], [ 130.546757043166593, 33.499967098745259 ], [ 130.546750651306297, 33.49994337025084 ], [ 130.546727112047449, 33.499855858154142 ], [ 130.546716747327167, 33.499817327287481 ], [ 130.546635209007377, 33.499513447944807 ], [ 130.546543761317821, 33.499329076591785 ], [ 130.54650119103087, 33.499220577724493 ], [ 130.546385757777358, 33.499121253959181 ], [ 130.546327693114051, 33.499076707614947 ], [ 130.546252850197988, 33.499019289917655 ], [ 130.546250842232098, 33.498993358977089 ], [ 130.54624899085988, 33.498969401056634 ], [ 130.546533663194566, 33.498456584229785 ], [ 130.546492511860293, 33.498131825242503 ], [ 130.546477846715447, 33.497993313938295 ], [ 130.546492778129391, 33.497878155995707 ], [ 130.546507283736275, 33.497772754712841 ], [ 130.546512791671802, 33.49768348586931 ], [ 130.546503587810037, 33.497618185869513 ], [ 130.546465764275013, 33.49749452292685 ], [ 130.546445196105708, 33.497439922460515 ], [ 130.546404765013563, 33.497364786233064 ], [ 130.54631605195155, 33.497301871442332 ], [ 130.546238478252036, 33.497238963254752 ], [ 130.546192694140814, 33.497182862036041 ], [ 130.546165962720465, 33.497125492142004 ], [ 130.546137264555284, 33.49698488588173 ], [ 130.546113739478898, 33.496924851921619 ], [ 130.546077387839802, 33.496882099222411 ], [ 130.545993452708956, 33.496821877998386 ], [ 130.545847164414369, 33.496706834142465 ], [ 130.545834352741906, 33.496696749371957 ], [ 130.545781880699877, 33.496641575545077 ], [ 130.545769545846412, 33.496628603736433 ], [ 130.545733374856553, 33.496551192838751 ], [ 130.545723618408744, 33.496487192821419 ], [ 130.545719552262653, 33.496460585076456 ], [ 130.545816417761529, 33.496313923503209 ], [ 130.545848367626604, 33.496265467998384 ], [ 130.545780397607274, 33.496231652485697 ], [ 130.545765647017134, 33.496158056442212 ], [ 130.545738904372797, 33.496053979397892 ], [ 130.545645798292981, 33.49590658480659 ], [ 130.545507171078128, 33.495781811926733 ], [ 130.545250932783091, 33.49555773917146 ], [ 130.544929668211438, 33.494743803219464 ], [ 130.544840141669027, 33.494652036885043 ], [ 130.544721745449124, 33.494550302038334 ], [ 130.544685210586323, 33.494583135296118 ], [ 130.544174918506116, 33.49497441035065 ], [ 130.544112211740185, 33.494979427657377 ], [ 130.543983613993959, 33.494971558598607 ], [ 130.543959702193462, 33.494970096323662 ], [ 130.543736541082637, 33.4948852324911 ], [ 130.54360717250745, 33.494847984638383 ], [ 130.543490175521384, 33.494840544117508 ], [ 130.543318829462976, 33.494839912332303 ], [ 130.543161362345501, 33.494773676818262 ], [ 130.542999533281971, 33.494689777403941 ], [ 130.542903421623208, 33.494563502789248 ], [ 130.542886721360503, 33.494541533845847 ], [ 130.542892146024769, 33.494308697969494 ], [ 130.542902435565537, 33.494166260973003 ], [ 130.542906784561126, 33.494106503357884 ], [ 130.542815684613146, 33.493946820902828 ], [ 130.542795085845768, 33.493890706370422 ], [ 130.542802257726521, 33.493717401827233 ], [ 130.542816978917585, 33.493499463587938 ], [ 130.542788107300396, 33.493425812887423 ], [ 130.542716434884085, 33.49324901560184 ], [ 130.54270352769575, 33.493217124001738 ], [ 130.54267800044633, 33.493098858679744 ], [ 130.542665970121419, 33.493004243965295 ], [ 130.542570180524763, 33.492937352323814 ], [ 130.542523575091309, 33.492918440525486 ], [ 130.542370002607782, 33.492856093918562 ], [ 130.542186697304942, 33.492739814817341 ], [ 130.542067882621922, 33.492686858254878 ], [ 130.54185294294922, 33.492623049827785 ], [ 130.541648041723164, 33.492561179094551 ], [ 130.541515176174727, 33.492490812273282 ], [ 130.54149673424368, 33.492263873030964 ], [ 130.541745330384231, 33.492267813545013 ], [ 130.541766024897555, 33.4922681406252 ], [ 130.541885151576736, 33.492261574262905 ], [ 130.542140591135762, 33.492169742247206 ], [ 130.542217979319645, 33.492154249004891 ], [ 130.542335009228395, 33.492154682111234 ], [ 130.542516642899557, 33.492188639374312 ], [ 130.542692114497271, 33.492203272177711 ], [ 130.542797706357987, 33.492188798645905 ], [ 130.542841774853059, 33.492153950365484 ], [ 130.542841903571713, 33.492129401302705 ], [ 130.542804976612331, 33.492004964560181 ], [ 130.542964201674693, 33.491926760892348 ], [ 130.542987154257844, 33.49192684571485 ], [ 130.54293827044657, 33.491652879421281 ], [ 130.542842551420762, 33.49161286557824 ], [ 130.542773699474992, 33.491588131353822 ], [ 130.542673381865143, 33.491591246292238 ], [ 130.542528865806929, 33.491653760586814 ], [ 130.542409470355068, 33.491704076689032 ], [ 130.542317507937611, 33.491708982855627 ], [ 130.542213069197771, 33.491696338261761 ], [ 130.541979505422091, 33.491609671751512 ], [ 130.541904600379183, 33.491576813945741 ], [ 130.541872682138461, 33.491522734714003 ], [ 130.541862600909297, 33.49150564963697 ], [ 130.541271628014869, 33.491348548399102 ], [ 130.541252610617391, 33.49134347732798 ], [ 130.540882866138787, 33.490726624594167 ], [ 130.540509417083541, 33.490933156194252 ], [ 130.540445775483732, 33.490948452254663 ], [ 130.540197918119446, 33.49098190679144 ], [ 130.539833184441591, 33.491081534712315 ], [ 130.539722997101961, 33.491131069744647 ], [ 130.539497908487704, 33.491310361000195 ], [ 130.53946232211689, 33.491338721971808 ], [ 130.539249514376877, 33.491508830864582 ], [ 130.539052782802941, 33.491643459145095 ], [ 130.538824386931708, 33.491764266916974 ], [ 130.538811108017711, 33.491771295516159 ], [ 130.538523135289495, 33.491877863076844 ], [ 130.538194174620799, 33.491976527461226 ], [ 130.537960682973988, 33.492051100946838 ], [ 130.537866508840068, 33.492171987082877 ], [ 130.537789984401002, 33.49227018300315 ], [ 130.537593342710409, 33.492387093891068 ], [ 130.537528286547399, 33.492423447190205 ], [ 130.537297577841599, 33.492519587560125 ], [ 130.537074326428751, 33.492612621746666 ], [ 130.536910927968222, 33.492699291882019 ], [ 130.536880617557415, 33.492715345711552 ], [ 130.536739301827225, 33.492728342202795 ], [ 130.53651483324947, 33.49272595055232 ], [ 130.536556097373477, 33.492926734647796 ], [ 130.536587019883939, 33.492993351259052 ], [ 130.536427594680106, 33.493107687422714 ], [ 130.536321288158774, 33.49317692420712 ], [ 130.535956039493271, 33.493433879284076 ], [ 130.535338477358238, 33.493832365604788 ], [ 130.535095955139184, 33.493974638207824 ], [ 130.534865481831872, 33.49414232292893 ], [ 130.534679266902629, 33.494272483777529 ], [ 130.534568190426143, 33.494344664742691 ], [ 130.534324464590384, 33.494474785744579 ], [ 130.534017934599035, 33.494651095708228 ], [ 130.533926090355664, 33.494727327738367 ], [ 130.533948893372525, 33.494834102741748 ], [ 130.533995075677694, 33.494908490571291 ], [ 130.534099038491206, 33.495011235426496 ], [ 130.534165986356413, 33.495086086350881 ], [ 130.534209059752129, 33.495136649820822 ], [ 130.534244935586827, 33.495173098534664 ], [ 130.534255087398435, 33.495185076814948 ], [ 130.534292770061569, 33.495229703333486 ], [ 130.534359890039497, 33.495280356374479 ], [ 130.534381867456005, 33.495345072201729 ], [ 130.534392530802336, 33.495410906563997 ], [ 130.534395184408851, 33.495449485698288 ], [ 130.534387217079512, 33.495571783938324 ], [ 130.534366742972992, 33.495682095122518 ], [ 130.534297507443199, 33.495901837134774 ], [ 130.534282765133554, 33.495962399638849 ], [ 130.534271160283737, 33.496010364162544 ], [ 130.534260074494114, 33.496062735087939 ], [ 130.534242279928065, 33.496112155878926 ], [ 130.534226205676021, 33.49616207674481 ], [ 130.53420577032901, 33.496202155358432 ], [ 130.534100107001535, 33.496386221257211 ], [ 130.534025146393219, 33.496457512775159 ], [ 130.533941945522542, 33.496489467349789 ], [ 130.533854442333279, 33.496516191774582 ], [ 130.533779522170818, 33.496540497517316 ], [ 130.533731049469822, 33.496556200863708 ] ] ] ] } }
]
}
