{
"type": "FeatureCollection",
"name": "嬉野",
"crs": { "type": "name", "properties": { "name": "urn:ogc:def:crs:OGC:1.3:CRS84" } },
"features": [
{ "type": "Feature", "properties": { "id": "嬉野.1", "Name": null, "description": null, "timestamp": null, "begin": null, "end": null, "altitudeMode": null, "tessellate": -1, "extrude": 0, "visibility": -1, "drawOrder": null, "icon": null, "KEY_CODE": "4120901821", "PREF": "41", "CITY": "209", "K_AREA": "009004010", "S_AREA": "01821", "PREF_NAME": "佐賀県", "CITY_NAME": "嬉野市", "S_NAME": "大字岩屋川内上岩屋", "KIGO_E": null, "HCODE": 8101, "AREA": 1593945.491, "PERIMETER": 6416.159, "KIHON1": "0090", "DUMMY1": "-", "KIHON2": "04", "KIHON3": "010", "C1": 9, "C2": 182, "DUMMY2": "-", "C3": 1, "DUMMY3": null, "C4": 0, "KIGO_A": null, "KIGO_D": null, "N_KEN": null, "N_CITY": null, "N_C1": 0, "KIGO_I": null, "KEYCODE1": "2090182-1-00", "JINKO": 154, "SETAI": 44, "KEN_OLD": "41", "CITY_OLD": "209", "X_CODE": 129.972752, "Y_CODE": 33.078819, "KCODE1": "0090-04010", "CCODE1": "182-1" }, "geometry": { "type": "MultiPolygon", "coordinates": [ [ [ [ 129.987622322144006, 33.089421415487898 ], [ 129.989501310179008, 33.087880794843898 ], [ 129.990666841934996, 33.088255339099803 ], [ 129.990909779995008, 33.088020092980898 ], [ 129.991627575226005, 33.087810652652401 ], [ 129.994965607279994, 33.088171505679298 ], [ 129.996583460820005, 33.086518671106198 ], [ 129.997952000058007, 33.0847656617659 ], [ 129.999215469668002, 33.083595670642502 ], [ 129.999716253492011, 33.082620380852802 ], [ 130.000748254672004, 33.081899868574503 ], [ 130.001058241124014, 33.081250169944099 ], [ 130.001488626874988, 33.0808457390402 ], [ 130.001560581149988, 33.080134072647397 ], [ 130.003120364322001, 33.077993300150503 ], [ 130.003145835845004, 33.0768236954152 ], [ 130.003552532441006, 33.075897301679703 ], [ 130.003413817463013, 33.075101134343797 ], [ 130.003485985807998, 33.074368761338498 ], [ 130.003160984398988, 33.073947923135897 ], [ 130.001822196504008, 33.073740497606103 ], [ 130.001683311915002, 33.072960886824099 ], [ 130.002175309796996, 33.072542455265399 ], [ 130.00229881367801, 33.071628300565898 ], [ 130.003570737452009, 33.0703402971982 ], [ 130.003961149812994, 33.069542151927998 ], [ 130.004699042883999, 33.068912414888203 ], [ 130.004895459219995, 33.068222660772499 ], [ 130.00465897744499, 33.067222591345804 ], [ 130.00428374120699, 33.066695530813398 ], [ 130.004424983782997, 33.065496013586902 ], [ 130.004296711568003, 33.063333406559302 ], [ 130.003542321255992, 33.0621554872179 ], [ 130.00297068792301, 33.060576546178503 ], [ 130.003941318317999, 33.059837831286202 ], [ 130.004868073614006, 33.059657964330697 ], [ 130.006574195190012, 33.057632597510199 ], [ 130.007853651472999, 33.057025566742801 ], [ 130.010062661218996, 33.055143973075701 ], [ 130.010364828675989, 33.053168432232397 ], [ 130.011468012498995, 33.051506051243599 ], [ 130.012951486412987, 33.049554147283899 ], [ 130.015768552737001, 33.046464349473901 ], [ 130.016538990702998, 33.045386754562003 ], [ 130.017970572353988, 33.0447035479447 ], [ 130.018443146024993, 33.043803239535897 ], [ 130.018923257132002, 33.0425176817416 ], [ 130.01850546674001, 33.040630475392597 ], [ 130.019025329903002, 33.040048201710597 ], [ 130.018447914364003, 33.039473590933298 ], [ 130.017963285493011, 33.038265567768299 ], [ 130.018265108206009, 33.036524174545399 ], [ 130.017756813370994, 33.035156983903804 ], [ 130.016797908982994, 33.033579624579602 ], [ 130.016981924148013, 33.031020374643496 ], [ 130.015894156905006, 33.0264714309954 ], [ 130.016434390249003, 33.024846499780402 ], [ 130.018007351125988, 33.023757062977097 ], [ 130.023711250561007, 33.020818209614497 ], [ 130.02310399817199, 33.020174343762697 ], [ 130.020929132889989, 33.019415987946701 ], [ 130.018266835877995, 33.019099302199599 ], [ 130.017004475034014, 33.018041017826903 ], [ 130.016342073185996, 33.017707699079899 ], [ 130.015242178031002, 33.017457700999401 ], [ 130.012517322357013, 33.018565905308201 ], [ 130.010879881073009, 33.019599144863598 ], [ 130.010292442314011, 33.019532464006502 ], [ 130.009442512410999, 33.019040814921397 ], [ 130.008535911259003, 33.019458422093003 ], [ 130.007903350306009, 33.020037867661102 ], [ 130.006696283384002, 33.022927211738001 ], [ 130.005479523523007, 33.025012766732097 ], [ 130.004794180330009, 33.025320402226399 ], [ 130.00195602843101, 33.025503787946498 ], [ 130.000731918034006, 33.025754879914203 ], [ 129.999640288472989, 33.027452568092897 ], [ 129.998925271486996, 33.0292837600661 ], [ 129.999666933487987, 33.030573519244903 ], [ 129.99971532576501, 33.031226240397999 ], [ 129.998944051492003, 33.032276802904597 ], [ 129.997998501647999, 33.032830178639102 ], [ 129.996250746983009, 33.0357829074552 ], [ 129.994217811809989, 33.037099847284303 ], [ 129.993134108432997, 33.039157625188103 ], [ 129.993161929168991, 33.039982378694802 ], [ 129.992226975188004, 33.040961113785897 ], [ 129.992274424517007, 33.042234822064799 ], [ 129.993057859993002, 33.045532446981397 ], [ 129.992654053742001, 33.046586948865503 ], [ 129.992706058885005, 33.046977772661798 ], [ 129.991612386779991, 33.048335305039799 ], [ 129.990577654937994, 33.050015125733402 ], [ 129.990395430930988, 33.050604526297903 ], [ 129.989979334948998, 33.050812177491402 ], [ 129.988460500334014, 33.050968661501798 ], [ 129.987680171123003, 33.051236643980403 ], [ 129.986415533291989, 33.053480611801099 ], [ 129.984321814306014, 33.055413964561801 ], [ 129.983291936699999, 33.056821782534399 ], [ 129.982684068675013, 33.057261976899497 ], [ 129.979841414883992, 33.057553427116098 ], [ 129.979724294605006, 33.057256380922801 ], [ 129.979431019223995, 33.057088345037897 ], [ 129.978227536600002, 33.057331065760302 ], [ 129.977387020052987, 33.057885272523798 ], [ 129.977074487727009, 33.058319575834197 ], [ 129.976468022458988, 33.058418114962201 ], [ 129.975076939003003, 33.059139617224801 ], [ 129.973821534199999, 33.0608850401997 ], [ 129.972402818917999, 33.060169372118999 ], [ 129.971891871234988, 33.060094764669799 ], [ 129.970985637973001, 33.061006577025204 ], [ 129.970230084306991, 33.061441341961299 ], [ 129.969518009897996, 33.062373379090197 ], [ 129.969033108713006, 33.062597117381799 ], [ 129.968650183422994, 33.062519411862297 ], [ 129.969185605972996, 33.063862670269202 ], [ 129.969323863025011, 33.065309772587703 ], [ 129.969082304566996, 33.066935307493303 ], [ 129.969193724245002, 33.068459940700798 ], [ 129.969058389688001, 33.070359513655497 ], [ 129.968288145356013, 33.071413209037203 ], [ 129.967891345531996, 33.071674948243299 ], [ 129.965807246492005, 33.078222784691 ], [ 129.967114298811993, 33.079292353125801 ], [ 129.968156639667001, 33.080454358519297 ], [ 129.972346513003998, 33.081167803312098 ], [ 129.973158317544005, 33.081430061021798 ], [ 129.97337212026801, 33.081840167682799 ], [ 129.972781625361989, 33.082450509278303 ], [ 129.972838728560987, 33.083016414857603 ], [ 129.974679619083986, 33.085791059653197 ], [ 129.975357031182, 33.086418614902101 ], [ 129.976201149552992, 33.086872903076802 ], [ 129.976386133960006, 33.087837975539102 ], [ 129.975821942488011, 33.087649543228402 ], [ 129.973496817880999, 33.087674071281 ], [ 129.971624922898002, 33.087160866738401 ], [ 129.963901047901004, 33.087028485073603 ], [ 129.962469242472991, 33.0871906344913 ], [ 129.960900600449008, 33.087794762887299 ], [ 129.958654693966992, 33.089441632244402 ], [ 129.958088714805001, 33.090492928374303 ], [ 129.957995440366005, 33.0911283850822 ], [ 129.958290916815002, 33.092521395649499 ], [ 129.956954010521002, 33.094468131966998 ], [ 129.954082249124014, 33.097277621265 ], [ 129.95383441645501, 33.097787160318497 ], [ 129.954195866811006, 33.100846745905301 ], [ 129.954077738747003, 33.103249692438403 ], [ 129.954480211982997, 33.106132525109999 ], [ 129.954417369222, 33.1081281600949 ], [ 129.954755490281997, 33.107990673883101 ], [ 129.956039802888, 33.108277160368601 ], [ 129.957553416834003, 33.108979096492199 ], [ 129.95813847654, 33.109003683789503 ], [ 129.958866161858992, 33.109836876056001 ], [ 129.959139494384999, 33.110479182617702 ], [ 129.958993001868009, 33.110989973021198 ], [ 129.95910605964599, 33.111325696550303 ], [ 129.95958492010601, 33.112412803197302 ], [ 129.95992010686399, 33.112779923758801 ], [ 129.960680562611998, 33.113322908772801 ], [ 129.962814605319011, 33.114039801518999 ], [ 129.963462053895, 33.114734433777798 ], [ 129.964414785470012, 33.115352847695803 ], [ 129.965184533897002, 33.114610924515198 ], [ 129.965867236994001, 33.114301511172101 ], [ 129.967164681776012, 33.114479667046801 ], [ 129.967646628029996, 33.114813517450102 ], [ 129.968034042966991, 33.114728119754801 ], [ 129.968580073460004, 33.115087109417999 ], [ 129.969328154506996, 33.1151917668153 ], [ 129.970182345430999, 33.1142338990566 ], [ 129.970315572818009, 33.113850996350997 ], [ 129.970800131687014, 33.1134611433678 ], [ 129.971293411272001, 33.113327372083802 ], [ 129.971684415900995, 33.1129268998179 ], [ 129.972763825127004, 33.1127290342897 ], [ 129.973152725835007, 33.112515630123902 ], [ 129.973384200095012, 33.111739677684902 ], [ 129.974653246691986, 33.110839362128601 ], [ 129.974927117220005, 33.110437913937801 ], [ 129.976276776561008, 33.110176008735003 ], [ 129.976679542591995, 33.110627336757403 ], [ 129.977586296703009, 33.1107053067444 ], [ 129.977644193467, 33.111366149395302 ], [ 129.978862405386991, 33.111317080430503 ], [ 129.979333340344994, 33.112098800032598 ], [ 129.97999501662099, 33.112586692050201 ], [ 129.980416917902005, 33.112550764419503 ], [ 129.981798705279004, 33.113029787689698 ], [ 129.981923673495004, 33.113355737996102 ], [ 129.982480325571998, 33.113813222562598 ], [ 129.982641672390997, 33.115045320355001 ], [ 129.983519766781001, 33.115042643613897 ], [ 129.984376901504987, 33.114833031270102 ], [ 129.985988812604006, 33.116165573880799 ], [ 129.98643948290001, 33.117188318246498 ], [ 129.986854893780986, 33.1177135471846 ], [ 129.987409948302997, 33.117294674773603 ], [ 129.987890685283986, 33.117229662530399 ], [ 129.988211392865992, 33.116828570497098 ], [ 129.98893659471301, 33.116883688931701 ], [ 129.990357751652994, 33.115467520037697 ], [ 129.991483159678012, 33.115338782176302 ], [ 129.992369183997994, 33.115661043082603 ], [ 129.992484360797988, 33.115829366173301 ], [ 129.992384967837012, 33.116168025290797 ], [ 129.99485185645301, 33.116817955878801 ], [ 129.996686658670995, 33.118697820052198 ], [ 129.997268956602994, 33.118939725949701 ], [ 129.997735911565997, 33.119798536586003 ], [ 129.99850827825199, 33.120206029827102 ], [ 129.999018088974992, 33.121308317243702 ], [ 130.000279314320011, 33.121660899824803 ], [ 130.002564713873994, 33.121125592773197 ], [ 130.002930262684998, 33.120730258195501 ], [ 130.002156494231002, 33.120661961594102 ], [ 130.002198875225986, 33.120159591375703 ], [ 130.002801181374991, 33.119554954671202 ], [ 130.004266743528007, 33.116805158002798 ], [ 130.006836617248013, 33.111032590594803 ], [ 130.005985918134002, 33.110968698402203 ], [ 130.005430280990993, 33.111148759075803 ], [ 130.005189249356988, 33.1112127168889 ], [ 130.004221439130987, 33.111349941714202 ], [ 130.005985918134002, 33.110968698402097 ], [ 130.004842507755001, 33.110467572230398 ], [ 130.003749462949003, 33.108153614325197 ], [ 130.002278159521012, 33.106653616430499 ], [ 130.001119897176011, 33.106176780654501 ], [ 130.000706889207009, 33.105751760111701 ], [ 129.999685848241, 33.103965762381797 ], [ 129.996338373803013, 33.1014117609474 ], [ 129.995806824348989, 33.100660440041899 ], [ 129.994633197810003, 33.099731555471998 ], [ 129.993756572248998, 33.099247889042303 ], [ 129.991228864747001, 33.0984563816574 ], [ 129.988991877138005, 33.0974873405723 ], [ 129.988048863422989, 33.0962702661149 ], [ 129.987670564187994, 33.096154787902499 ], [ 129.986274123952995, 33.096723395080197 ], [ 129.985969588610999, 33.096707425290496 ], [ 129.985663663357997, 33.096345261637197 ], [ 129.985488447013012, 33.095772849357402 ], [ 129.985801218874997, 33.095537113794101 ], [ 129.985971234598992, 33.095628411573401 ], [ 129.986183677810999, 33.095515503932603 ], [ 129.986256849430987, 33.095235371601198 ], [ 129.987368006467989, 33.095731959384402 ], [ 129.987681125075994, 33.094997169122998 ], [ 129.98740754072, 33.094617279757202 ], [ 129.988191919679991, 33.094745053528897 ], [ 129.988032424090989, 33.093968201828801 ], [ 129.987727032431991, 33.0937059171738 ], [ 129.987325581558991, 33.092667596079401 ], [ 129.987525017194997, 33.092293808646097 ], [ 129.987242499679013, 33.091751990618498 ], [ 129.987271617693011, 33.091452590637097 ], [ 129.987745813494996, 33.090996537626502 ], [ 129.987256337361998, 33.090075091569197 ], [ 129.987543017489003, 33.089843149704897 ], [ 129.987622322144006, 33.089421415487898 ] ] ] ] } }
]
}
