{
"type": "FeatureCollection",
"name": "宗像",
"crs": { "type": "name", "properties": { "name": "urn:ogc:def:crs:OGC:1.3:CRS84" } },
"features": [
{ "type": "Feature", "properties": { "id": "宗像.1", "Name": null, "description": null, "timestamp": null, "begin": null, "end": null, "altitudeMode": null, "tessellate": -1, "extrude": 0, "visibility": -1, "drawOrder": null, "icon": null, "KEY_CODE": "402200105105", "PREF": "40", "CITY": "220", "K_AREA": "066001080", "S_AREA": "0105105", "PREF_NAME": "福岡県", "CITY_NAME": "宗像市", "S_NAME": "赤間駅前一丁目", "KIGO_E": null, "HCODE": 8101, "AREA": 7098.326, "PERIMETER": 344.818, "KIHON1": "0660", "DUMMY1": "-", "KIHON2": "01", "KIHON3": "080", "C1": 5, "C2": 105, "DUMMY2": "-", "C3": 1, "DUMMY3": "-", "C4": 5, "KIGO_A": null, "KIGO_D": null, "N_KEN": null, "N_CITY": null, "N_C1": 0, "KIGO_I": null, "KEYCODE1": "2200105-1-05", "JINKO": 9, "SETAI": 5, "KEN_OLD": "40", "CITY_OLD": "220", "X_CODE": 130.572573, "Y_CODE": 33.808623, "KCODE1": "0660-01080", "CCODE1": "105-1- 5" }, "geometry": { "type": "MultiPolygon", "coordinates": [ [ [ [ 130.52915156729, 33.783087497007401 ], [ 130.529015951739012, 33.783119105277699 ], [ 130.528774383654991, 33.783203775709197 ], [ 130.528683168532012, 33.7833379029139 ], [ 130.528610147883995, 33.783453995476698 ], [ 130.528482500995011, 33.7836318012492 ], [ 130.528253878823989, 33.7837472317064 ], [ 130.528149941316002, 33.783885888629499 ], [ 130.528105681043002, 33.783872900402699 ], [ 130.528058667995992, 33.783869692038003 ], [ 130.528020713470994, 33.7838604606467 ], [ 130.527935729221014, 33.783851050881601 ], [ 130.527780178352998, 33.7838338341286 ], [ 130.527637339000989, 33.783813637675799 ], [ 130.527499949705998, 33.783791981440203 ], [ 130.527411172748998, 33.783812776498102 ], [ 130.527264397495998, 33.783848495001102 ], [ 130.527150026979001, 33.783913077661801 ], [ 130.527144160586005, 33.783990117675998 ], [ 130.527149430164997, 33.784082276353601 ], [ 130.527116675662, 33.784178163854797 ], [ 130.527056545816009, 33.784243234294898 ], [ 130.526767145170993, 33.784457119797501 ], [ 130.526600980061005, 33.784535943044602 ], [ 130.526215786008009, 33.784543418401803 ], [ 130.525718552918988, 33.784559480718499 ], [ 130.525533445165991, 33.784555251222997 ], [ 130.525442359130011, 33.784558424289003 ], [ 130.525377765591998, 33.784583818451601 ], [ 130.525257675652995, 33.784660210697098 ], [ 130.525182528782011, 33.784793973476297 ], [ 130.525185988226013, 33.784854707417303 ], [ 130.525237825286013, 33.784916400336598 ], [ 130.525292811827995, 33.784965287673401 ], [ 130.525347741171004, 33.785016778367002 ], [ 130.525448760790994, 33.785063234412299 ], [ 130.525704445416011, 33.785165437404103 ], [ 130.525340819412008, 33.785284288750098 ], [ 130.525132251526003, 33.785357384472 ], [ 130.525039958399987, 33.785410848331502 ], [ 130.524966076596996, 33.785460507812203 ], [ 130.524873592157007, 33.7855484866053 ], [ 130.524680556599009, 33.785520839586702 ], [ 130.52448730604101, 33.785531650340197 ], [ 130.524491349914001, 33.785631480406998 ], [ 130.524475769056011, 33.785954044502603 ], [ 130.524452941580989, 33.786571869404199 ], [ 130.524432751022999, 33.7871616012199 ], [ 130.524426078309006, 33.787596062319103 ], [ 130.524419465677994, 33.788026929424298 ], [ 130.52439668812201, 33.7884518172893 ], [ 130.524405460823004, 33.788604005447198 ], [ 130.524404504313992, 33.788776162277202 ], [ 130.524455296275988, 33.789124692464902 ], [ 130.524519931056005, 33.789320064732699 ], [ 130.523469648683005, 33.7894817753279 ], [ 130.523099540758011, 33.789458302869903 ], [ 130.523081028484995, 33.789457104482203 ], [ 130.52241940053699, 33.789584375983601 ], [ 130.521477798018992, 33.789638704802698 ], [ 130.520744726592994, 33.789635863150899 ], [ 130.520710210496986, 33.789849025862303 ], [ 130.520637441736994, 33.789955393185899 ], [ 130.520598107868011, 33.790034064684299 ], [ 130.52063635181301, 33.7901501599586 ], [ 130.520885352969998, 33.790308774866297 ], [ 130.521061664461001, 33.790559878010299 ], [ 130.521168430100005, 33.790831563185002 ], [ 130.521183976906997, 33.791030971585201 ], [ 130.521122118769, 33.791169855026098 ], [ 130.520987968240007, 33.7913223344691 ], [ 130.52089812005201, 33.7915028788358 ], [ 130.520916049445987, 33.791774219518601 ], [ 130.520831649337993, 33.791968593114703 ], [ 130.520935851390988, 33.792200890062098 ], [ 130.521129243762005, 33.792377815836197 ], [ 130.520916719854, 33.792808092709798 ], [ 130.520803071055013, 33.793088080045798 ], [ 130.520753830567998, 33.793452071215498 ], [ 130.520752811707013, 33.793649233736303 ], [ 130.520851619388992, 33.7938582647228 ], [ 130.521079657938998, 33.794297367420597 ], [ 130.521094043553006, 33.794516003447399 ], [ 130.521100109363005, 33.794608094672 ], [ 130.521304669026989, 33.794780483542503 ], [ 130.521392159899989, 33.795021944767697 ], [ 130.521574438014994, 33.795203475399802 ], [ 130.521740010156009, 33.795385013224397 ], [ 130.521759340394993, 33.7954059378634 ], [ 130.521991504607996, 33.795606258797001 ], [ 130.52190456055601, 33.796255114310704 ], [ 130.521828737259, 33.796899363982902 ], [ 130.521892641259001, 33.797391084331203 ], [ 130.522130117965986, 33.797637777391103 ], [ 130.522404505575992, 33.7977339391228 ], [ 130.522552931259014, 33.797753745110903 ], [ 130.522726398970008, 33.797776887422103 ], [ 130.522759902379988, 33.797828508805402 ], [ 130.522820008399009, 33.797921019917197 ], [ 130.522969668846997, 33.797977246344701 ], [ 130.522997281479007, 33.798139440495497 ], [ 130.523026119186, 33.798309036324099 ], [ 130.522882782852008, 33.798351663382498 ], [ 130.522275750108008, 33.798640731898097 ], [ 130.522275073179003, 33.798641080930999 ], [ 130.522103340376987, 33.798722831533503 ], [ 130.521934968370005, 33.798746692220398 ], [ 130.521829297560004, 33.798738251504297 ], [ 130.521714199357007, 33.798703076075199 ], [ 130.521529027875999, 33.7985927497365 ], [ 130.521222333091004, 33.798894596405397 ], [ 130.520932961037005, 33.799274067837104 ], [ 130.520929301369989, 33.799287367626398 ], [ 130.520844249195989, 33.799596839127197 ], [ 130.520588325327992, 33.799547871109802 ], [ 130.520399859086012, 33.799957812556002 ], [ 130.52034886448601, 33.8000688399772 ], [ 130.520390822834997, 33.800162268795397 ], [ 130.520451625026993, 33.800228156854402 ], [ 130.520441328856009, 33.800236146513598 ], [ 130.520491879888993, 33.800271776798702 ], [ 130.520639330931999, 33.8003756178069 ], [ 130.520900163655995, 33.800490256951399 ], [ 130.520978880981005, 33.800536069967997 ], [ 130.521063116891014, 33.800568237095099 ], [ 130.521158071617009, 33.8006299609902 ], [ 130.521212291017008, 33.800673424390801 ], [ 130.521460093412003, 33.8008852204714 ], [ 130.521553871087008, 33.8009915297962 ], [ 130.521653707765012, 33.801070672678499 ], [ 130.521794511882007, 33.801201747384297 ], [ 130.521837865837, 33.801257142382497 ], [ 130.521822764347007, 33.801422834906496 ], [ 130.521827146991996, 33.801446448311701 ], [ 130.521850285590006, 33.801571010110202 ], [ 130.521885135981989, 33.801683641808502 ], [ 130.521955008522013, 33.801870442445498 ], [ 130.521993104404004, 33.802036340260202 ], [ 130.522027630015998, 33.802199336634203 ], [ 130.522029417922994, 33.802204133633602 ], [ 130.522066074083, 33.802303106666798 ], [ 130.522083295297989, 33.802392000818799 ], [ 130.522195052179001, 33.802670962580301 ], [ 130.522209198469, 33.802706308421399 ], [ 130.522500141553991, 33.802680741576303 ], [ 130.522705854429006, 33.8026726635958 ], [ 130.522890937785007, 33.802552008597402 ], [ 130.523029543976008, 33.802496330504603 ], [ 130.523128978371005, 33.802467058793297 ], [ 130.523193320528009, 33.802375520148502 ], [ 130.523322913834988, 33.8023700331455 ], [ 130.523384904383988, 33.802367383606402 ], [ 130.523583368726008, 33.8023888600123 ], [ 130.523785526001006, 33.802383721076197 ], [ 130.524087895419996, 33.8022320281232 ], [ 130.524202724159011, 33.802127793052698 ], [ 130.524220406365998, 33.8021117304827 ], [ 130.524317161863991, 33.802055749438701 ], [ 130.524404058637003, 33.802042699963103 ], [ 130.524806571813002, 33.801923438968203 ], [ 130.525037132043991, 33.801802179613098 ], [ 130.525182196588986, 33.8017303233447 ], [ 130.525229284700004, 33.801645903480697 ], [ 130.525386201538993, 33.801468075695098 ], [ 130.525475230749009, 33.801359656322703 ], [ 130.525491541712, 33.801316819800199 ], [ 130.525507868570998, 33.801271234998602 ], [ 130.525546678632992, 33.801233839001497 ], [ 130.525588727392005, 33.801183001009399 ], [ 130.525646891753013, 33.801132224867999 ], [ 130.525721370252995, 33.801030509675897 ], [ 130.525793027172, 33.800867007645003 ], [ 130.525879613254006, 33.800864310342398 ], [ 130.525884674306013, 33.800864470645003 ], [ 130.526153871344007, 33.800873533608801 ], [ 130.526431073947009, 33.800937290194497 ], [ 130.526495482510995, 33.800955005530398 ], [ 130.52675202844199, 33.800947676723503 ], [ 130.526856874219988, 33.800923423527003 ], [ 130.52715840175901, 33.800853572180799 ], [ 130.527496950467992, 33.800840356134998 ], [ 130.527605864735989, 33.800942632770898 ], [ 130.527823362704993, 33.801199309363298 ], [ 130.528105963430988, 33.800988920948598 ], [ 130.528303741788989, 33.800859076620597 ], [ 130.528397883324999, 33.8008020257192 ], [ 130.528476358831995, 33.8007475224207 ], [ 130.528566004091999, 33.800679535170303 ], [ 130.528627095606993, 33.800633206613803 ], [ 130.528738656788988, 33.800569035158503 ], [ 130.528743481665003, 33.800566236979599 ], [ 130.528975591055996, 33.800575716421498 ], [ 130.529151094034006, 33.800552716760798 ], [ 130.529260117917005, 33.800428238453001 ], [ 130.529417760855011, 33.800377133900597 ], [ 130.529554786353998, 33.800323837394203 ], [ 130.529606439904001, 33.800313257504101 ], [ 130.529629679163008, 33.8003068647498 ], [ 130.529719982696008, 33.800302911489503 ], [ 130.529744574957988, 33.800311316685303 ], [ 130.529802347701008, 33.800331190398801 ], [ 130.52991805613101, 33.800402706612402 ], [ 130.529958249660012, 33.800596715924797 ], [ 130.529919089634006, 33.800682716989698 ], [ 130.529763427939002, 33.800841465655402 ], [ 130.529699184950999, 33.800916381687102 ], [ 130.529716347682012, 33.801009993989403 ], [ 130.529639514856001, 33.801034285813301 ], [ 130.529711607601996, 33.801150789515397 ], [ 130.529871649542002, 33.801415416237802 ], [ 130.530067369826014, 33.801306622304097 ], [ 130.530137942352013, 33.8013237263105 ], [ 130.530312297971989, 33.801425473990498 ], [ 130.530426601910989, 33.801445560629098 ], [ 130.530541004136012, 33.801440430398102 ], [ 130.530662849050998, 33.801308885476303 ], [ 130.530766347423992, 33.801214957787401 ], [ 130.530795044087, 33.801220983333302 ], [ 130.530880709486013, 33.801232227645301 ], [ 130.530921882320996, 33.801232806048802 ], [ 130.530885493404014, 33.801329174013198 ], [ 130.530855826047002, 33.801407673562998 ], [ 130.530738172850988, 33.8015211309976 ], [ 130.530278425472005, 33.801908294497402 ], [ 130.530629224969999, 33.802215909877297 ], [ 130.530397441216991, 33.802415015143403 ], [ 130.530375695742009, 33.802433668968703 ], [ 130.530399923129011, 33.802516320162297 ], [ 130.530189271940998, 33.802654641797098 ], [ 130.53017705511499, 33.802666711918803 ], [ 130.530132174023009, 33.8027112702731 ], [ 130.530205883346014, 33.802725780922501 ], [ 130.530328774074007, 33.8027499166041 ], [ 130.53039298104099, 33.802773899040702 ], [ 130.530504508245997, 33.802793272297301 ], [ 130.530600835871013, 33.802829985784797 ], [ 130.530732779239997, 33.802918963187601 ], [ 130.530787371951988, 33.802972846202898 ], [ 130.530889801807007, 33.803074038711102 ], [ 130.530949138794, 33.8031551297248 ], [ 130.530983602593011, 33.803202316345697 ], [ 130.531016546876003, 33.803280209171803 ], [ 130.531106758987988, 33.803394313198297 ], [ 130.531057417098992, 33.803421456362102 ], [ 130.531151514875006, 33.8035192339986 ], [ 130.531170174077005, 33.8035635409911 ], [ 130.531172091129008, 33.803583343192798 ], [ 130.531173847674012, 33.803601874652202 ], [ 130.531160339118998, 33.803626266850003 ], [ 130.531108625871013, 33.803678548330602 ], [ 130.531141452089003, 33.803701143484901 ], [ 130.531178867112004, 33.8037410151099 ], [ 130.53120774808599, 33.803798745172401 ], [ 130.531203600762012, 33.803855081965601 ], [ 130.531351514465001, 33.804026038656502 ], [ 130.531375995730997, 33.804039585707102 ], [ 130.531399771331991, 33.804042916727802 ], [ 130.531425699401012, 33.804046466681299 ], [ 130.531450129913992, 33.804045994728902 ], [ 130.531666240918014, 33.803958341864202 ], [ 130.531922181856004, 33.803838787289401 ], [ 130.532064491457987, 33.803706756352497 ], [ 130.532109008107994, 33.803612393439103 ], [ 130.532279252873991, 33.803750608944597 ], [ 130.532632117003999, 33.803953686955502 ], [ 130.532927958962006, 33.8042476286248 ], [ 130.533104666099007, 33.8044847673535 ], [ 130.533213215833001, 33.804811742245398 ], [ 130.533410047545999, 33.805507384709998 ], [ 130.533412235712007, 33.8056329902276 ], [ 130.533338387335988, 33.805775071563303 ], [ 130.533106056723, 33.806075608303303 ], [ 130.532473815544989, 33.806891738313197 ], [ 130.531986826802012, 33.807630786130296 ], [ 130.531806253148005, 33.807993716661798 ], [ 130.531819385505003, 33.808061389590499 ], [ 130.532115796873995, 33.808345050857 ], [ 130.532325543869007, 33.808513285481197 ], [ 130.532685700644009, 33.8086820896429 ], [ 130.532935614508006, 33.808865830790602 ], [ 130.533365872746998, 33.809194306132298 ], [ 130.533270568028001, 33.8093404621901 ], [ 130.53322932905499, 33.809475552411101 ], [ 130.533255166933998, 33.809689790463302 ], [ 130.533357092285001, 33.810172907183798 ], [ 130.533541324478989, 33.810883158079903 ], [ 130.533504215756011, 33.8110657394488 ], [ 130.533252679187001, 33.8113886021398 ], [ 130.533485206993987, 33.812080009670701 ], [ 130.531546920821995, 33.812510008501 ], [ 130.530626817940998, 33.812926253044097 ], [ 130.526291188912012, 33.814683167045899 ], [ 130.52635331575101, 33.814788149785699 ], [ 130.525844507432993, 33.8150384356098 ], [ 130.52608204420801, 33.815386756257503 ], [ 130.525052701217987, 33.815939539001597 ], [ 130.525217717987005, 33.816002092390299 ], [ 130.525342093731012, 33.816020181232602 ], [ 130.525492380623007, 33.815983639594997 ], [ 130.525720464627994, 33.815956696910099 ], [ 130.526182715579012, 33.815810132583998 ], [ 130.526861422733987, 33.815724626159898 ], [ 130.526865746136991, 33.815951316589697 ], [ 130.526995032185994, 33.816289712806402 ], [ 130.527192935737986, 33.8165950538041 ], [ 130.527423052173987, 33.816736325480299 ], [ 130.527770650515009, 33.816775768695798 ], [ 130.528106346235006, 33.816900748259101 ], [ 130.528293994721992, 33.816991913810902 ], [ 130.528413664720006, 33.817006670991901 ], [ 130.528442301203, 33.8169781828975 ], [ 130.528493974393001, 33.816911745754297 ], [ 130.528471530058994, 33.816849813168297 ], [ 130.528252006687012, 33.8163302562185 ], [ 130.528560185423004, 33.8162790986811 ], [ 130.529655623103992, 33.817187456383699 ], [ 130.529249404757991, 33.817442935955299 ], [ 130.52919775798, 33.817504584735502 ], [ 130.52924807800801, 33.817685596521997 ], [ 130.528927982189003, 33.817831941917703 ], [ 130.528881927903001, 33.817912628451602 ], [ 130.528949821690986, 33.8180128429929 ], [ 130.529017931895993, 33.818065443356801 ], [ 130.529092043383002, 33.818070514982502 ], [ 130.529411644089009, 33.818014611815698 ], [ 130.529474161536001, 33.818048170182898 ], [ 130.529838697063013, 33.818642101786899 ], [ 130.529968279311987, 33.818928090475701 ], [ 130.530057636558013, 33.819271121172498 ], [ 130.530234364916993, 33.819276586214002 ], [ 130.530502540955013, 33.8192347138394 ], [ 130.530879788492001, 33.819069634468498 ], [ 130.531440018323991, 33.818800510983898 ], [ 130.531634274177009, 33.8187251038336 ], [ 130.531867984272992, 33.818735502508297 ], [ 130.532158714919007, 33.818750909367999 ], [ 130.532231698477005, 33.818955815889403 ], [ 130.532235998489995, 33.819212796644202 ], [ 130.532226782789991, 33.819859961840002 ], [ 130.532222316483995, 33.820162198945802 ], [ 130.532181416335987, 33.820342862935597 ], [ 130.532119797910013, 33.820663899002199 ], [ 130.532150664721996, 33.820729806021902 ], [ 130.532201311339008, 33.820782478120002 ], [ 130.532308962635, 33.820820359279601 ], [ 130.532532939036997, 33.820961173925099 ], [ 130.532580034259013, 33.821116247370398 ], [ 130.532588588307988, 33.821196298622702 ], [ 130.532595241431011, 33.821308112284498 ], [ 130.532632036295013, 33.821884161527002 ], [ 130.532642218511, 33.822107842973097 ], [ 130.532578352055992, 33.822321734570899 ], [ 130.532508685866986, 33.822554693577501 ], [ 130.532505005089007, 33.822704573743003 ], [ 130.532589583131994, 33.822880992439501 ], [ 130.532691381054008, 33.823033668191002 ], [ 130.532743137669001, 33.823364577157399 ], [ 130.532757659336994, 33.823449581242699 ], [ 130.532871446399014, 33.823476921591599 ], [ 130.533155697863009, 33.823546045461804 ], [ 130.53329919545601, 33.823604068818 ], [ 130.533841277720001, 33.823666071908498 ], [ 130.533947939497011, 33.823699933955602 ], [ 130.534054996018, 33.824051268086002 ], [ 130.53407709694801, 33.8241001655582 ], [ 130.534119172683006, 33.824193162577401 ], [ 130.534129177425001, 33.824450161890297 ], [ 130.534105415364991, 33.824630889729498 ], [ 130.533956579695996, 33.824739787425997 ], [ 130.533820784944993, 33.824817743476302 ], [ 130.534128541132986, 33.824849125805699 ], [ 130.534622553457012, 33.8243662375261 ], [ 130.534971392787014, 33.824392847029301 ], [ 130.534970115987988, 33.824629517148502 ], [ 130.535429170369014, 33.824642522646201 ], [ 130.535451551455992, 33.824569280217098 ], [ 130.535760433164995, 33.824525435745699 ], [ 130.535809406098991, 33.824333251312702 ], [ 130.535498570106, 33.824293407534498 ], [ 130.535581534577005, 33.823933073413897 ], [ 130.535650931709, 33.823583958295401 ], [ 130.535934319245001, 33.823618838656898 ], [ 130.536084097087013, 33.823011938622898 ], [ 130.536163125402993, 33.823186641837303 ], [ 130.536401577419014, 33.823125344096297 ], [ 130.536572620863012, 33.823083516972403 ], [ 130.536666341656002, 33.823091898542302 ], [ 130.537448981390014, 33.823196277017097 ], [ 130.538123778624993, 33.823266434713297 ], [ 130.53818569107699, 33.823501298069303 ], [ 130.538294906653988, 33.823531715599401 ], [ 130.538263166878011, 33.823580339468698 ], [ 130.53858615576101, 33.823777229286797 ], [ 130.539026931233991, 33.824011893729597 ], [ 130.539273449086011, 33.824131718875996 ], [ 130.539634320277997, 33.824237036856999 ], [ 130.539777900046005, 33.824288782428503 ], [ 130.539794394248986, 33.824328994671703 ], [ 130.539738002581004, 33.824537563054498 ], [ 130.539639042980014, 33.824554168462697 ], [ 130.539458422561012, 33.824618999753497 ], [ 130.539143443531998, 33.824785324337299 ], [ 130.539062206833989, 33.824833692543102 ], [ 130.53899760481201, 33.824872122401402 ], [ 130.538932787213014, 33.825029662054497 ], [ 130.538879316785, 33.825235706001997 ], [ 130.538889092852003, 33.825317028822198 ], [ 130.538889640485991, 33.825364928044998 ], [ 130.538713367219998, 33.825689764918202 ], [ 130.538844513122001, 33.825762244704002 ], [ 130.538881972942988, 33.825827892990603 ], [ 130.538911974665012, 33.826199356723798 ], [ 130.538808906236994, 33.826439238401903 ], [ 130.53875534674799, 33.826669582269098 ], [ 130.539132963703992, 33.826746225483603 ], [ 130.539418939949996, 33.826835909641403 ], [ 130.539816866539013, 33.826381095189902 ], [ 130.540145125478006, 33.826170019157999 ], [ 130.540276128231994, 33.826143813430903 ], [ 130.540331334880989, 33.826158529947598 ], [ 130.541053529278003, 33.825962235784303 ], [ 130.541224410463997, 33.826371838329599 ], [ 130.542058320877004, 33.8261184065354 ], [ 130.542094426983994, 33.826272519630002 ], [ 130.542830060614989, 33.826215874059301 ], [ 130.542945372253996, 33.826339498272397 ], [ 130.543150083011994, 33.826498604494503 ], [ 130.543281430478999, 33.826582701520898 ], [ 130.543492233476002, 33.826587851158997 ], [ 130.543650396917997, 33.826588437587198 ], [ 130.543991687983009, 33.826840462737302 ], [ 130.544405650675003, 33.827308294658401 ], [ 130.544510690201008, 33.827379121930498 ], [ 130.54506940399699, 33.826895022773897 ], [ 130.545243186738986, 33.8269265177805 ], [ 130.545469885614011, 33.826918550185397 ], [ 130.546210697789007, 33.827378777560497 ], [ 130.546486052017002, 33.827146642441001 ], [ 130.546733505226001, 33.827204749247699 ], [ 130.546796091912995, 33.827332542691998 ], [ 130.546980794032009, 33.827792970500902 ], [ 130.547195399723989, 33.828079669266799 ], [ 130.547437049231007, 33.828238969406499 ], [ 130.547647253334986, 33.828367304411401 ], [ 130.548221411377995, 33.828448574301298 ], [ 130.548362284639012, 33.828730624389401 ], [ 130.548446238470007, 33.828801298834001 ], [ 130.548508804019008, 33.828933527230198 ], [ 130.550325989029005, 33.829729814292399 ], [ 130.550430901872005, 33.829826976510198 ], [ 130.550604169075001, 33.830534869561603 ], [ 130.550852041727012, 33.830273458177601 ], [ 130.551181762454007, 33.830048265510598 ], [ 130.551285386932989, 33.829956226498197 ], [ 130.551373482884003, 33.829911889076101 ], [ 130.551472959373996, 33.829886750211699 ], [ 130.551530551651013, 33.829832792046503 ], [ 130.551641929334011, 33.829718381582701 ], [ 130.55171498923599, 33.829619824507198 ], [ 130.551795489303998, 33.8295755264324 ], [ 130.551894724311012, 33.829588634061203 ], [ 130.552077876088987, 33.829630713738403 ], [ 130.552420455984986, 33.829871087990803 ], [ 130.552488903533003, 33.829928671578202 ], [ 130.552557545133993, 33.829957659194797 ], [ 130.552645392263003, 33.829961144457201 ], [ 130.552928210771995, 33.829933427773298 ], [ 130.552992946639989, 33.829975149190297 ], [ 130.553213738810996, 33.830132175436802 ], [ 130.553392211074993, 33.830336806654401 ], [ 130.553585463362992, 33.830637216333301 ], [ 130.553709895709005, 33.830959636159299 ], [ 130.553936548709999, 33.831819650994497 ], [ 130.553974288646003, 33.831915441874699 ], [ 130.553935046307004, 33.832109779772402 ], [ 130.55403579156399, 33.832207345976897 ], [ 130.556534811366987, 33.8328539187019 ], [ 130.556667690798008, 33.833013794291404 ], [ 130.556910649329012, 33.833311135834499 ], [ 130.557717113271991, 33.8338982289212 ], [ 130.557851079838002, 33.833190173287498 ], [ 130.557870037467012, 33.832482552338703 ], [ 130.557986223851003, 33.832170505551503 ], [ 130.558183088687997, 33.831779080687603 ], [ 130.558382718746998, 33.831588482849803 ], [ 130.558583169188012, 33.831238488039098 ], [ 130.558637718146997, 33.831028284193799 ], [ 130.558600474056988, 33.830843252375097 ], [ 130.558478900376002, 33.830708916471799 ], [ 130.558456802455993, 33.830549438146299 ], [ 130.558376236859004, 33.827638444887 ], [ 130.558453057690002, 33.8275622220389 ], [ 130.558568090980003, 33.827473387013796 ], [ 130.558690511934003, 33.827441914995902 ], [ 130.558858663653012, 33.827429766530301 ], [ 130.559003802624005, 33.827436690229099 ], [ 130.559438792527004, 33.826791049942997 ], [ 130.559516478593991, 33.826536269146096 ], [ 130.559657699919001, 33.8258162547206 ], [ 130.559646307602009, 33.825057452104801 ], [ 130.559887611400995, 33.824933985605902 ], [ 130.559972835997002, 33.824698318198301 ], [ 130.559897662177008, 33.824462153596599 ], [ 130.559511664324987, 33.823882975988298 ], [ 130.559759691337007, 33.823987542119497 ], [ 130.559939861873005, 33.824049956675204 ], [ 130.560016690986998, 33.824069952607204 ], [ 130.560247303891003, 33.824105355822802 ], [ 130.560688345247002, 33.824064942997701 ], [ 130.561037585592004, 33.824051391387599 ], [ 130.561360146932998, 33.8240401390456 ], [ 130.561706551268003, 33.824019813937198 ], [ 130.563176032083987, 33.825408708149702 ], [ 130.563470853224004, 33.825375727672501 ], [ 130.563705388633991, 33.8248808801591 ], [ 130.563814851773998, 33.824599512569598 ], [ 130.564255731123012, 33.824532952100299 ], [ 130.564881143652997, 33.824443373952597 ], [ 130.565378792276988, 33.824382786847899 ], [ 130.565735390463004, 33.8243583298391 ], [ 130.565823903107997, 33.824263265923598 ], [ 130.565907968950995, 33.824179105392602 ], [ 130.566040880320003, 33.823999745329701 ], [ 130.566160179413004, 33.823908450370702 ], [ 130.566341332244008, 33.823769617183103 ], [ 130.566538395434009, 33.823529972721801 ], [ 130.566632406678991, 33.823214667493403 ], [ 130.56669949606399, 33.822998375315301 ], [ 130.566694589182987, 33.822666240152301 ], [ 130.566722113808993, 33.822446146476103 ], [ 130.566732274315001, 33.822272480786097 ], [ 130.567216748835989, 33.821917054469097 ], [ 130.566754047101995, 33.820650909465598 ], [ 130.566687974804012, 33.820650183750999 ], [ 130.566433780425996, 33.820643513360601 ], [ 130.566250498338007, 33.820640535025298 ], [ 130.566220143181994, 33.820662067456503 ], [ 130.566221717203007, 33.820778381250797 ], [ 130.566141338286002, 33.820789848690502 ], [ 130.565892629549012, 33.820829148200303 ], [ 130.565739972961012, 33.820861008866103 ], [ 130.565652963774994, 33.820879168019502 ], [ 130.565299771201012, 33.820890206685398 ], [ 130.565082467845997, 33.8208969980994 ], [ 130.565008161202996, 33.820896266181698 ], [ 130.565009957175988, 33.8209228899983 ], [ 130.565002565432991, 33.821139717709599 ], [ 130.564981203147994, 33.821268106404197 ], [ 130.564905669014991, 33.821250709751098 ], [ 130.56489239969801, 33.821311071216599 ], [ 130.564851809447987, 33.821433547471997 ], [ 130.564825583481991, 33.821492059990597 ], [ 130.564792890001996, 33.8215518104764 ], [ 130.564779787741998, 33.821575749211704 ], [ 130.564736183278001, 33.821653134179897 ], [ 130.564723073497987, 33.821681939741701 ], [ 130.564683158272004, 33.821670979747303 ], [ 130.564623764483997, 33.821666262548199 ], [ 130.564556456694987, 33.821668483154298 ], [ 130.564443299138986, 33.821676446385297 ], [ 130.564177456987011, 33.821692639880403 ], [ 130.56395272684199, 33.8216972575011 ], [ 130.563804716163986, 33.821698538735703 ], [ 130.563723648854989, 33.821644009559101 ], [ 130.563759815543989, 33.821605541285301 ], [ 130.564001081636007, 33.821320554036099 ], [ 130.564082551653996, 33.821232510337701 ], [ 130.564106480925005, 33.821199207959197 ], [ 130.564148945715004, 33.821138075074401 ], [ 130.564178381353003, 33.821084082074201 ], [ 130.564226437365988, 33.820977819444799 ], [ 130.56425378265601, 33.820911211116602 ], [ 130.564291307132009, 33.820758984888698 ], [ 130.564298469514, 33.820620174743603 ], [ 130.564299625274998, 33.820392029055597 ], [ 130.564297243624992, 33.8202288140956 ], [ 130.564292294301993, 33.820139551616201 ], [ 130.564285273673988, 33.820055675334203 ], [ 130.564273949202999, 33.819920423436898 ], [ 130.564251238573007, 33.819713882937499 ], [ 130.564218939813003, 33.819475682211802 ], [ 130.564181965957999, 33.819310582713499 ], [ 130.564115146115995, 33.819064228992097 ], [ 130.564101507337, 33.818983034123796 ], [ 130.564093500843001, 33.8188639635379 ], [ 130.564099587464995, 33.818728740358999 ], [ 130.564118531446013, 33.818612510847998 ], [ 130.564128028428001, 33.818445742602897 ], [ 130.564123513304992, 33.8182708232587 ], [ 130.564109976634995, 33.818168849512404 ], [ 130.564106158551994, 33.818089171798 ], [ 130.564103146268991, 33.818026396452197 ], [ 130.563925507696013, 33.817931450362003 ], [ 130.563822996650998, 33.817859521200397 ], [ 130.563729042429003, 33.817780509366202 ], [ 130.563645501638007, 33.817686246547702 ], [ 130.563626554584005, 33.817653003559897 ], [ 130.563569002265012, 33.817552070185002 ], [ 130.563467330858998, 33.817256004893601 ], [ 130.563404178560006, 33.817077920468201 ], [ 130.56334843239199, 33.8169207134872 ], [ 130.563309065633007, 33.816803643566601 ], [ 130.563280466277007, 33.816718452177497 ], [ 130.563229127412001, 33.816565696764201 ], [ 130.563188139232011, 33.816452355483698 ], [ 130.563163752663996, 33.816385069043399 ], [ 130.56311764600801, 33.816257761984701 ], [ 130.563056777262005, 33.816070458321803 ], [ 130.563049673269006, 33.816048597374198 ], [ 130.563042100943989, 33.816027297189699 ], [ 130.562985982254986, 33.8158688213164 ], [ 130.562944548176006, 33.815752025148797 ], [ 130.562937433624001, 33.815731994494101 ], [ 130.56291784015599, 33.815676770723798 ], [ 130.562899502086992, 33.815590277145198 ], [ 130.562876177252008, 33.815480237328103 ], [ 130.562859157990005, 33.815400086899899 ], [ 130.562830392286997, 33.815264669989602 ], [ 130.562791125881006, 33.815028558309102 ], [ 130.562678187082014, 33.814576215904601 ], [ 130.562614178306006, 33.814036277731603 ], [ 130.562603833052009, 33.813904940439201 ], [ 130.562581552826998, 33.813797229843402 ], [ 130.562587153560003, 33.813733078834197 ], [ 130.562650501789989, 33.813008827127902 ], [ 130.562625898944987, 33.812810240706 ], [ 130.562640216056991, 33.812566921168397 ], [ 130.562619447738996, 33.812278114102199 ], [ 130.562680874369988, 33.812130830092997 ], [ 130.56274586529301, 33.811821475653502 ], [ 130.562771269768007, 33.811762607790797 ], [ 130.562850859422014, 33.811578054375097 ], [ 130.563056541966006, 33.8112408052706 ], [ 130.563118237459008, 33.811139588346997 ], [ 130.56309050373099, 33.810926125065599 ], [ 130.562969348156003, 33.810738252058101 ], [ 130.562935945719005, 33.8103033736679 ], [ 130.562932504327989, 33.810258349138898 ], [ 130.562910027266014, 33.810139575428003 ], [ 130.562748331524006, 33.809884360740199 ], [ 130.562738420845989, 33.809841919624397 ], [ 130.562741052119009, 33.809813893408602 ], [ 130.562758936312008, 33.809624189126602 ], [ 130.562702523613012, 33.809383432283397 ], [ 130.563364050204996, 33.8093797143652 ], [ 130.564132793862996, 33.809375384986701 ], [ 130.564989891782005, 33.809370516068903 ], [ 130.564999707227003, 33.809565672098799 ], [ 130.565042263185006, 33.8104127324481 ], [ 130.565097568482003, 33.811291819343602 ], [ 130.565111196332992, 33.811492483097602 ], [ 130.565175367182007, 33.812437732102097 ], [ 130.565204872125008, 33.812869986248103 ], [ 130.565211710025011, 33.812970035612999 ], [ 130.56524385447301, 33.81340595967 ], [ 130.56525690805401, 33.8134028368858 ], [ 130.565263748257991, 33.813669264340803 ], [ 130.565295375558009, 33.814141110888599 ], [ 130.565308756938009, 33.814340715995399 ], [ 130.565347156622011, 33.8149083846195 ], [ 130.565352552347008, 33.814993142849701 ], [ 130.56539280348801, 33.815361544959103 ], [ 130.565439058542012, 33.815727783947601 ], [ 130.565443277068994, 33.815962012117801 ], [ 130.565463374817995, 33.816135152585602 ], [ 130.565469651808996, 33.816371219962903 ], [ 130.565474155935988, 33.816457101519802 ], [ 130.565476695873002, 33.816505643559097 ], [ 130.565457576558003, 33.816882358971597 ], [ 130.565363629204001, 33.817236483493701 ], [ 130.565270362180996, 33.817455504359103 ], [ 130.565110092657989, 33.817798617021701 ], [ 130.565929600075009, 33.818086920804902 ], [ 130.566046535346004, 33.818136216071402 ], [ 130.566682923819997, 33.818371745221 ], [ 130.567051931023997, 33.8182415262118 ], [ 130.567133708838014, 33.818216455312502 ], [ 130.567209623770992, 33.818224680253302 ], [ 130.567423823410991, 33.818291925184703 ], [ 130.567520949733989, 33.818311565522102 ], [ 130.567705288933013, 33.818325029752799 ], [ 130.567789630775991, 33.818335962167602 ], [ 130.567966182254992, 33.818387717527003 ], [ 130.568207270540995, 33.818529018020101 ], [ 130.568412071583992, 33.818719919157999 ], [ 130.56852976811399, 33.818845714598297 ], [ 130.568655296759999, 33.8190336624588 ], [ 130.569016644022014, 33.819092683331696 ], [ 130.569601832659004, 33.819147905096102 ], [ 130.569868720631007, 33.819146132978197 ], [ 130.569883908869997, 33.819320856846403 ], [ 130.569943165516008, 33.819360186266202 ], [ 130.569995637263986, 33.819384224220997 ], [ 130.570023947828986, 33.819438714354 ], [ 130.570084037776013, 33.819540069989799 ], [ 130.570135421380996, 33.8195536091118 ], [ 130.570179867, 33.819582390278597 ], [ 130.570228730942006, 33.819641721360398 ], [ 130.570268482289009, 33.819695295860299 ], [ 130.570379437567993, 33.819791033898902 ], [ 130.570380190376, 33.8197914674085 ], [ 130.570334381025987, 33.819821251757503 ], [ 130.570271070258997, 33.819967546010403 ], [ 130.569967927289014, 33.820191895248101 ], [ 130.569836759869986, 33.820186085089901 ], [ 130.569695584573992, 33.820198201781302 ], [ 130.569519069361007, 33.820222805415703 ], [ 130.569394159756996, 33.820188206675503 ], [ 130.569313609472999, 33.820263154987899 ], [ 130.570027387993008, 33.820782658448202 ], [ 130.570641084605995, 33.820269180179601 ], [ 130.570841808736986, 33.819867108913797 ], [ 130.571247164, 33.819614861419801 ], [ 130.571475829880995, 33.819718355459202 ], [ 130.571627348259995, 33.819782205380598 ], [ 130.571764219500011, 33.819803388284797 ], [ 130.571902849044989, 33.8198024601189 ], [ 130.571990812481005, 33.819875105811398 ], [ 130.572102729833006, 33.819933325938898 ], [ 130.572127287251988, 33.819976098371299 ], [ 130.572106829126, 33.8201014059144 ], [ 130.572095834936988, 33.820157154612403 ], [ 130.572131459786988, 33.820299141048302 ], [ 130.572185388115997, 33.820401253273303 ], [ 130.572313448851986, 33.8205408112523 ], [ 130.572419124485009, 33.820530188340001 ], [ 130.572817611978991, 33.820378646344103 ], [ 130.573039974886996, 33.820308484818497 ], [ 130.57316053075499, 33.820293756759803 ], [ 130.573660431941988, 33.820328524370197 ], [ 130.573864215242992, 33.820338172730303 ], [ 130.573923659609989, 33.820332883919498 ], [ 130.574084178313996, 33.820249404195899 ], [ 130.5744082418, 33.820137610658797 ], [ 130.57462276551999, 33.820142436787897 ], [ 130.574749540601999, 33.820200773875797 ], [ 130.574910946927986, 33.820271556935403 ], [ 130.575016631295995, 33.820259524010197 ], [ 130.575117612518, 33.820200634320798 ], [ 130.575415949997989, 33.819948223730201 ], [ 130.575441417225989, 33.819798134124298 ], [ 130.575621679686009, 33.819732681290901 ], [ 130.575719699328999, 33.8195979844701 ], [ 130.576336541985995, 33.819519524328399 ], [ 130.57657749772099, 33.819520351816898 ], [ 130.576872614210004, 33.819414645699403 ], [ 130.576963380693002, 33.8193726918918 ], [ 130.576783835158011, 33.819671165697002 ], [ 130.576945606580011, 33.820422952256997 ], [ 130.57711522236599, 33.820403317617 ], [ 130.577334427749008, 33.821386052458102 ], [ 130.57761442430899, 33.821902478676797 ], [ 130.577855240106999, 33.822182873035402 ], [ 130.577995913818, 33.822308030876101 ], [ 130.578150191275995, 33.822542624197602 ], [ 130.578366866173013, 33.822806172197502 ], [ 130.578498866053991, 33.823049142018597 ], [ 130.578558594213007, 33.8232177636364 ], [ 130.578694974826988, 33.823393410763899 ], [ 130.579278994258004, 33.824058860942699 ], [ 130.579459691394987, 33.824148019125197 ], [ 130.57973431013599, 33.824206291753498 ], [ 130.57997778831799, 33.82423832568 ], [ 130.580228885530005, 33.823989194795601 ], [ 130.580893238643995, 33.824186778431503 ], [ 130.581104848844006, 33.824348941137302 ], [ 130.581347132665002, 33.824625881608704 ], [ 130.581593814465009, 33.824936083877802 ], [ 130.581916153809004, 33.825058400314497 ], [ 130.582150027030991, 33.8251131483213 ], [ 130.582487972029014, 33.8251245763932 ], [ 130.583289967387003, 33.825286125978401 ], [ 130.583795797275002, 33.8253243214779 ], [ 130.584232511150987, 33.825445608743699 ], [ 130.584506819115006, 33.825561136300003 ], [ 130.584911881988006, 33.825770855858302 ], [ 130.586072594667996, 33.826077214020501 ], [ 130.586191928223997, 33.826105508173796 ], [ 130.586176228807005, 33.825913087720998 ], [ 130.586164790731004, 33.8256943381434 ], [ 130.586172114439989, 33.825470367988999 ], [ 130.58619173139499, 33.825288068638599 ], [ 130.586224162625996, 33.825038192371899 ], [ 130.586237658306004, 33.824829880673299 ], [ 130.586238586769014, 33.824637164226402 ], [ 130.586205756472992, 33.824321912273597 ], [ 130.586185708033014, 33.824173430878197 ], [ 130.586182205173003, 33.824024865614902 ], [ 130.586207438063013, 33.823972894912004 ], [ 130.58629516793701, 33.823921063847401 ], [ 130.586361049890002, 33.823884163048703 ], [ 130.586514327424993, 33.823812475907701 ], [ 130.586664520531997, 33.823750431034803 ], [ 130.586802266928004, 33.823688409297198 ], [ 130.586959071389998, 33.823558694520301 ], [ 130.587113048909004, 33.823358667814098 ], [ 130.587226235447986, 33.823207955981403 ], [ 130.587283020126989, 33.8230883263317 ], [ 130.587327213598996, 33.822989506707898 ], [ 130.587371399739993, 33.822901113594099 ], [ 130.587409371935991, 33.822797060142399 ], [ 130.587434903902988, 33.822682542489197 ], [ 130.58750512078899, 33.822401867184603 ], [ 130.587536248780992, 33.822317231893301 ], [ 130.587671335957992, 33.822227589722203 ], [ 130.587934109184005, 33.822139923231298 ], [ 130.588046667322999, 33.822119446962901 ], [ 130.588150212079, 33.822104858043403 ], [ 130.588271817450988, 33.822062857296999 ], [ 130.588346936228987, 33.822026690429396 ], [ 130.588416051796003, 33.821948733267597 ], [ 130.588466513429012, 33.821844721030402 ], [ 130.588498540003002, 33.821678168184697 ], [ 130.588453283116991, 33.821347237702597 ], [ 130.58852245655001, 33.8212484998893 ], [ 130.588760515263004, 33.821103411216797 ], [ 130.588973519523989, 33.820973944583002 ], [ 130.589130390743009, 33.820828585283898 ], [ 130.589227951862, 33.820670067997 ], [ 130.589317044209992, 33.820331760652103 ], [ 130.589418286260013, 33.820055973869003 ], [ 130.58958808799099, 33.8198169703156 ], [ 130.589751297138008, 33.819650776965801 ], [ 130.589882395318, 33.819608241280797 ], [ 130.59013702820701, 33.819560759751603 ], [ 130.590317605633004, 33.819433577162201 ], [ 130.590442407096987, 33.819285499807499 ], [ 130.590522446188004, 33.819207222109299 ], [ 130.59059153551101, 33.819026136217197 ], [ 130.590606654178998, 33.818889813371698 ], [ 130.59059062640199, 33.818781001588697 ], [ 130.590586046355014, 33.818660954873202 ], [ 130.590775464085993, 33.818626218726003 ], [ 130.591016497778014, 33.818590171966498 ], [ 130.591136828810988, 33.818530483118202 ], [ 130.591245272906008, 33.818450749400803 ], [ 130.591378413488997, 33.818225919180797 ], [ 130.591565276152011, 33.818061350701498 ], [ 130.591775938332006, 33.817941873293897 ], [ 130.591901980094008, 33.817942287650901 ], [ 130.592039976814988, 33.8179578143044 ], [ 130.592123983497999, 33.817968093391698 ], [ 130.592213889861995, 33.817998398517403 ], [ 130.592357595478006, 33.818073957107501 ], [ 130.59246538257301, 33.818124395148402 ], [ 130.592585165749995, 33.818189803607403 ], [ 130.592698923467992, 33.818245261184799 ], [ 130.592848754058991, 33.8183008369395 ], [ 130.59311856741499, 33.8183718095164 ], [ 130.593230617272013, 33.818395563374999 ], [ 130.593370461310997, 33.818412715769099 ], [ 130.593484542415013, 33.818408017050601 ], [ 130.593646760196009, 33.818378541543197 ], [ 130.593839049661995, 33.818334088868902 ], [ 130.593927671697003, 33.8183238115733 ], [ 130.594103342549005, 33.818304944420198 ], [ 130.594661179284998, 33.818396860321897 ], [ 130.595081161737994, 33.8184433123199 ], [ 130.595309089408005, 33.818484065961698 ], [ 130.59556065331401, 33.818605055492696 ], [ 130.595990160757992, 33.818726625159499 ], [ 130.595990160757992, 33.818726625159499 ], [ 130.596529615695999, 33.818689850416497 ], [ 130.596732343143003, 33.818705651344203 ], [ 130.597043810379006, 33.818767240931997 ], [ 130.597518386697004, 33.8188974740589 ], [ 130.597758492881013, 33.819005531619602 ], [ 130.597861044789994, 33.819084125347601 ], [ 130.597972577467999, 33.819182888974098 ], [ 130.598062951119005, 33.819276584996601 ], [ 130.598178674128008, 33.819444818705598 ], [ 130.598338272032009, 33.819624534452203 ], [ 130.59847103330199, 33.819713294389999 ], [ 130.598721632846008, 33.819842868544796 ], [ 130.598869191213993, 33.820007401527903 ], [ 130.599094003264014, 33.820155771537799 ], [ 130.599319486539997, 33.8203595099544 ], [ 130.599335118271995, 33.820373649120398 ], [ 130.599482846749993, 33.820492747565602 ], [ 130.599691135389008, 33.820619579255002 ], [ 130.599741493935994, 33.820615936576203 ], [ 130.60019830532201, 33.820574508733401 ], [ 130.600252687768005, 33.820594901112102 ], [ 130.600498776096998, 33.821052575064698 ], [ 130.600715136854006, 33.821386454681203 ], [ 130.600948340125996, 33.8216837597693 ], [ 130.601240019182995, 33.822093606344801 ], [ 130.601491200363995, 33.822436406116402 ], [ 130.601735075146991, 33.822763258149003 ], [ 130.60202597351099, 33.823050883790899 ], [ 130.602332144947013, 33.8232755153971 ], [ 130.602506216998989, 33.8234032184236 ], [ 130.602655820165012, 33.823567120075097 ], [ 130.602695187991998, 33.823567245964902 ], [ 130.602737162908994, 33.823488203384002 ], [ 130.602765517655001, 33.823405949324503 ], [ 130.602805202348009, 33.823337959459998 ], [ 130.602866027971004, 33.823269966438502 ], [ 130.602926876299989, 33.823207045761698 ], [ 130.602984634307006, 33.823154258685499 ], [ 130.603051524508004, 33.823088821924301 ], [ 130.603109298633001, 33.823033498963099 ], [ 130.603148604295995, 33.823038626095901 ], [ 130.603332765747012, 33.823137692621103 ], [ 130.603560392780992, 33.823201109672603 ], [ 130.603659387226998, 33.823201850055902 ], [ 130.603732112932988, 33.823179326264302 ], [ 130.603841346908013, 33.823119097787497 ], [ 130.603969093122998, 33.822988272299902 ], [ 130.604117916955005, 33.822880197491401 ], [ 130.604315073391007, 33.822787419866103 ], [ 130.60446345857099, 33.822775283359697 ], [ 130.604566365284001, 33.822778146221097 ], [ 130.604891995150012, 33.823049254059299 ], [ 130.604984042246997, 33.823111395581897 ], [ 130.605092617601997, 33.823194998683299 ], [ 130.605235342575014, 33.823091976822099 ], [ 130.605323333898014, 33.823044354518899 ], [ 130.605620209046009, 33.822987186030701 ], [ 130.606074421429014, 33.8229533331046 ], [ 130.606198529527006, 33.822943582981402 ], [ 130.606340907280014, 33.822916282283003 ], [ 130.606449135540004, 33.822853579561503 ], [ 130.607040230268012, 33.822497609793501 ], [ 130.608538613082999, 33.821595268131297 ], [ 130.609260493080996, 33.821959890730398 ], [ 130.609675367298991, 33.822141242393599 ], [ 130.610341984748004, 33.8225123006969 ], [ 130.610515333249992, 33.822578703158896 ], [ 130.610783508314995, 33.822614692473699 ], [ 130.611230485589999, 33.822677579839102 ], [ 130.61135154918901, 33.822669150431203 ], [ 130.611715290024989, 33.822520949298898 ], [ 130.612079664425011, 33.822241021498698 ], [ 130.612222315800011, 33.822105301747698 ], [ 130.612489778485013, 33.821726243094901 ], [ 130.612622273302009, 33.821511455118603 ], [ 130.613823693309996, 33.821133032168198 ], [ 130.613903782867993, 33.820869828004703 ], [ 130.614035940321997, 33.820738440326302 ], [ 130.614426388957014, 33.8204937336752 ], [ 130.614912477269996, 33.820622382105 ], [ 130.615060448813011, 33.820304017567103 ], [ 130.61509685658001, 33.820145353683799 ], [ 130.615074051010993, 33.819922054343401 ], [ 130.615113554203987, 33.819731144176302 ], [ 130.615389169100013, 33.819240749021198 ], [ 130.615455475272995, 33.819037525777297 ], [ 130.615462661294004, 33.818759734524598 ], [ 130.615517244329993, 33.818506886022398 ], [ 130.614310130176989, 33.818602341975797 ], [ 130.613356417682013, 33.817182853446901 ], [ 130.613161605959988, 33.816879569531899 ], [ 130.613174368930999, 33.816686112695002 ], [ 130.613204739135995, 33.816537368622498 ], [ 130.613258839975003, 33.816403559817303 ], [ 130.613363768612999, 33.816207922395002 ], [ 130.613722676104999, 33.815697996897299 ], [ 130.613926048711988, 33.8154158142165 ], [ 130.614229789233008, 33.815287777602002 ], [ 130.614367871307991, 33.814638824567297 ], [ 130.614229789233008, 33.815287777602002 ], [ 130.615553400111992, 33.815723520402599 ], [ 130.615332461002993, 33.813939104185003 ], [ 130.61404066306801, 33.813037074201702 ], [ 130.614011777546011, 33.812181073083998 ], [ 130.613976925365989, 33.8096443749535 ], [ 130.613186280615992, 33.809118197125997 ], [ 130.612953020949988, 33.808991594307898 ], [ 130.613180780259, 33.8070245092864 ], [ 130.613118528603991, 33.806764675975401 ], [ 130.613043557031006, 33.806301795347501 ], [ 130.612908529486987, 33.805768147230701 ], [ 130.612845513554987, 33.805679690329399 ], [ 130.612791399608994, 33.805638313650803 ], [ 130.612484336735008, 33.805403706716604 ], [ 130.612350820638994, 33.805202888190998 ], [ 130.612279151937997, 33.805021141326797 ], [ 130.61227207034301, 33.8045862255481 ], [ 130.612204306997, 33.8040319388029 ], [ 130.612675128391999, 33.804109062485502 ], [ 130.612661185423008, 33.803679830488697 ], [ 130.612788509724993, 33.803566750127104 ], [ 130.61291584253101, 33.803461277713303 ], [ 130.613097159283001, 33.803435359728098 ], [ 130.613251321824009, 33.8034055523947 ], [ 130.613323919469991, 33.803379363248297 ], [ 130.613387615108991, 33.803315250955997 ], [ 130.613460806019987, 33.803156638277002 ], [ 130.61351544663799, 33.803088764754797 ], [ 130.613665080099992, 33.803062749257897 ], [ 130.613832807485011, 33.803036784526903 ], [ 130.613900910588995, 33.8030067079251 ], [ 130.613946496716011, 33.802935001175598 ], [ 130.613965077455987, 33.802836726025397 ], [ 130.613898075277007, 33.802620972500002 ], [ 130.613930255763989, 33.802519004824497 ], [ 130.614044617703001, 33.802265921549797 ], [ 130.614142455357012, 33.802169794297797 ], [ 130.614260411738002, 33.802132405299602 ], [ 130.614529286758994, 33.801770127782802 ], [ 130.614570528821986, 33.8016605824387 ], [ 130.615120063841999, 33.800836037619803 ], [ 130.614066467404996, 33.800317700721003 ], [ 130.614416451593002, 33.799939123071098 ], [ 130.615062613667988, 33.799221878185698 ], [ 130.615797192242013, 33.798370647004901 ], [ 130.616342988747988, 33.797811434333703 ], [ 130.616606936206011, 33.797252189708402 ], [ 130.616680172347003, 33.797166551858098 ], [ 130.616824346213008, 33.797036403902503 ], [ 130.616940757776007, 33.796879262427602 ], [ 130.617731202838002, 33.796484505838301 ], [ 130.617722942282001, 33.796416503549203 ], [ 130.617513186485013, 33.796351402110901 ], [ 130.617329229239004, 33.796272151470703 ], [ 130.617235524405999, 33.796132249664097 ], [ 130.617184763365998, 33.795981845641698 ], [ 130.617198375763991, 33.795813679114701 ], [ 130.617281785379987, 33.7953630551198 ], [ 130.617508180490006, 33.794088024226802 ], [ 130.618147663808998, 33.792930495538698 ], [ 130.618543668184998, 33.792552401334603 ], [ 130.619119569508001, 33.792196347949798 ], [ 130.619789188222995, 33.791976528030297 ], [ 130.619986372410011, 33.791962835846199 ], [ 130.62028982161101, 33.791190766948503 ], [ 130.620833645801014, 33.789356641557902 ], [ 130.621399399376998, 33.787673534254303 ], [ 130.622566049835001, 33.786229582946703 ], [ 130.623074014673989, 33.783741685817901 ], [ 130.622985286826008, 33.783698872561203 ], [ 130.622937019543002, 33.783644698647997 ], [ 130.622925324038988, 33.7835501342771 ], [ 130.622917623723993, 33.783459033010097 ], [ 130.622873743605993, 33.783327249506698 ], [ 130.622846033337993, 33.783192133592998 ], [ 130.622830587054011, 33.783030079161897 ], [ 130.622790904000993, 33.782854424557797 ], [ 130.622767094290992, 33.782753060673201 ], [ 130.622775561314, 33.782668700834201 ], [ 130.622671473596, 33.782435516467302 ], [ 130.622563774636006, 33.782111165211603 ], [ 130.62245545605299, 33.781918393404403 ], [ 130.622258301372995, 33.781708514180501 ], [ 130.622132851884999, 33.781854499793802 ], [ 130.621732161072003, 33.782072822295099 ], [ 130.620919272182988, 33.782737866214603 ], [ 130.620223960116988, 33.782972885526 ], [ 130.619592057277004, 33.7831378008079 ], [ 130.618846389407992, 33.782863244149098 ], [ 130.618446697629992, 33.782862003177499 ], [ 130.618021091215013, 33.782759667828998 ], [ 130.617800668240989, 33.7826535329419 ], [ 130.617401555722012, 33.782511764734799 ], [ 130.616929193798995, 33.782281925338701 ], [ 130.616382720674011, 33.782166036605197 ], [ 130.615972797134987, 33.782085721920502 ], [ 130.615741951568992, 33.781962011371803 ], [ 130.615616411860003, 33.781803549900197 ], [ 130.615235443205989, 33.781130358668598 ], [ 130.615188057517003, 33.780991653884797 ], [ 130.615089781439991, 33.780858354643001 ], [ 130.614428076196987, 33.780204985950697 ], [ 130.614308152941987, 33.779998218808302 ], [ 130.61386098346199, 33.779276769889897 ], [ 130.61370337534899, 33.7789047733229 ], [ 130.613609857683002, 33.778319680742698 ], [ 130.613557203161008, 33.777810429108499 ], [ 130.61345994404499, 33.777447767673699 ], [ 130.613394205225006, 33.777406280346 ], [ 130.613202003503005, 33.777396515613603 ], [ 130.612867317666002, 33.777322057251403 ], [ 130.612844924570993, 33.7773213513426 ], [ 130.612071036029988, 33.777296641344897 ], [ 130.611895612568986, 33.777222684489502 ], [ 130.611753170263, 33.777139675075702 ], [ 130.610767544385993, 33.777088361944898 ], [ 130.610635924556988, 33.777037506222797 ], [ 130.610476829302996, 33.777000300810002 ], [ 130.610180304893987, 33.776985621222003 ], [ 130.610043021888004, 33.776985185790501 ], [ 130.609840023434998, 33.776929526594301 ], [ 130.609418115251003, 33.776717144410497 ], [ 130.609253703337998, 33.776634133216596 ], [ 130.60889697579799, 33.776577917826799 ], [ 130.608312012336, 33.776582959426797 ], [ 130.60798772813601, 33.776636942314298 ], [ 130.607354990103005, 33.776891755502596 ], [ 130.607212348386014, 33.7768546011852 ], [ 130.607075374880992, 33.776776255674598 ], [ 130.606663696844009, 33.776729012049799 ], [ 130.606114089225002, 33.776814461105197 ], [ 130.605885724227988, 33.776912278958399 ], [ 130.605610557469987, 33.7770352350637 ], [ 130.605500524435001, 33.777071581586597 ], [ 130.605429140120009, 33.777066774035497 ], [ 130.605357905700998, 33.777039073843298 ], [ 130.605128720533003, 33.7767034583689 ], [ 130.604877835892012, 33.7763174058083 ], [ 130.604769033657988, 33.776092345672097 ], [ 130.604676050436012, 33.7760049109935 ], [ 130.604572107118997, 33.775917441048698 ], [ 130.604358585590006, 33.7757653758879 ], [ 130.604287765370998, 33.775636734312599 ], [ 130.604198123478994, 33.775427723463203 ], [ 130.604100330107997, 33.775193542992703 ], [ 130.603914414641991, 33.775009443328898 ], [ 130.603865423967989, 33.774912992738201 ], [ 130.603750742470993, 33.774775052344999 ], [ 130.603597725083006, 33.774600284372902 ], [ 130.603516068478996, 33.774444065319798 ], [ 130.603401849681006, 33.774196021608702 ], [ 130.603320005764004, 33.774081078046798 ], [ 130.603166428455012, 33.774039303756403 ], [ 130.60289756278101, 33.773983423618503 ], [ 130.602829416191014, 33.773880005412202 ], [ 130.602606470302987, 33.773383941737301 ], [ 130.602536136169988, 33.773149775130697 ], [ 130.602426712956003, 33.773062285936199 ], [ 130.602196525749008, 33.772960668876699 ], [ 130.602098321476007, 33.772818130117898 ], [ 130.601457317711009, 33.7718781247507 ], [ 130.601189117203006, 33.771680090148799 ], [ 130.600878696129001, 33.771592581806402 ], [ 130.60051909647899, 33.771516326491799 ], [ 130.600745833892006, 33.771237620411803 ], [ 130.601005495500999, 33.770970920713197 ], [ 130.601288304339988, 33.770723670085303 ], [ 130.601573929133991, 33.770533273304501 ], [ 130.6019711239, 33.7703097069734 ], [ 130.602368258904988, 33.770099029927401 ], [ 130.602957988263995, 33.769741606486598 ], [ 130.603097712228987, 33.769638647134201 ], [ 130.603178645129987, 33.769545856593901 ], [ 130.603217849127986, 33.7694284123546 ], [ 130.603268207311999, 33.769242466654802 ], [ 130.60341478200499, 33.769005125879403 ], [ 130.603620462458991, 33.7686981665966 ], [ 130.60377509305701, 33.768376814513097 ], [ 130.603865862893997, 33.768160002797401 ], [ 130.603881904070988, 33.768035935267598 ], [ 130.603857987679987, 33.767842001797099 ], [ 130.603749833136987, 33.767468171195098 ], [ 130.603728567811004, 33.767377583751603 ], [ 130.603726218334003, 33.7672173209791 ], [ 130.603882689404998, 33.766842999230803 ], [ 130.604095859865993, 33.766583892898801 ], [ 130.604173830182987, 33.766454880714498 ], [ 130.60419890021501, 33.766385222685102 ], [ 130.604193090016992, 33.766299900227303 ], [ 130.604171789275, 33.766217061332199 ], [ 130.604085672731003, 33.766097879673303 ], [ 130.603990367612994, 33.765958028466599 ], [ 130.60397518714899, 33.765893316135298 ], [ 130.604036639502993, 33.765649287737602 ], [ 130.604186649906012, 33.765331791869599 ], [ 130.604227383889992, 33.765220763846003 ], [ 130.604245634779005, 33.764953283231897 ], [ 130.604240211405994, 33.764782653721298 ], [ 130.604213672312, 33.764498264590699 ], [ 130.604220567374995, 33.764335425317398 ], [ 130.604272343550008, 33.764179208533498 ], [ 130.604431343468008, 33.763923799904902 ], [ 130.604683411176012, 33.763622196561599 ], [ 130.604776828635011, 33.763498373639102 ], [ 130.605006412313003, 33.7630299602421 ], [ 130.605196929686002, 33.762647995707397 ], [ 130.605315262624998, 33.762488115988099 ], [ 130.605476958839006, 33.7623154120759 ], [ 130.605508272456007, 33.7622354186095 ], [ 130.605387307484989, 33.762297023070502 ], [ 130.605222842534005, 33.762392160905897 ], [ 130.605064773688014, 33.762443362210497 ], [ 130.604759594524012, 33.762518607182102 ], [ 130.604527091079007, 33.762608383496698 ], [ 130.604046483036996, 33.762805849614502 ], [ 130.603655777910006, 33.762975210565102 ], [ 130.603322652413993, 33.763065931804803 ], [ 130.603102715727005, 33.763109183370197 ], [ 130.602876700141991, 33.763134311418398 ], [ 130.602616710171986, 33.763138619582001 ], [ 130.602301038618009, 33.763137606775103 ], [ 130.602084549242988, 33.763108453210798 ], [ 130.601933092926004, 33.763058869881199 ], [ 130.601634984079993, 33.762942878783399 ], [ 130.601406239981003, 33.762882692078698 ], [ 130.601140513012012, 33.762786247215502 ], [ 130.600973828254013, 33.7626925862535 ], [ 130.600831954681013, 33.762586185216797 ], [ 130.600595739992002, 33.762473000651603 ], [ 130.600286476628014, 33.7624176923498 ], [ 130.60004842134299, 33.762365219980097 ], [ 130.599856877783992, 33.762294796078798 ], [ 130.599718063761998, 33.762193545199302 ], [ 130.599539311281006, 33.762037927578298 ], [ 130.59940036215599, 33.7619650639528 ], [ 130.599272044356013, 33.761937529470401 ], [ 130.599086478248012, 33.761916220537003 ], [ 130.598931829526009, 33.7618924743416 ], [ 130.598712426806003, 33.7618193515735 ], [ 130.598675235787994, 33.761837334644099 ], [ 130.598606385410989, 33.761999972552502 ], [ 130.598450322615008, 33.762291587041702 ], [ 130.598356750264998, 33.762446323922603 ], [ 130.598213710380008, 33.762593223883897 ], [ 130.597849832627986, 33.762977215809997 ], [ 130.597472926046009, 33.763168577024501 ], [ 130.597299339408011, 33.7632274622107 ], [ 130.597091746768996, 33.763281026967199 ], [ 130.59698025589401, 33.763298768495403 ], [ 130.596881200331012, 33.763298445479997 ], [ 130.596658503767998, 33.763271865476803 ], [ 130.596262612118011, 33.763218868726497 ], [ 130.596117216055006, 33.763200290936197 ], [ 130.595447534024004, 33.763127025952997 ], [ 130.595039102975988, 33.763105048207301 ], [ 130.59493074321, 33.763120190169303 ], [ 130.594794375469007, 33.763163698382598 ], [ 130.594631539981009, 33.763231633655202 ], [ 130.594544649400007, 33.763290803053799 ], [ 130.594076649442997, 33.763689651268102 ], [ 130.593997773348008, 33.763756875192797 ], [ 130.593904556183986, 33.763834124451002 ], [ 130.593880901894011, 33.763842568984799 ], [ 130.593811544354992, 33.763867418048797 ], [ 130.593681520844001, 33.763879881914598 ], [ 130.593502006763003, 33.763879291636798 ], [ 130.593356658321994, 33.763850428010301 ], [ 130.593237827695987, 33.7637867072769 ], [ 130.592468425302997, 33.764187377158898 ], [ 130.592203251380994, 33.763974545765997 ], [ 130.592045982900004, 33.7638525866221 ], [ 130.591866865578993, 33.7637769762555 ], [ 130.591936165778009, 33.763513544723502 ], [ 130.591882186593011, 33.763478498246201 ], [ 130.591322188172995, 33.763664795562697 ], [ 130.590932588073997, 33.763834184460599 ], [ 130.589992820273011, 33.764393118721102 ], [ 130.588856043866997, 33.764974282859797 ], [ 130.588591203019007, 33.765110831508103 ], [ 130.588346069904986, 33.765297387197002 ], [ 130.588195669040005, 33.765480033292498 ], [ 130.588019811691993, 33.765775016177201 ], [ 130.587869542680011, 33.7659202565439 ], [ 130.587714617632003, 33.766007157302397 ], [ 130.587539844040009, 33.766073211022203 ], [ 130.58647355133499, 33.766500532712101 ], [ 130.586318525409013, 33.766599899312702 ], [ 130.586103279994006, 33.766786550296601 ], [ 130.585757649449988, 33.767139286231398 ], [ 130.585542483054013, 33.767309243610498 ], [ 130.585405004698998, 33.767398311954302 ], [ 130.585230200385013, 33.767460135157201 ], [ 130.584860897649008, 33.7675505380735 ], [ 130.583383236920014, 33.767995183329496 ], [ 130.583203420351992, 33.768073678995798 ], [ 130.583073244936003, 33.768185663392003 ], [ 130.582960302020012, 33.768353845590099 ], [ 130.582914691794997, 33.768507746103403 ], [ 130.583098472474006, 33.768876843452396 ], [ 130.583290553734003, 33.769169115305203 ], [ 130.583326597584005, 33.769460932847601 ], [ 130.583194854043001, 33.7696010885088 ], [ 130.582788229802986, 33.7698027953709 ], [ 130.582474360806003, 33.770402598236302 ], [ 130.582175608568008, 33.770849171538401 ], [ 130.581729363761013, 33.771376396808002 ], [ 130.581506591215003, 33.7716583198048 ], [ 130.581311473880987, 33.771436332623999 ], [ 130.581214709631013, 33.771361688254501 ], [ 130.581083534481991, 33.771303763094899 ], [ 130.581030423440012, 33.771281112083003 ], [ 130.581044977948011, 33.771175713496199 ], [ 130.58109829473301, 33.771121159259401 ], [ 130.581217107816997, 33.771074717706703 ], [ 130.581292430585989, 33.770978610476803 ], [ 130.581397535359997, 33.7708630902655 ], [ 130.581413540222002, 33.770779812384099 ], [ 130.581395094343009, 33.770722480459 ], [ 130.581245630300998, 33.770662099002003 ], [ 130.581148962365006, 33.770646132564899 ], [ 130.580919728803991, 33.770668882661198 ], [ 130.580887438721987, 33.770648485939397 ], [ 130.58081925881001, 33.770523221040797 ], [ 130.580787533700004, 33.770394768589803 ], [ 130.580735043391002, 33.770374303238803 ], [ 130.580569473948003, 33.770312951632597 ], [ 130.580533004661987, 33.770319590108699 ], [ 130.580474378032989, 33.770434208707798 ], [ 130.580433200180011, 33.770551283230503 ], [ 130.580379770078991, 33.770629222785402 ], [ 130.580323523774013, 33.770652416494897 ], [ 130.580228000152999, 33.770653008049599 ], [ 130.580122797112011, 33.770649269139298 ], [ 130.57996518139899, 33.770618302354102 ], [ 130.579737596495988, 33.770491579819897 ], [ 130.579671606302014, 33.770585112648099 ], [ 130.579630838663007, 33.770634494136601 ], [ 130.578350018818014, 33.772676870755198 ], [ 130.578274967531996, 33.772716835329099 ], [ 130.578189383342988, 33.7727366187477 ], [ 130.578090358055988, 33.772763048654099 ], [ 130.577625762602992, 33.772945593259003 ], [ 130.577545223597014, 33.773021185783897 ], [ 130.577461861272013, 33.773130294268398 ], [ 130.577370289942991, 33.7732705801075 ], [ 130.577265555456989, 33.7733773628213 ], [ 130.576973205679991, 33.773592829358599 ], [ 130.575797217065002, 33.774426904255101 ], [ 130.57530507242501, 33.774781152870901 ], [ 130.575229860477009, 33.774852321075102 ], [ 130.575208147929004, 33.774919236614799 ], [ 130.575168517565004, 33.775372178788999 ], [ 130.57434301382699, 33.775304599363501 ], [ 130.574273510143001, 33.775304359717701 ], [ 130.574203949827989, 33.775324195611098 ], [ 130.574100609383009, 33.775411961246199 ], [ 130.573982280312009, 33.775563354567502 ], [ 130.573893652087008, 33.775652297300802 ], [ 130.573754312109997, 33.775727754794403 ], [ 130.573474755484, 33.776048140897103 ], [ 130.57339678335299, 33.776148320245099 ], [ 130.573306578327987, 33.776283045043002 ], [ 130.572932965740989, 33.7761679200974 ], [ 130.572844908667008, 33.776140847221697 ], [ 130.572644627397011, 33.776104439824202 ], [ 130.57259394951501, 33.7760841880336 ], [ 130.572551503613994, 33.776019306596602 ], [ 130.572471835881004, 33.775916327265499 ], [ 130.57241072941801, 33.775846941141502 ], [ 130.572304015963994, 33.775806420985496 ], [ 130.57218132186199, 33.775756897653899 ], [ 130.571992006726987, 33.775669176449199 ], [ 130.571829115512003, 33.775637335027803 ], [ 130.571730279769014, 33.7756325543427 ], [ 130.571479772532996, 33.7756808534999 ], [ 130.571322968912, 33.775748495107401 ], [ 130.571111318465995, 33.775895476925101 ], [ 130.570769825731986, 33.7761670385608 ], [ 130.570454448823, 33.776648886351602 ], [ 130.570242108284987, 33.777536270825401 ], [ 130.570242607890009, 33.777707234077901 ], [ 130.570194518199997, 33.777836467237897 ], [ 130.569823081350989, 33.778401731891002 ], [ 130.569746313184993, 33.7784367566654 ], [ 130.569661716903994, 33.778451887358699 ], [ 130.569442950013013, 33.778349688467898 ], [ 130.569103647356002, 33.778854697955701 ], [ 130.569285492366987, 33.7789435971115 ], [ 130.569285316214007, 33.778978887201198 ], [ 130.568815691510991, 33.779651162556299 ], [ 130.568717437662997, 33.779756693046103 ], [ 130.568319864252999, 33.780020023424598 ], [ 130.568219283558989, 33.780059329709097 ], [ 130.567980010892001, 33.780101531764203 ], [ 130.56788475317299, 33.780138673268297 ], [ 130.567823644491, 33.780204674452001 ], [ 130.567741185389991, 33.780323503049502 ], [ 130.567650982969013, 33.780395952781497 ], [ 130.567224658299011, 33.7806040226167 ], [ 130.56646605769501, 33.780963078335702 ], [ 130.566679914460991, 33.781505455434797 ], [ 130.566856962732004, 33.781751988496602 ], [ 130.566935461877989, 33.781902304004298 ], [ 130.566937616767007, 33.781919135002298 ], [ 130.566950721874008, 33.782021474854602 ], [ 130.56695223023101, 33.782242103816998 ], [ 130.566907623715991, 33.782448200351404 ], [ 130.566859369514987, 33.782591379713203 ], [ 130.566792541317, 33.782745553205302 ], [ 130.566749747317999, 33.782851276749803 ], [ 130.566757234670007, 33.782939565805002 ], [ 130.566819973203991, 33.7830698905113 ], [ 130.566952448604013, 33.783256815314999 ], [ 130.566970480572991, 33.783345070897198 ], [ 130.566984745322003, 33.783662742630199 ], [ 130.566965018340994, 33.7839119656715 ], [ 130.56692483157201, 33.784279107684803 ], [ 130.566804019908005, 33.784666956719903 ], [ 130.566787474112999, 33.784803626869198 ], [ 130.567010281388008, 33.784725584400199 ], [ 130.567532717446994, 33.785358008049002 ], [ 130.567637160640004, 33.785492002073497 ], [ 130.567641632635002, 33.785592256082097 ], [ 130.567633998833003, 33.786122582763603 ], [ 130.567638303429987, 33.786256226574402 ], [ 130.567682995253989, 33.786327388168502 ], [ 130.567837799728011, 33.7864030918373 ], [ 130.568049900033998, 33.786535417263302 ], [ 130.567341242396992, 33.787033731500998 ], [ 130.566726547054003, 33.787465966658502 ], [ 130.566891748372996, 33.787713585884902 ], [ 130.567400262236987, 33.788248050420897 ], [ 130.567928472441992, 33.7888013884725 ], [ 130.568442290810992, 33.789340375186597 ], [ 130.568135248564005, 33.7897175748544 ], [ 130.568018237080992, 33.789851144267303 ], [ 130.567857213900993, 33.790013443462797 ], [ 130.56776376748499, 33.790166397815803 ], [ 130.567495383792988, 33.790261681119503 ], [ 130.567285780450987, 33.790344632835797 ], [ 130.56645015395199, 33.790708351195399 ], [ 130.565273068902002, 33.789791075953197 ], [ 130.56445310399701, 33.789111169113802 ], [ 130.564111677917992, 33.788886874871402 ], [ 130.563880246268013, 33.788665643879199 ], [ 130.563649432098003, 33.788323679371999 ], [ 130.563231094179997, 33.787771133140403 ], [ 130.562531786758001, 33.787037329165798 ], [ 130.562305554764009, 33.786799771957199 ], [ 130.56210949123701, 33.786593808923399 ], [ 130.56216459009201, 33.786168819387299 ], [ 130.562211857946011, 33.785981189145197 ], [ 130.56218647889699, 33.7857713240438 ], [ 130.561986050329011, 33.785486239217697 ], [ 130.561657751761004, 33.7849659908089 ], [ 130.561600067517986, 33.7848738514056 ], [ 130.561533026347007, 33.784766762175799 ], [ 130.561295936655, 33.784534025484596 ], [ 130.560937093162011, 33.784165537516103 ], [ 130.560982223596, 33.783429864103397 ], [ 130.560996902639999, 33.783148361050699 ], [ 130.560958591265006, 33.782869346863301 ], [ 130.560932569214003, 33.782786414378897 ], [ 130.560896380443012, 33.782736624292099 ], [ 130.560866417735014, 33.782772372508603 ], [ 130.560845188110989, 33.783048428256002 ], [ 130.560771964547001, 33.7831309377803 ], [ 130.560593984700006, 33.783235121560203 ], [ 130.560139894571989, 33.783455888045197 ], [ 130.559848257070001, 33.783532120036703 ], [ 130.559434420156009, 33.7835693152199 ], [ 130.559078807855002, 33.7835445856295 ], [ 130.559187089073987, 33.782110639205399 ], [ 130.559239844489014, 33.781173532004601 ], [ 130.558858783169995, 33.781195412856299 ], [ 130.558246773119009, 33.781239007687198 ], [ 130.558014894628997, 33.781285090802903 ], [ 130.55760708622401, 33.781390345272101 ], [ 130.557040523560005, 33.7815772348889 ], [ 130.557020677904006, 33.781154654129303 ], [ 130.557003231913995, 33.780881700180501 ], [ 130.556910344204994, 33.780613687056501 ], [ 130.556892626440003, 33.780393211721503 ], [ 130.556925290383987, 33.780151927591803 ], [ 130.556819594444988, 33.779931133039703 ], [ 130.556827012701007, 33.7797107464337 ], [ 130.55581022540801, 33.780100503412697 ], [ 130.555769105668986, 33.780116274986398 ], [ 130.555569871186009, 33.779853371689498 ], [ 130.554951156410993, 33.780224267616397 ], [ 130.554947381826992, 33.780342526238599 ], [ 130.554827075026992, 33.7804840317242 ], [ 130.554704069364988, 33.780536138955199 ], [ 130.554584539823992, 33.780527817404 ], [ 130.554487040617005, 33.7805169663051 ], [ 130.554416000824006, 33.780544323119798 ], [ 130.554392416902004, 33.780553395251701 ], [ 130.554114746733006, 33.780751881723802 ], [ 130.553782341756005, 33.781118664959102 ], [ 130.551805279278, 33.782499333897 ], [ 130.551714892176989, 33.7827659799513 ], [ 130.551575976947987, 33.7828590211559 ], [ 130.55167979684299, 33.7831786404765 ], [ 130.551750779935986, 33.783470598607202 ], [ 130.551611518778003, 33.783629711872699 ], [ 130.551400356399995, 33.7836730393106 ], [ 130.551331327353012, 33.784267176675399 ], [ 130.551490574296992, 33.784699845547003 ], [ 130.551533903322991, 33.785239446690603 ], [ 130.551204457741989, 33.786471189166697 ], [ 130.550216299239992, 33.786357485774097 ], [ 130.550091157037002, 33.7863405450736 ], [ 130.54953577514101, 33.786652265409202 ], [ 130.549319064857002, 33.786497345635702 ], [ 130.549440460221007, 33.7859749003077 ], [ 130.549342571082008, 33.785787378618998 ], [ 130.549006113443994, 33.785841163384397 ], [ 130.548729334497011, 33.785823666278198 ], [ 130.548519264524998, 33.785657781899502 ], [ 130.548229443719009, 33.785618190354398 ], [ 130.54793883922099, 33.785727152025601 ], [ 130.547977478652996, 33.7859034697601 ], [ 130.548324734850013, 33.786306542289502 ], [ 130.548394448441996, 33.786517348223498 ], [ 130.548423636494988, 33.78661374859 ], [ 130.548416505012995, 33.786710088171297 ], [ 130.548369751022989, 33.786833755087301 ], [ 130.548339403543991, 33.786957481562901 ], [ 130.548315592631013, 33.787097714950797 ], [ 130.54829571777401, 33.787426537523203 ], [ 130.548326920991002, 33.787765197312702 ], [ 130.548562066123992, 33.788176104212198 ], [ 130.548663949244997, 33.788541159499502 ], [ 130.548678499885, 33.788909976208899 ], [ 130.54865344195801, 33.789286891293003 ], [ 130.548604235586993, 33.789555025982203 ], [ 130.548529525551004, 33.7897240264506 ], [ 130.548422880259011, 33.789861702314802 ], [ 130.548216719495997, 33.790048678091601 ], [ 130.548047588521001, 33.790108776245397 ], [ 130.54783418743699, 33.790101091032497 ], [ 130.547635902069004, 33.790042390229203 ], [ 130.547431095651007, 33.789972606024797 ], [ 130.547113691530996, 33.789913465917003 ], [ 130.546906971954002, 33.789894743965299 ], [ 130.546628951727001, 33.789893722431799 ], [ 130.545865820078006, 33.789323572561202 ], [ 130.545354709745993, 33.788940526184199 ], [ 130.545099447375009, 33.788714169143098 ], [ 130.544842800489988, 33.788462516462303 ], [ 130.544685624826997, 33.788147199909801 ], [ 130.544613789466013, 33.787964699452601 ], [ 130.54457574507299, 33.787655317047601 ], [ 130.544557432550988, 33.787362630808097 ], [ 130.544558637220007, 33.787136232569502 ], [ 130.544622308940006, 33.786990091543302 ], [ 130.544702200930999, 33.786902048932902 ], [ 130.545107649919998, 33.786583313996097 ], [ 130.545393346526993, 33.786374521466001 ], [ 130.545526905526998, 33.786148613270299 ], [ 130.545660917452011, 33.785845361924203 ], [ 130.545694687679003, 33.7857129844624 ], [ 130.545629151817991, 33.785591300351598 ], [ 130.545493913207991, 33.7855052146936 ], [ 130.544475919895007, 33.785263998911397 ], [ 130.544294609153013, 33.785228528550199 ], [ 130.543768336997005, 33.785204039912301 ], [ 130.543592632913004, 33.785248472334303 ], [ 130.543539318124999, 33.785279832986198 ], [ 130.541719724831012, 33.787037380165501 ], [ 130.541670006792003, 33.7870509316812 ], [ 130.541531199437003, 33.787017308212697 ], [ 130.541359431045009, 33.786955947949501 ], [ 130.54111444593201, 33.786971591059398 ], [ 130.541045723013013, 33.786997258167801 ], [ 130.540977811758012, 33.7870759010911 ], [ 130.540869589115005, 33.787120581449003 ], [ 130.540788482570008, 33.7871428210671 ], [ 130.540626390427008, 33.787164758965403 ], [ 130.540531725616006, 33.787198218726303 ], [ 130.540436757871987, 33.787288031374203 ], [ 130.540355469284009, 33.787344082491103 ], [ 130.540274483549013, 33.787343780597901 ], [ 130.540207177248988, 33.787309717202902 ], [ 130.54015597698799, 33.787198296844501 ], [ 130.540073292303987, 33.787106343180398 ], [ 130.539952117282013, 33.787049537063403 ], [ 130.539817141578993, 33.787049033421901 ], [ 130.53965887331799, 33.787089087528699 ], [ 130.539573517673006, 33.787172103040596 ], [ 130.539559473802001, 33.7872734879966 ], [ 130.539545347975007, 33.7873583879676 ], [ 130.53952519396401, 33.787435376402598 ], [ 130.539410271471013, 33.787408180666397 ], [ 130.539323706906004, 33.787394120999103 ], [ 130.539353420171011, 33.787296738833298 ], [ 130.539121881303998, 33.787243816574701 ], [ 130.539113445103993, 33.787384530004097 ], [ 130.539099113395991, 33.787601649464797 ], [ 130.539018907079992, 33.787558450647602 ], [ 130.538881626635003, 33.787468827441799 ], [ 130.538723758723989, 33.787364828304199 ], [ 130.538565922407003, 33.787246386669601 ], [ 130.538345031957988, 33.787064662026197 ], [ 130.538067347930991, 33.786878852606897 ], [ 130.537673720182994, 33.786636744583198 ], [ 130.537347298247994, 33.786432293320097 ], [ 130.537151293682001, 33.7862671435512 ], [ 130.537070508059998, 33.785840872333999 ], [ 130.536882148292989, 33.785682162004797 ], [ 130.536646682270003, 33.785483753552498 ], [ 130.536453658652988, 33.785243874590897 ], [ 130.535692389269997, 33.785106463298703 ], [ 130.535567213298009, 33.7851660789498 ], [ 130.53532541601399, 33.785108320495702 ], [ 130.535192945533993, 33.785020259665302 ], [ 130.535075749063992, 33.784938669068197 ], [ 130.53498673198601, 33.784848662448901 ], [ 130.53501806869599, 33.784733463587997 ], [ 130.535076282717995, 33.784608785742797 ], [ 130.535126625240991, 33.784550295911799 ], [ 130.535216517891001, 33.784517807860603 ], [ 130.535319960484003, 33.783987480141803 ], [ 130.535293690649013, 33.7838006376127 ], [ 130.535169849086003, 33.783499448322701 ], [ 130.535149678440007, 33.783198720779801 ], [ 130.53525946110301, 33.783076141930302 ], [ 130.535429709831988, 33.782871794524098 ], [ 130.535337737638997, 33.7827210526481 ], [ 130.535179821304013, 33.782674949250399 ], [ 130.534963282478998, 33.782796427366499 ], [ 130.534814122334012, 33.782705420305298 ], [ 130.534654452490997, 33.782739761735698 ], [ 130.534480929897001, 33.782777078947397 ], [ 130.534272550507012, 33.782972199891901 ], [ 130.534185387533, 33.782944541018601 ], [ 130.534053979609013, 33.782955389210997 ], [ 130.533994168848011, 33.7830093353178 ], [ 130.533982472806997, 33.7831351029986 ], [ 130.533808716690004, 33.783230745454603 ], [ 130.533673669794013, 33.783305188294896 ], [ 130.53352879788801, 33.7833483894943 ], [ 130.533373959675004, 33.7833935958719 ], [ 130.533244086969006, 33.783424314256301 ], [ 130.533179131188007, 33.783446963321403 ], [ 130.533106755671014, 33.7834612727371 ], [ 130.533056800225012, 33.783471509784 ], [ 130.533011694895009, 33.783512972304003 ], [ 130.53292660525301, 33.783568865426602 ], [ 130.532816714499006, 33.783601770119503 ], [ 130.532636753073007, 33.783582285430398 ], [ 130.532532855682007, 33.783521594623899 ], [ 130.532413297902991, 33.783494094252397 ], [ 130.532189233422002, 33.783432881637403 ], [ 130.531988338040009, 33.783400212103501 ], [ 130.53177520860001, 33.7832137232379 ], [ 130.531721890672998, 33.783160408395403 ], [ 130.531657322531998, 33.783112263296601 ], [ 130.531537708021006, 33.783095116513998 ], [ 130.531440632590005, 33.783067700195801 ], [ 130.531341095431003, 33.783027806189502 ], [ 130.531244137505013, 33.782971156537599 ], [ 130.531131860335989, 33.782985314137001 ], [ 130.531086970508994, 33.782987258412199 ], [ 130.530994635717008, 33.782995220722199 ], [ 130.53083983232699, 33.783034226097399 ], [ 130.530757573333005, 33.783027645259303 ], [ 130.530538822838992, 33.7830053332587 ], [ 130.530358320966002, 33.782915259674198 ], [ 130.53023341761201, 33.782870548190502 ], [ 130.530137144162012, 33.782866169200403 ], [ 130.530021670205997, 33.782855658860598 ], [ 130.529988043959008, 33.782849544512402 ], [ 130.529877334367995, 33.782847082507097 ], [ 130.529759191117989, 33.782884814808 ], [ 130.529648271302989, 33.782920601961301 ], [ 130.529592810397986, 33.782942509600502 ], [ 130.529474601398988, 33.7829922875137 ], [ 130.529303411644008, 33.783049894826398 ], [ 130.52915156729, 33.783087497007401 ] ] ] ] } }
]
}
