{
"type": "FeatureCollection",
"name": "宮若",
"crs": { "type": "name", "properties": { "name": "urn:ogc:def:crs:OGC:1.3:CRS84" } },
"features": [
{ "type": "Feature", "properties": { "id": "宮若.1", "Name": null, "description": null, "timestamp": null, "begin": null, "end": null, "altitudeMode": null, "tessellate": -1, "extrude": 0, "visibility": -1, "drawOrder": null, "icon": null, "KEY_CODE": "402260091104", "PREF": "40", "CITY": "226", "K_AREA": "010001012", "S_AREA": "0091104", "PREF_NAME": "福岡県", "CITY_NAME": "宮若市", "S_NAME": "大字下有木", "KIGO_E": null, "HCODE": 8101, "AREA": 69994.933, "PERIMETER": 1745.007, "KIHON1": "0100", "DUMMY1": "-", "KIHON2": "01", "KIHON3": "012", "C1": 8, "C2": 91, "DUMMY2": "-", "C3": 1, "DUMMY3": "-", "C4": 4, "KIGO_A": null, "KIGO_D": null, "N_KEN": null, "N_CITY": null, "N_C1": 0, "KIGO_I": null, "KEYCODE1": "2260091-1-04", "JINKO": 39, "SETAI": 10, "KEN_OLD": "40", "CITY_OLD": "226", "X_CODE": 130.629275, "Y_CODE": 33.757521, "KCODE1": "0100-01012", "CCODE1": "91-1- 4" }, "geometry": { "type": "MultiPolygon", "coordinates": [ [ [ [ 130.625963501901992, 33.726579077806797 ], [ 130.625912605118003, 33.726323007926197 ], [ 130.626537835425012, 33.726163442894702 ], [ 130.62581182417, 33.725945767449502 ], [ 130.627072459976006, 33.7243254566201 ], [ 130.62791935460001, 33.723612453212397 ], [ 130.629205923101011, 33.724491771147903 ], [ 130.629089888544996, 33.7249366890264 ], [ 130.630085821586988, 33.724876624145502 ], [ 130.630702869824006, 33.725299499443302 ], [ 130.631491408148008, 33.724331932845203 ], [ 130.633685384626006, 33.718817729094198 ], [ 130.635119789196011, 33.717584913868798 ], [ 130.635441252330992, 33.716972307106403 ], [ 130.63515507357701, 33.717425112384703 ], [ 130.634179119550993, 33.717929985898103 ], [ 130.632810915919009, 33.717698332849203 ], [ 130.632440843886997, 33.717955337596898 ], [ 130.632126530414013, 33.717751879684599 ], [ 130.630738569566006, 33.718554812248499 ], [ 130.630215580195994, 33.719180193062698 ], [ 130.630242724390996, 33.7197652327296 ], [ 130.62969348429101, 33.720229850914599 ], [ 130.629838537837003, 33.720761913552501 ], [ 130.62930406810699, 33.723204379693698 ], [ 130.628601863000995, 33.722886130054803 ], [ 130.628357881522987, 33.7234027257797 ], [ 130.628049953768993, 33.723541488310701 ], [ 130.62779725617699, 33.7233770191134 ], [ 130.626877515675005, 33.723260698390902 ], [ 130.626774212181004, 33.723509962735001 ], [ 130.626232950016004, 33.723528405859 ], [ 130.624483808014986, 33.7255619906283 ], [ 130.624038278548994, 33.7258068322501 ], [ 130.624177595061013, 33.726862057488603 ], [ 130.623108251854006, 33.727036109091699 ], [ 130.622496874701, 33.728218943597398 ], [ 130.621759995466988, 33.7279409906089 ], [ 130.621255283294005, 33.728840614136203 ], [ 130.62210080591899, 33.729213499064301 ], [ 130.622240764293991, 33.728972381706399 ], [ 130.622396444065998, 33.728999834186297 ], [ 130.622552591388001, 33.728575757555603 ], [ 130.622396444065998, 33.728999834186297 ], [ 130.622279806146992, 33.729286810168603 ], [ 130.622464394508995, 33.729383523487101 ], [ 130.622006981312012, 33.731508617935603 ], [ 130.621798523680013, 33.7319968474212 ], [ 130.621359281482995, 33.732432947828599 ], [ 130.620744198204989, 33.732803914978 ], [ 130.618755659124986, 33.733454119485998 ], [ 130.615641669400986, 33.7342601446298 ], [ 130.614585923224013, 33.735244448040703 ], [ 130.613315972930991, 33.7344529648025 ], [ 130.612093437303002, 33.735780757610797 ], [ 130.611562802213001, 33.735492824720502 ], [ 130.611046697320006, 33.735469720128599 ], [ 130.609367093283993, 33.735794808720698 ], [ 130.609124753159989, 33.736208586303903 ], [ 130.608229343872011, 33.7360600214407 ], [ 130.608190473663996, 33.736634622647301 ], [ 130.607680094429014, 33.7374189777453 ], [ 130.607748822790995, 33.737549275898303 ], [ 130.607680094429014, 33.7374189777453 ], [ 130.606956615927999, 33.737515093489399 ], [ 130.606141813112998, 33.737964239750902 ], [ 130.604527003442001, 33.738149427520298 ], [ 130.604038808183986, 33.738417936898003 ], [ 130.602612191578004, 33.738225019075102 ], [ 130.601272199785001, 33.738473523354202 ], [ 130.600215519384989, 33.739191916515203 ], [ 130.599656110907006, 33.739376423415202 ], [ 130.600125795352994, 33.740022672713202 ], [ 130.597935166279996, 33.743516214903103 ], [ 130.598405528683998, 33.743574444065302 ], [ 130.599232749844987, 33.744011030662897 ], [ 130.599641027823992, 33.7447025888995 ], [ 130.59959315328399, 33.7449892631601 ], [ 130.598955788013996, 33.745393777192703 ], [ 130.598972349422013, 33.745622900028899 ], [ 130.599860170591, 33.7457518589163 ], [ 130.601412336457003, 33.745631834953102 ], [ 130.603033435364011, 33.745841881139 ], [ 130.604453849217009, 33.746191016539399 ], [ 130.605364176684986, 33.746638323214697 ], [ 130.605744710614005, 33.746201596235601 ], [ 130.606380153959009, 33.746811809147502 ], [ 130.606765973166006, 33.746923343739603 ], [ 130.605497421068009, 33.748011263092103 ], [ 130.605866609199012, 33.748201498813202 ], [ 130.605960936693009, 33.748624365334699 ], [ 130.604868365246006, 33.750287266976997 ], [ 130.605505485493012, 33.750473709417903 ], [ 130.605942281110003, 33.750079725315501 ], [ 130.606287971385001, 33.750830230112697 ], [ 130.606795285027005, 33.749857099501497 ], [ 130.606842213472987, 33.749143698546597 ], [ 130.607246670843011, 33.748784189514801 ], [ 130.609121470535001, 33.747936749790703 ], [ 130.612347092134996, 33.747830829106803 ], [ 130.61251647185, 33.7494256214774 ], [ 130.614021407726, 33.752484826742503 ], [ 130.61445854693801, 33.752888338155699 ], [ 130.615066605126003, 33.753079513788897 ], [ 130.617179249701991, 33.753254599331299 ], [ 130.618429945580004, 33.753814399897301 ], [ 130.621516063419989, 33.754820467187102 ], [ 130.625061535707005, 33.757684824883803 ], [ 130.627736775079001, 33.755501790051902 ], [ 130.628655961089009, 33.754963433928701 ], [ 130.628744196816996, 33.755204396459099 ], [ 130.628340631876995, 33.756421111172699 ], [ 130.628600979915007, 33.756646251977998 ], [ 130.628911034546007, 33.757455289324398 ], [ 130.628940353489014, 33.758043775716096 ], [ 130.62957490448099, 33.758260458217599 ], [ 130.629763958338998, 33.758998548300497 ], [ 130.630560761318009, 33.759487551292601 ], [ 130.631745287082992, 33.7599150122089 ], [ 130.632586215883009, 33.759917523233497 ], [ 130.633028229978009, 33.760336769169399 ], [ 130.633784887376009, 33.758506841292402 ], [ 130.633519324180014, 33.755978897903702 ], [ 130.633806094854009, 33.755292172352398 ], [ 130.633395364671998, 33.754848718713198 ], [ 130.632954420427012, 33.755029708657602 ], [ 130.633395364671998, 33.754848718713198 ], [ 130.633806094854009, 33.755292172352398 ], [ 130.6341211628, 33.754543258780103 ], [ 130.634106026935996, 33.753403331663201 ], [ 130.634297736677013, 33.752928491630797 ], [ 130.635213358258, 33.752069354850498 ], [ 130.636025904929994, 33.750600376290897 ], [ 130.638227664574003, 33.748119568597097 ], [ 130.639125848541994, 33.745679645730497 ], [ 130.637754761026002, 33.743170447134801 ], [ 130.639394947385, 33.739194961023699 ], [ 130.642265255896007, 33.740110886267097 ], [ 130.642469679621001, 33.739818655230302 ], [ 130.643239638853998, 33.739568209119597 ], [ 130.644398194171998, 33.738318400720203 ], [ 130.645131556161999, 33.737767684169398 ], [ 130.64482283473501, 33.737186218408397 ], [ 130.644254968244013, 33.737211913099898 ], [ 130.643272968741002, 33.7366357532145 ], [ 130.642368745719011, 33.735039602179803 ], [ 130.642149376150002, 33.7333203254192 ], [ 130.642680647905991, 33.733016218504901 ], [ 130.640788519584987, 33.733324895802902 ], [ 130.638490660341006, 33.733135424421597 ], [ 130.638614837233007, 33.733067774789298 ], [ 130.634675958163001, 33.731597260109602 ], [ 130.629611449676986, 33.728302767835999 ], [ 130.629403229644993, 33.728525328917499 ], [ 130.629145164085003, 33.728778385630598 ], [ 130.629611449676986, 33.728302767835999 ], [ 130.627543611264997, 33.726924644547402 ], [ 130.626839428195012, 33.726658433967302 ], [ 130.625963501901992, 33.726579077806797 ] ] ] ] } }
]
}
