{
"type": "FeatureCollection",
"name": "小郡B(¥9000)",
"crs": { "type": "name", "properties": { "name": "urn:ogc:def:crs:EPSG::4612" } },
"features": [
{ "type": "Feature", "properties": { "KEY_CODE": "402160048101", "PREF": "40", "CITY": "216", "K_AREA": "002003010", "S_AREA": "0048101", "PREF_NAME": "福岡県", "CITY_NAME": "小郡市", "S_NAME": "寺福童寺福童", "KIGO_E": null, "HCODE": 8101, "AREA": 7717.193, "PERIMETER": 508.801, "KIHON1": "0020", "DUMMY1": "-", "KIHON2": "03", "KIHON3": "010", "C1": 3, "C2": 48, "DUMMY2": "-", "C3": 1, "DUMMY3": "-", "C4": 1, "KIGO_A": null, "KIGO_D": null, "N_KEN": null, "N_CITY": null, "N_C1": 0, "KIGO_I": null, "KEYCODE1": "2160048-1-01", "JINKO": 47, "SETAI": 17, "KEN_OLD": "40", "CITY_OLD": "216", "X_CODE": 130.546538, "Y_CODE": 33.388293, "KCODE1": "0020-03010", "CCODE1": "48-1- 1" }, "geometry": { "type": "MultiPolygon", "coordinates": [ [ [ [ 130.542703831517485, 33.352854692517241 ], [ 130.541571439251214, 33.352986290815167 ], [ 130.541052789554641, 33.35305223822575 ], [ 130.540261402483907, 33.353086543240103 ], [ 130.539050865129099, 33.353064888139656 ], [ 130.53835493488279, 33.352825690542453 ], [ 130.537431863646589, 33.352591962963757 ], [ 130.537765877718527, 33.353674470716214 ], [ 130.537791814812067, 33.35385507893119 ], [ 130.537570050572356, 33.353842957838232 ], [ 130.537914570702497, 33.355415276509277 ], [ 130.537950397138019, 33.356261605528545 ], [ 130.538038535935726, 33.356465199672556 ], [ 130.538069497113128, 33.356577641191059 ], [ 130.538134013238277, 33.356693654027772 ], [ 130.538242593056765, 33.356857455162711 ], [ 130.538577216240327, 33.357312495980459 ], [ 130.53865725802649, 33.357484711550811 ], [ 130.538835811119753, 33.357796706684979 ], [ 130.539050303914848, 33.358233166685096 ], [ 130.539235463200697, 33.358637778483221 ], [ 130.539322505555674, 33.358922770836031 ], [ 130.539441265245244, 33.359360498348529 ], [ 130.539545853636696, 33.359590078139291 ], [ 130.53965194268909, 33.359861229761421 ], [ 130.539679648702077, 33.360343635046974 ], [ 130.539658385476514, 33.360546656087855 ], [ 130.539677796519612, 33.360693397314449 ], [ 130.539695402654615, 33.361172950449053 ], [ 130.539687164042277, 33.361460620900367 ], [ 130.539827919491273, 33.36153447082819 ], [ 130.539880588001296, 33.361749028380352 ], [ 130.539858218144474, 33.362160738036103 ], [ 130.539958922444697, 33.362189320935926 ], [ 130.540086428547255, 33.362229275395485 ], [ 130.540118719701951, 33.362471970405664 ], [ 130.540373879940859, 33.363158305166834 ], [ 130.54028235993971, 33.364137309733053 ], [ 130.5402339212024, 33.365326889974462 ], [ 130.540584620195432, 33.365378645647588 ], [ 130.540600061579909, 33.366148922627737 ], [ 130.540700430904025, 33.366233892871577 ], [ 130.541139274096224, 33.366302278328341 ], [ 130.541255272880392, 33.366598960212599 ], [ 130.54136945856078, 33.366960938426715 ], [ 130.541551556698892, 33.367538128261259 ], [ 130.541745419309336, 33.368200817010866 ], [ 130.541948756185775, 33.369160530013048 ], [ 130.542128092043953, 33.370207615907354 ], [ 130.542239821372988, 33.371333431199751 ], [ 130.542307663478994, 33.372495753582157 ], [ 130.542200006803682, 33.373466110456889 ], [ 130.542174464942462, 33.374115319246513 ], [ 130.542174379528348, 33.37411584562949 ], [ 130.542086865488272, 33.374847281311631 ], [ 130.542084874506941, 33.375225253754856 ], [ 130.542101866876919, 33.375585608777598 ], [ 130.542075578658427, 33.375762863068893 ], [ 130.542032710689284, 33.37587619631055 ], [ 130.541971620832925, 33.37624486497706 ], [ 130.542014113328918, 33.376601474905648 ], [ 130.542029254859358, 33.376938505005988 ], [ 130.542065884475363, 33.377204641587817 ], [ 130.542093797072539, 33.377523968901315 ], [ 130.54214341151004, 33.378305780977513 ], [ 130.54213698338819, 33.378554539640284 ], [ 130.542146447302486, 33.37884700208911 ], [ 130.54214845654775, 33.379207832845687 ], [ 130.542181938905628, 33.37945128054438 ], [ 130.542237253424588, 33.37975784987578 ], [ 130.542229066970236, 33.379798045730482 ], [ 130.542227799654199, 33.37998338712061 ], [ 130.542224637859448, 33.380122014473635 ], [ 130.542212582922417, 33.380187027612649 ], [ 130.54218140393661, 33.380272824700775 ], [ 130.542131194740932, 33.380361016215502 ], [ 130.542048049620945, 33.380581599358351 ], [ 130.542009184403668, 33.381147463467052 ], [ 130.541998713257698, 33.381390710460039 ], [ 130.541990196643866, 33.381589516614461 ], [ 130.541961566319145, 33.382221003509578 ], [ 130.541954345632377, 33.382852419930572 ], [ 130.541957227818159, 33.383366584947431 ], [ 130.541948490997044, 33.383727382046217 ], [ 130.541992567321387, 33.383943776846586 ], [ 130.542014968622141, 33.384115113515854 ], [ 130.542015690618626, 33.384241426737788 ], [ 130.541984515921257, 33.384421867641741 ], [ 130.541986069155911, 33.384701509609449 ], [ 130.541998674871934, 33.385035227934644 ], [ 130.541946652745224, 33.385323978000969 ], [ 130.541906179029695, 33.385748021689679 ], [ 130.541907125781563, 33.385919423116881 ], [ 130.542175140953901, 33.38592786012979 ], [ 130.542177071705169, 33.386279640552594 ], [ 130.542168984636277, 33.386748717784563 ], [ 130.542166314433956, 33.386777694666264 ], [ 130.542128547427467, 33.387190797868051 ], [ 130.542087164814063, 33.387452497261883 ], [ 130.542068285916883, 33.387626079615778 ], [ 130.541844355597732, 33.387688388750618 ], [ 130.541841960395033, 33.387696551323117 ], [ 130.541814280357613, 33.388499401836043 ], [ 130.541828025311617, 33.389040585566164 ], [ 130.54181541508791, 33.390108050214863 ], [ 130.541827541830372, 33.390333456383985 ], [ 130.541891355881006, 33.390790389932484 ], [ 130.541903777998982, 33.390927385655658 ], [ 130.541900576624386, 33.391169533375496 ], [ 130.54184518732103, 33.391171477105871 ], [ 130.541831633223723, 33.391426234701221 ], [ 130.541810928361258, 33.391683500279157 ], [ 130.541773492543825, 33.392216895192028 ], [ 130.541734933334908, 33.392380047299241 ], [ 130.541719006390423, 33.39288699142454 ], [ 130.541703624549399, 33.393289643666797 ], [ 130.541682689497037, 33.393670861711669 ], [ 130.54167536836573, 33.393729693803898 ], [ 130.541659189600267, 33.393796488412725 ], [ 130.541622485868288, 33.394189658292284 ], [ 130.541640708623248, 33.394213673847716 ], [ 130.541718020624074, 33.394243012250818 ], [ 130.541736456674499, 33.39435403326123 ], [ 130.541728573658702, 33.394552064451091 ], [ 130.541768162571799, 33.394785245159596 ], [ 130.541718750390658, 33.395263853135305 ], [ 130.541698538716929, 33.395578393211188 ], [ 130.541698547206749, 33.395848696483675 ], [ 130.541669766967061, 33.396052004997784 ], [ 130.541619132121241, 33.396187743394535 ], [ 130.541586993723286, 33.397062283771128 ], [ 130.541541233712849, 33.3972365429021 ], [ 130.541534972418589, 33.397461382539454 ], [ 130.541537230343465, 33.397806788154085 ], [ 130.541559028680666, 33.398085130561931 ], [ 130.541516013277374, 33.398080816478519 ], [ 130.541515221837813, 33.398231429185024 ], [ 130.54151809355568, 33.39854016658289 ], [ 130.541528999684829, 33.399029665291032 ], [ 130.54144732372481, 33.399198791791456 ], [ 130.541513760563618, 33.399364720801557 ], [ 130.541421673377869, 33.399804884398336 ], [ 130.54138917810269, 33.400011878395034 ], [ 130.541463630150133, 33.400362298930489 ], [ 130.541441049161364, 33.400815889391957 ], [ 130.541516175995469, 33.40103831095248 ], [ 130.541496842377285, 33.40130558485054 ], [ 130.541495694848891, 33.401523927158209 ], [ 130.541473786228323, 33.401849555598154 ], [ 130.541485800465182, 33.402128210246843 ], [ 130.541538521483687, 33.402339246879961 ], [ 130.541528546982221, 33.402527476870475 ], [ 130.541470558438647, 33.402886823058864 ], [ 130.541451164998506, 33.403165367484497 ], [ 130.541540147009243, 33.403316301004196 ], [ 130.541611095758014, 33.40347843798704 ], [ 130.54154272842402, 33.403670220702921 ], [ 130.541447447877374, 33.403869445841487 ], [ 130.541347492855124, 33.404094961506701 ], [ 130.541335694794611, 33.404206007853304 ], [ 130.541348534707396, 33.404318977527957 ], [ 130.541419424325795, 33.404499955940452 ], [ 130.541459123191714, 33.404631899968848 ], [ 130.541404154050952, 33.404838772933424 ], [ 130.541300123312624, 33.404985235691129 ], [ 130.54135613939502, 33.405168028785774 ], [ 130.541437107627303, 33.405365036022509 ], [ 130.54149619055525, 33.405650691559927 ], [ 130.541498627489545, 33.406031904318105 ], [ 130.541503343971982, 33.406132657806758 ], [ 130.541447806019704, 33.406375595400014 ], [ 130.54144654145918, 33.406614817793802 ], [ 130.541445948838344, 33.406726925478679 ], [ 130.541538143723528, 33.406985154284627 ], [ 130.541577494453378, 33.407127347130668 ], [ 130.541526514742316, 33.407500904718475 ], [ 130.541511917455608, 33.407736308500994 ], [ 130.541403441481947, 33.408023715024825 ], [ 130.541317203951223, 33.40832243706803 ], [ 130.541320448879077, 33.408550442632119 ], [ 130.541319520055055, 33.408726088893573 ], [ 130.541302821499954, 33.408929752777517 ], [ 130.541301655482727, 33.409150241751007 ], [ 130.541308564125444, 33.409535239748152 ], [ 130.541324334663699, 33.409920271412112 ], [ 130.541347720841827, 33.410135280746466 ], [ 130.541327325318861, 33.410617359480945 ], [ 130.541315429510576, 33.410857740810989 ], [ 130.541281771059602, 33.411163173735204 ], [ 130.541253768479464, 33.411463651436243 ], [ 130.54124772936143, 33.411762664674541 ], [ 130.541282287501559, 33.411968333903509 ], [ 130.541292532337565, 33.412244609241391 ], [ 130.541253990702359, 33.412683952170639 ], [ 130.54125240040517, 33.412982300481559 ], [ 130.541162667127139, 33.413507749549808 ], [ 130.541126833832607, 33.413541258228783 ], [ 130.541009275910284, 33.413865986724836 ], [ 130.541039221136373, 33.414094080928095 ], [ 130.541073938610538, 33.414269851787218 ], [ 130.541103459105159, 33.414435918137336 ], [ 130.541244077662753, 33.41442519207358 ], [ 130.541650225524933, 33.414307264997554 ], [ 130.542041220501034, 33.414179562157678 ], [ 130.542091066729995, 33.414162461747225 ], [ 130.542662724071249, 33.413966326427207 ], [ 130.542878414607202, 33.413895433108372 ], [ 130.543457328622992, 33.413682428091491 ], [ 130.543494389870858, 33.413666133868986 ], [ 130.543804603688272, 33.413529761058392 ], [ 130.543942292514885, 33.413389867036564 ], [ 130.543996019455562, 33.413387068871444 ], [ 130.544173785002528, 33.413340124488329 ], [ 130.544589004318254, 33.413148181401432 ], [ 130.545038479447214, 33.412957911855628 ], [ 130.545257319541435, 33.412878041362781 ], [ 130.545513891312538, 33.412778370462938 ], [ 130.546084810707271, 33.412660242359046 ], [ 130.546534694228882, 33.412551079131497 ], [ 130.546798120908875, 33.412496866037195 ], [ 130.546953571580644, 33.412459874484277 ], [ 130.547140994678585, 33.41234801217842 ], [ 130.547430013924071, 33.412177974000187 ], [ 130.547938141802916, 33.411885165846869 ], [ 130.548764573354731, 33.411356253251753 ], [ 130.549766471932941, 33.410734123014755 ], [ 130.550346096864871, 33.410361504860703 ], [ 130.551143345917779, 33.40982485366785 ], [ 130.551189118809475, 33.409792754612894 ], [ 130.551244825171239, 33.409764281981282 ], [ 130.551374233054133, 33.409670949740502 ], [ 130.551493626292171, 33.409589516987111 ], [ 130.551647368175423, 33.409484295069696 ], [ 130.551678857692281, 33.409453338592002 ], [ 130.551706127821177, 33.40941758125814 ], [ 130.551711290156902, 33.409410166125745 ], [ 130.552047000551369, 33.408929454810888 ], [ 130.552127718564662, 33.408757646005355 ], [ 130.552201199697691, 33.408596588247178 ], [ 130.552276789086875, 33.408442091441835 ], [ 130.552330056463234, 33.40833235081444 ], [ 130.552419373045694, 33.408146239036483 ], [ 130.552435133902577, 33.408127168326395 ], [ 130.552546880453122, 33.407866465632694 ], [ 130.552649059836995, 33.407653098231322 ], [ 130.552731319529727, 33.4074667843282 ], [ 130.552819828404978, 33.407297997416485 ], [ 130.552910565104582, 33.407104736114569 ], [ 130.553104219420618, 33.406847315064134 ], [ 130.553142213487149, 33.406808601421325 ], [ 130.553252537776473, 33.406684729350495 ], [ 130.553318401330841, 33.40662399438218 ], [ 130.553598638230568, 33.406286217627141 ], [ 130.553725603465097, 33.40625796141547 ], [ 130.553881660159647, 33.406215262411166 ], [ 130.554069486145806, 33.406159993450636 ], [ 130.554209117046639, 33.406159290702128 ], [ 130.554276066677858, 33.406157166637549 ], [ 130.554340899704385, 33.406157962350179 ], [ 130.554503332425213, 33.40615737186377 ], [ 130.554621577644241, 33.406158955106733 ], [ 130.554802908589579, 33.406215809290032 ], [ 130.554912412869925, 33.406259802055636 ], [ 130.555074564906391, 33.406314124747318 ], [ 130.555233898935825, 33.406352937271919 ], [ 130.555302294138841, 33.406355575537141 ], [ 130.55532377167529, 33.406335327529533 ], [ 130.555320339032477, 33.406308439122093 ], [ 130.555281210990586, 33.406158923081691 ], [ 130.555263730315545, 33.405955699520923 ], [ 130.555243639278615, 33.405704671693329 ], [ 130.555229554002949, 33.405535516809067 ], [ 130.555203189959769, 33.405394429850027 ], [ 130.55515241927236, 33.405296263739302 ], [ 130.555403130484365, 33.405301936673638 ], [ 130.555602544379212, 33.405312185410715 ], [ 130.55574500537935, 33.405316280462067 ], [ 130.555825991863657, 33.405360770586455 ], [ 130.555907720296631, 33.405399908932296 ], [ 130.55600870808172, 33.405433728279625 ], [ 130.556114017095183, 33.40545202475905 ], [ 130.556270683402943, 33.405462122409148 ], [ 130.556396789127092, 33.405461967677148 ], [ 130.556492231370612, 33.405463500677655 ], [ 130.556634021379182, 33.405459244119442 ], [ 130.556924452899295, 33.40633230302781 ], [ 130.557159182808618, 33.407160220982064 ], [ 130.557217423583324, 33.407152783067289 ], [ 130.557413717975862, 33.40713336166251 ], [ 130.557642694516801, 33.40712856473094 ], [ 130.55786787732967, 33.407134325737786 ], [ 130.558084200970029, 33.407140048096664 ], [ 130.558291654838456, 33.407139542571613 ], [ 130.558351639807285, 33.407144084763729 ], [ 130.558507061905971, 33.40717696779992 ], [ 130.55907088451454, 33.407315638307367 ], [ 130.559184674727305, 33.407343087549833 ], [ 130.559275869233915, 33.407362957427594 ], [ 130.559584038605436, 33.407367768612367 ], [ 130.559795943766687, 33.407367273993344 ], [ 130.559940484755657, 33.407367779169327 ], [ 130.560008842632243, 33.407411029124923 ], [ 130.560011910524452, 33.407443830910232 ], [ 130.560010799308571, 33.407514060183317 ], [ 130.560025239503716, 33.407623441341556 ], [ 130.560032183870049, 33.407661856501832 ], [ 130.560074398427361, 33.408133989627302 ], [ 130.560085363610824, 33.408182845804511 ], [ 130.560890625287271, 33.408233290127043 ], [ 130.561473743235894, 33.408298490048168 ], [ 130.56161563809863, 33.408291837164903 ], [ 130.561787589813974, 33.408304274917626 ], [ 130.561953801011498, 33.408347440542478 ], [ 130.562608783243462, 33.408210143951187 ], [ 130.562615016775254, 33.408089531108715 ], [ 130.562618364573439, 33.407983133700405 ], [ 130.56262317071338, 33.407870789869378 ], [ 130.56264365494178, 33.407721835763951 ], [ 130.562652910850886, 33.407568124775445 ], [ 130.562688139815009, 33.407284387859896 ], [ 130.562702997854785, 33.407135412400784 ], [ 130.562663654437415, 33.407109246511091 ], [ 130.562661011272183, 33.407041676470783 ], [ 130.562672854276599, 33.406957924936314 ], [ 130.562712562239398, 33.406920197738295 ], [ 130.562794538084916, 33.406877900564744 ], [ 130.562978789911654, 33.406430163530892 ], [ 130.563020573972096, 33.406430309416592 ], [ 130.563120287232209, 33.406384901667188 ], [ 130.563193884773881, 33.406229437118029 ], [ 130.563233152551106, 33.406237395217602 ], [ 130.563265615234002, 33.406228987364621 ], [ 130.563502240465112, 33.406215160136021 ], [ 130.563599668005196, 33.406189888038014 ], [ 130.563643449215476, 33.406143406449019 ], [ 130.563957599269116, 33.405978038403802 ], [ 130.564098789148233, 33.405943484697744 ], [ 130.564213684184324, 33.405943884727591 ], [ 130.564254921107363, 33.406053534408613 ], [ 130.564368773029457, 33.406145018667544 ], [ 130.564515339514003, 33.406185858051458 ], [ 130.564661605499822, 33.406177596932032 ], [ 130.564906994363753, 33.406191585963128 ], [ 130.565611989073915, 33.406194034419975 ], [ 130.565758167557192, 33.406203317003673 ], [ 130.565967023659113, 33.406208405663939 ], [ 130.566250917910054, 33.406223338987822 ], [ 130.566449705941835, 33.406217862012774 ], [ 130.566563215239199, 33.406192861163511 ], [ 130.566677572085439, 33.406149547873184 ], [ 130.566784203617402, 33.406165269644305 ], [ 130.566954203145997, 33.406172409274518 ], [ 130.567069054965486, 33.406181576443927 ], [ 130.567210115454827, 33.406173294298988 ], [ 130.567366793492994, 33.406173835880111 ], [ 130.567622663826114, 33.406174719909096 ], [ 130.56786530792661, 33.405903638601046 ], [ 130.5682921404279, 33.405767953169651 ], [ 130.569426090811731, 33.405424808337585 ], [ 130.569615096780637, 33.405409891315962 ], [ 130.569773203945942, 33.405376126546315 ], [ 130.569762063145703, 33.40562546526629 ], [ 130.569823842983197, 33.405607080995125 ], [ 130.570079178897544, 33.405630709747932 ], [ 130.570168249829123, 33.40565595497403 ], [ 130.570309547564506, 33.405701137746021 ], [ 130.57088855373695, 33.405729364519388 ], [ 130.57062316422045, 33.405274715111496 ], [ 130.570555540873187, 33.405089772421377 ], [ 130.570497802157377, 33.404944244951082 ], [ 130.57050231651661, 33.404846239665559 ], [ 130.570514876771909, 33.404751670881957 ], [ 130.570430534823174, 33.4046871709144 ], [ 130.570342661529025, 33.404521250024999 ], [ 130.570296465796588, 33.404274462311598 ], [ 130.570254869992652, 33.404168333521866 ], [ 130.57021094107705, 33.403998584820727 ], [ 130.570184136994698, 33.403941573287817 ], [ 130.570198672693721, 33.403872373962606 ], [ 130.570266604021128, 33.40379846350482 ], [ 130.570301699186871, 33.403715457990145 ], [ 130.570376457186001, 33.403628434401867 ], [ 130.570446915976902, 33.403476298686058 ], [ 130.570541757336315, 33.403259087151184 ], [ 130.570593874026486, 33.40305314188312 ], [ 130.570605752948865, 33.403020143882372 ], [ 130.570649598558646, 33.402813955584264 ], [ 130.57068817624895, 33.402603137731383 ], [ 130.570720363048423, 33.4024282244213 ], [ 130.570730121352341, 33.402245626611382 ], [ 130.570751164318153, 33.401988005915207 ], [ 130.570727473034168, 33.401775986765145 ], [ 130.570696092417819, 33.401607549120811 ], [ 130.57065472087055, 33.401455699789636 ], [ 130.570591366590548, 33.401239353149215 ], [ 130.570586759482268, 33.401168684758105 ], [ 130.570621687786286, 33.401110612021114 ], [ 130.570900530431629, 33.401090540654032 ], [ 130.571223154671429, 33.401073750030044 ], [ 130.571287819102537, 33.401065904085826 ], [ 130.571321526830985, 33.401016989922901 ], [ 130.571311573846486, 33.400880220274018 ], [ 130.571301954399019, 33.400778180659408 ], [ 130.571211067286697, 33.39989172640248 ], [ 130.571223304089699, 33.399871095597554 ], [ 130.571199207885542, 33.399741458649466 ], [ 130.571197619579664, 33.399731132289148 ], [ 130.571190215544902, 33.399682816602109 ], [ 130.571207437920151, 33.399647124605927 ], [ 130.571214575944424, 33.399638941489002 ], [ 130.571296414086675, 33.399545178459427 ], [ 130.571378957709555, 33.399479168653684 ], [ 130.571445229431163, 33.399417332126617 ], [ 130.5714787876706, 33.399372925934337 ], [ 130.571496922085913, 33.399305745328107 ], [ 130.571492405685461, 33.399267688354698 ], [ 130.571488373638573, 33.39923361710337 ], [ 130.571463087994346, 33.399183651393948 ], [ 130.571358328950623, 33.399096332207108 ], [ 130.571322294564766, 33.399046187167379 ], [ 130.571292691531198, 33.398960180001943 ], [ 130.571269014517071, 33.398856259574075 ], [ 130.571283678335732, 33.398726055693253 ], [ 130.571283510190483, 33.398555049012828 ], [ 130.570221253521396, 33.398531822151291 ], [ 130.569947475799154, 33.398531481880575 ], [ 130.569953547996562, 33.398509102464473 ], [ 130.569958568619086, 33.398436030624183 ], [ 130.569963136528031, 33.398369755841237 ], [ 130.569932119903598, 33.398153238591703 ], [ 130.569886942030507, 33.397956328340435 ], [ 130.569865770133617, 33.397864115315123 ], [ 130.569771028361032, 33.397448470530961 ], [ 130.569679460513839, 33.397104872805222 ], [ 130.569577439696388, 33.396752113586821 ], [ 130.56947954547212, 33.396439916879324 ], [ 130.569367180812691, 33.396073490081868 ], [ 130.569314713698134, 33.395856579782389 ], [ 130.569275533525712, 33.395712418386587 ], [ 130.569247119338058, 33.395607888060518 ], [ 130.56921324707622, 33.39548582592812 ], [ 130.569194300273494, 33.395453567993322 ], [ 130.56915823990181, 33.395392226845495 ], [ 130.569188508536428, 33.395384864653387 ], [ 130.569008249933887, 33.395043985928382 ], [ 130.568869217803581, 33.394738404182739 ], [ 130.568734291709632, 33.394443229278536 ], [ 130.568554868017486, 33.3939502977804 ], [ 130.568436668249973, 33.393610092658655 ], [ 130.568319279330325, 33.393113884359543 ], [ 130.568050116785571, 33.391960136986221 ], [ 130.567721223138903, 33.391969499153262 ], [ 130.567142412004983, 33.391979866141206 ], [ 130.56658497633839, 33.391981113833282 ], [ 130.565966909901931, 33.391991054511877 ], [ 130.565667254128755, 33.391573957839199 ], [ 130.565742476424163, 33.390900576007311 ], [ 130.565805682849856, 33.390711011007916 ], [ 130.565957353383794, 33.389751243677921 ], [ 130.56598793149783, 33.389418488692918 ], [ 130.565948363367426, 33.389057772231759 ], [ 130.565934182212516, 33.388852548158859 ], [ 130.56597096909087, 33.388673003369327 ], [ 130.566113887435648, 33.388605902124844 ], [ 130.566213382922314, 33.388540343875007 ], [ 130.566379022842824, 33.388471602205101 ], [ 130.566544791146185, 33.38838548854271 ], [ 130.566744218557687, 33.388174660925323 ], [ 130.566504408378819, 33.387773378253776 ], [ 130.566401889865205, 33.387610081258529 ], [ 130.566332541191031, 33.387429532804205 ], [ 130.566250696536315, 33.387262819557698 ], [ 130.566226681752994, 33.387110184440644 ], [ 130.566169804954086, 33.386912385515281 ], [ 130.566157557060933, 33.386732282839723 ], [ 130.566111593953451, 33.38656023355604 ], [ 130.566071191107426, 33.38637633435706 ], [ 130.566059353898282, 33.386265373610833 ], [ 130.566002511788753, 33.38606060043189 ], [ 130.565978402588371, 33.38591835958109 ], [ 130.565969781109089, 33.385785568199459 ], [ 130.565894074747945, 33.385668472354624 ], [ 130.565821161618203, 33.385538174080367 ], [ 130.565739137865734, 33.385416509613535 ], [ 130.565623921326761, 33.385308643660409 ], [ 130.565475789674025, 33.385183299330116 ], [ 130.56536056220952, 33.385085822228284 ], [ 130.565204016506982, 33.384981269087831 ], [ 130.565047581295687, 33.384862829826154 ], [ 130.564758942153077, 33.384726602980024 ], [ 130.564476618162729, 33.384578283766189 ], [ 130.564113842453622, 33.384389806295793 ], [ 130.563866317844941, 33.384302261299155 ], [ 130.563482915131203, 33.384117161071359 ], [ 130.563252053296054, 33.384005404366818 ], [ 130.563019154605428, 33.383881484634252 ], [ 130.5627852144911, 33.383781196782515 ], [ 130.562582014316746, 33.383696198873722 ], [ 130.562367386113891, 33.383646908598934 ], [ 130.562140980801161, 33.38359317265526 ], [ 130.561904986161352, 33.383551698438573 ], [ 130.561772843339526, 33.383530418464936 ], [ 130.561574627486721, 33.383498515278895 ], [ 130.561250421965127, 33.383457509849642 ], [ 130.560948765099425, 33.383449507928617 ], [ 130.560682406490656, 33.383452096711707 ], [ 130.560285700587116, 33.383434922569585 ], [ 130.559985527091982, 33.383426582803729 ], [ 130.559751603570419, 33.383427567198794 ], [ 130.559567320376999, 33.383391457370188 ], [ 130.559395590325295, 33.383346723787362 ], [ 130.559146757879375, 33.383290341413407 ], [ 130.558844376956898, 33.383213629513222 ], [ 130.558648220742242, 33.383150773691717 ], [ 130.558506849026458, 33.383080008968697 ], [ 130.558333481599732, 33.382960492008088 ], [ 130.558237185352624, 33.382900697972914 ], [ 130.558083198101201, 33.382775854226836 ], [ 130.557942154325445, 33.382640245768457 ], [ 130.557701624525265, 33.382436694495745 ], [ 130.557573552296503, 33.382284927132105 ], [ 130.557415721959245, 33.382007128225894 ], [ 130.55731214286439, 33.381743508175845 ], [ 130.557177894352378, 33.381543036761357 ], [ 130.55705023432958, 33.381310185978407 ], [ 130.556832485853931, 33.381060782915299 ], [ 130.556672396332857, 33.380865647337181 ], [ 130.556485180727663, 33.38094607623227 ], [ 130.556391599122264, 33.380981079776966 ], [ 130.556262934548215, 33.380972349224749 ], [ 130.556130975558347, 33.380934019822014 ], [ 130.55603713306914, 33.380846548500124 ], [ 130.555983290502837, 33.380801591227154 ], [ 130.55589958063274, 33.380778318209892 ], [ 130.555776914648106, 33.380868660093839 ], [ 130.55589958063274, 33.380778318209885 ], [ 130.555854469030663, 33.380765775638054 ], [ 130.555651785987294, 33.380783697774497 ], [ 130.555523556322385, 33.380664336104026 ], [ 130.555331234338553, 33.380485286063013 ], [ 130.554439158987549, 33.3798281568221 ], [ 130.554304317407315, 33.379746598121883 ], [ 130.554266398914621, 33.379600534114523 ], [ 130.554303434270082, 33.379425180855755 ], [ 130.554345670933742, 33.37931684354561 ], [ 130.554366614281975, 33.379226602737333 ], [ 130.554355362377152, 33.379136429193188 ], [ 130.554301053366146, 33.379010244548681 ], [ 130.554195939542382, 33.378894905518926 ], [ 130.554022837664434, 33.378726769417185 ], [ 130.553753575278648, 33.378482571931784 ], [ 130.553234950534573, 33.378119607172579 ], [ 130.552686539754234, 33.37779608788167 ], [ 130.552043591410865, 33.377327332836202 ], [ 130.551986752456173, 33.377238370897466 ], [ 130.551878737006149, 33.377085265645384 ], [ 130.551781654451815, 33.376977247225931 ], [ 130.551693182494603, 33.376827730897062 ], [ 130.551597854754164, 33.376689005071086 ], [ 130.551525585429744, 33.376539827122158 ], [ 130.551425159568652, 33.376347971445952 ], [ 130.551300090090109, 33.376010552494982 ], [ 130.551287142079474, 33.375867891032087 ], [ 130.551116583729765, 33.375479239890609 ], [ 130.550746084823231, 33.37467009764822 ], [ 130.550362453755554, 33.373925609733426 ], [ 130.550095971803813, 33.37328836602903 ], [ 130.549857017530371, 33.37283212481583 ], [ 130.549619083478149, 33.372389514606432 ], [ 130.549353470863878, 33.371756778609793 ], [ 130.549171597103395, 33.371116306565106 ], [ 130.549053699402208, 33.370968760016048 ], [ 130.548963192519778, 33.370752344254235 ], [ 130.548713815216189, 33.370251889758684 ], [ 130.548502618737018, 33.369746886666903 ], [ 130.548386988733824, 33.36947036524748 ], [ 130.548281792052677, 33.369238009959183 ], [ 130.548264705197056, 33.369101215196274 ], [ 130.548238655517224, 33.36875090038545 ], [ 130.548165066841364, 33.368421411968818 ], [ 130.54807256783522, 33.368104253872929 ], [ 130.547937632305604, 33.367819909328873 ], [ 130.547768654792122, 33.36751184467667 ], [ 130.547594704439035, 33.367191749182915 ], [ 130.547225627177482, 33.36670097013959 ], [ 130.547044655867751, 33.366238549333836 ], [ 130.546931001941715, 33.365689372831604 ], [ 130.546877191962238, 33.365303065514588 ], [ 130.546914887177081, 33.365028500404321 ], [ 130.546902106723138, 33.364847163901381 ], [ 130.546841239482035, 33.364655371280001 ], [ 130.546759456830273, 33.364385693592993 ], [ 130.546680743469125, 33.36397034261055 ], [ 130.546648542132147, 33.363762692871624 ], [ 130.546531296618099, 33.362993997925436 ], [ 130.546446842494959, 33.362770165089721 ], [ 130.546371522115322, 33.362622239742279 ], [ 130.546216052519412, 33.362342293705737 ], [ 130.54599869968709, 33.362050253744364 ], [ 130.545817244686788, 33.36175615538167 ], [ 130.545662150367178, 33.361404390498066 ], [ 130.545688625415579, 33.360889626052263 ], [ 130.545783899227956, 33.360397097709118 ], [ 130.545990695324264, 33.359958822208135 ], [ 130.546173132768985, 33.359620252378093 ], [ 130.54627635380308, 33.359374481971102 ], [ 130.546293536824663, 33.359031682721408 ], [ 130.546256870169799, 33.358608806973535 ], [ 130.546260932809929, 33.35810918023806 ], [ 130.546106193705072, 33.357406942748959 ], [ 130.54596641187203, 33.3568476585478 ], [ 130.545957922602327, 33.35665605234599 ], [ 130.545921560968651, 33.356328659571901 ], [ 130.545819739957125, 33.355797481639513 ], [ 130.545644801040368, 33.35514032656328 ], [ 130.54537567952525, 33.35477613547576 ], [ 130.545172325459077, 33.354555921664044 ], [ 130.544964066119121, 33.354375567261563 ], [ 130.544774525348572, 33.354251144651215 ], [ 130.544608571387386, 33.354158749574054 ], [ 130.544298117886996, 33.354028427567535 ], [ 130.543970058827313, 33.353958866779358 ], [ 130.544148679941202, 33.353092914616141 ], [ 130.544199441561432, 33.352818244660803 ], [ 130.544102031782927, 33.352803907352964 ], [ 130.543954672500661, 33.352799392414489 ], [ 130.542703831517485, 33.352854692517241 ] ] ] ] } }
]
}
