{
"type": "FeatureCollection",
"name": "小郡A'(¥7800)",
"crs": { "type": "name", "properties": { "name": "urn:ogc:def:crs:EPSG::4612" } },
"features": [
{ "type": "Feature", "properties": { "KEY_CODE": "4021603111", "PREF": "40", "CITY": "216", "K_AREA": "062003830", "S_AREA": "03111", "PREF_NAME": "福岡県", "CITY_NAME": "小郡市", "S_NAME": "希みが丘三丁目", "KIGO_E": null, "HCODE": 8101, "AREA": 19041.968, "PERIMETER": 779.107, "KIHON1": "0620", "DUMMY1": "-", "KIHON2": "03", "KIHON3": "830", "C1": 22, "C2": 311, "DUMMY2": "-", "C3": 1, "DUMMY3": null, "C4": 0, "KIGO_A": null, "KIGO_D": null, "N_KEN": null, "N_CITY": null, "N_C1": 0, "KIGO_I": null, "KEYCODE1": "2160311-1-00", "JINKO": 188, "SETAI": 55, "KEN_OLD": "40", "CITY_OLD": "216", "X_CODE": 130.538693, "Y_CODE": 33.439945, "KCODE1": "0620-03830", "CCODE1": "311-1" }, "geometry": { "type": "MultiPolygon", "coordinates": [ [ [ [ 130.553398847939633, 33.41176721593046 ], [ 130.553674683433485, 33.411570600563053 ], [ 130.553711714337993, 33.411531634786819 ], [ 130.553773408360485, 33.411457745626912 ], [ 130.553843191557831, 33.41135437109309 ], [ 130.553908144809441, 33.411218044367608 ], [ 130.55394248558909, 33.411032297305134 ], [ 130.553890435664272, 33.410716555479759 ], [ 130.553887371594669, 33.410691432801286 ], [ 130.553832657492194, 33.410665738904854 ], [ 130.553763604964018, 33.4106515789287 ], [ 130.553679641254661, 33.410629761299504 ], [ 130.553592869251531, 33.410606768564449 ], [ 130.553681704162869, 33.409949803304229 ], [ 130.553661921917097, 33.409917679777109 ], [ 130.553619034803063, 33.409862334905739 ], [ 130.553508343257619, 33.409778817060179 ], [ 130.553379356328861, 33.409733626417584 ], [ 130.553294762755627, 33.409695675161657 ], [ 130.553180925235267, 33.409668994020393 ], [ 130.553104051949475, 33.409656780636837 ], [ 130.553032792698048, 33.409655330479573 ], [ 130.552945918289169, 33.409652628339074 ], [ 130.552818916402714, 33.409686836169257 ], [ 130.552754638300172, 33.409716473346037 ], [ 130.552572423450187, 33.409829944771644 ], [ 130.552549300217066, 33.409892030797771 ], [ 130.55258755998139, 33.409932565639153 ], [ 130.552652903203381, 33.409965275099182 ], [ 130.552721251149819, 33.409977456818837 ], [ 130.552916437141931, 33.409979347699554 ], [ 130.553033131145668, 33.410006075588747 ], [ 130.553139094277441, 33.410045268041671 ], [ 130.553217277702259, 33.410080201122305 ], [ 130.553299585631493, 33.410146219761387 ], [ 130.553302053339877, 33.410172683716688 ], [ 130.553284854098905, 33.410234613747477 ], [ 130.553244608169507, 33.410302586178915 ], [ 130.553218800784862, 33.410339548835509 ], [ 130.553176528010397, 33.410385398884145 ], [ 130.553103397750988, 33.410469989926185 ], [ 130.55307184149666, 33.410514080570273 ], [ 130.553063090105638, 33.410549905682466 ], [ 130.553031246150084, 33.410650175812783 ], [ 130.553028492774132, 33.410769080606684 ], [ 130.553022312607339, 33.410868244378364 ], [ 130.553020621778984, 33.410919623716659 ], [ 130.553001738960916, 33.41098169022019 ], [ 130.552915808944789, 33.411211419836931 ], [ 130.552891393103408, 33.411247188119589 ], [ 130.552865606154398, 33.411272175727895 ], [ 130.552828455423992, 33.411293563271798 ], [ 130.552724914642312, 33.411337999822322 ], [ 130.552656490516426, 33.41134853163468 ], [ 130.552561916863965, 33.411340130336029 ], [ 130.552558315864275, 33.411321874630609 ], [ 130.552524425566077, 33.411264410655221 ], [ 130.552456365887593, 33.411196047621772 ], [ 130.552396762511904, 33.411149235965929 ], [ 130.552307994693024, 33.411098129565289 ], [ 130.552188887108343, 33.41098534836113 ], [ 130.552118947892438, 33.410866224450757 ], [ 130.5518255261685, 33.410572375588082 ], [ 130.551823008339284, 33.410515026591582 ], [ 130.551803018709222, 33.410514955354685 ], [ 130.551756990575569, 33.410466397720299 ], [ 130.551143345917779, 33.40982485366785 ], [ 130.550346096864871, 33.410361504860703 ], [ 130.549766471932941, 33.410734123014755 ], [ 130.548764573354731, 33.411356253251753 ], [ 130.547938141802916, 33.411885165846854 ], [ 130.547430013924071, 33.412177974000201 ], [ 130.547140994678585, 33.41234801217842 ], [ 130.546953571580644, 33.412459874484263 ], [ 130.546798120908875, 33.412496866037195 ], [ 130.546534694228882, 33.412551079131489 ], [ 130.546084810707271, 33.412660242359053 ], [ 130.546084810707271, 33.412660242359046 ], [ 130.545513891312538, 33.412778370462938 ], [ 130.545257319541435, 33.412878041362781 ], [ 130.545038479447214, 33.412957911855628 ], [ 130.544589004318254, 33.413148181401432 ], [ 130.544173785002528, 33.413340124488329 ], [ 130.543996019455562, 33.413387068871444 ], [ 130.543942292514885, 33.413389867036564 ], [ 130.543804603688272, 33.413529761058392 ], [ 130.543494389870858, 33.413666133868986 ], [ 130.543457328622992, 33.413682428091491 ], [ 130.542878414607202, 33.413895433108372 ], [ 130.542662724071249, 33.413966326427207 ], [ 130.542091066729995, 33.414162461747225 ], [ 130.542041220501034, 33.414179562157678 ], [ 130.541650225524933, 33.414307264997554 ], [ 130.541244077662753, 33.41442519207358 ], [ 130.541103459105159, 33.414435918137336 ], [ 130.541096230025147, 33.414743965556013 ], [ 130.54104068538993, 33.415071423603735 ], [ 130.541075522852339, 33.415224794635542 ], [ 130.541052487217115, 33.415370491034018 ], [ 130.5411857199297, 33.415737408969029 ], [ 130.541178887287373, 33.415908381679323 ], [ 130.541125166472938, 33.416177235149185 ], [ 130.541067286037105, 33.416351614848914 ], [ 130.541093164275196, 33.416932885111436 ], [ 130.541051482368601, 33.417227988940212 ], [ 130.540945613997366, 33.417438786374525 ], [ 130.540947851363597, 33.417853657395028 ], [ 130.540912957545004, 33.418544946752696 ], [ 130.540947775280642, 33.418702054139835 ], [ 130.541006613921013, 33.418954553352108 ], [ 130.541166929005016, 33.41897757384249 ], [ 130.540943307629021, 33.419539231299282 ], [ 130.541038029062975, 33.419985892374655 ], [ 130.541039119203106, 33.420229160092994 ], [ 130.541039783686529, 33.420481445334545 ], [ 130.54099796247425, 33.420714590237793 ], [ 130.540937653124132, 33.420933298812542 ], [ 130.540832762678065, 33.421358794217383 ], [ 130.540665877502249, 33.421768707311294 ], [ 130.540482487491431, 33.422052087452407 ], [ 130.540266887277198, 33.422334567708482 ], [ 130.540000152316225, 33.422588441757433 ], [ 130.539785219791582, 33.422753398683973 ], [ 130.539504006999152, 33.422941634652432 ], [ 130.539316514391089, 33.42306495264009 ], [ 130.539428126357194, 33.423140804218328 ], [ 130.539452803665569, 33.423175762460822 ], [ 130.53948678916467, 33.423237168610974 ], [ 130.539486477577753, 33.423295003155332 ], [ 130.539456440723569, 33.423381634359664 ], [ 130.539352165462248, 33.423534104592193 ], [ 130.539223145751578, 33.42370300142715 ], [ 130.539034867781083, 33.423908835061596 ], [ 130.538834298401497, 33.42409606189527 ], [ 130.538567114208746, 33.424305759723183 ], [ 130.538312110605176, 33.424546460279181 ], [ 130.538131052781637, 33.424775066625031 ], [ 130.53803021011629, 33.424912966027144 ], [ 130.537938446142618, 33.425018812847028 ], [ 130.537843334342199, 33.425137539010336 ], [ 130.537778720468765, 33.425240561697294 ], [ 130.537703711602859, 33.42532371728965 ], [ 130.53730227871003, 33.425887322247711 ], [ 130.537001719893794, 33.426314718280828 ], [ 130.53695247909198, 33.426386310214482 ], [ 130.536920445247915, 33.426429545876765 ], [ 130.537007209639, 33.426695881370698 ], [ 130.536999927657746, 33.426853069788841 ], [ 130.536989367154632, 33.42693371920442 ], [ 130.536941107934979, 33.42707152929993 ], [ 130.536856069737695, 33.427306686108416 ], [ 130.537067499108758, 33.42738182030125 ], [ 130.537160903313065, 33.427423481145546 ], [ 130.537165655191046, 33.427546238751631 ], [ 130.537142722534583, 33.428017564129995 ], [ 130.537099738764311, 33.428251465535425 ], [ 130.537086667387882, 33.42844918730222 ], [ 130.53706018250972, 33.428690154992175 ], [ 130.537081368497439, 33.428924816092348 ], [ 130.537095167280597, 33.429110775046389 ], [ 130.537093850707123, 33.429358635632823 ], [ 130.537102624340918, 33.429565245005016 ], [ 130.537111487860301, 33.429747029243231 ], [ 130.537118780687649, 33.429908305759376 ], [ 130.537215751711955, 33.430063473336112 ], [ 130.537298547516855, 33.430245563144013 ], [ 130.53739521184832, 33.430387027146928 ], [ 130.537061990097271, 33.430484867192575 ], [ 130.537031966276174, 33.430561717105171 ], [ 130.536982552229944, 33.430667025219535 ], [ 130.536949587124184, 33.430743866366683 ], [ 130.536892442929201, 33.430912508149028 ], [ 130.536826141848337, 33.431128247740226 ], [ 130.536641842469521, 33.431540936014763 ], [ 130.536567270731069, 33.431644952704453 ], [ 130.536448082581813, 33.431781067632912 ], [ 130.536293438048261, 33.431909582448924 ], [ 130.536094284141512, 33.432050363591493 ], [ 130.536019989127283, 33.432102215553996 ], [ 130.536127063384583, 33.432292571742053 ], [ 130.536016687742176, 33.432446086342686 ], [ 130.535881149978707, 33.432662445745287 ], [ 130.535777077450092, 33.43284690663598 ], [ 130.535695227318968, 33.433015951858138 ], [ 130.535664908944966, 33.433163530728002 ], [ 130.535545681061137, 33.433314541499406 ], [ 130.535509401372451, 33.433453430534385 ], [ 130.535425550272777, 33.433626906838015 ], [ 130.535318619137684, 33.433842916537188 ], [ 130.535248326108814, 33.434042085664615 ], [ 130.535223123100934, 33.434270236070411 ], [ 130.535223123100934, 33.434270236070418 ], [ 130.535243417051191, 33.434419444833708 ], [ 130.535315129221374, 33.434576701413938 ], [ 130.535396229767116, 33.434730081038872 ], [ 130.535518545256224, 33.435048426415328 ], [ 130.535526533062182, 33.435307483761498 ], [ 130.535522331242845, 33.435441913588704 ], [ 130.5355687644348, 33.435540518678806 ], [ 130.535633407842369, 33.435677793679915 ], [ 130.535667921299165, 33.435791724588668 ], [ 130.535691664177165, 33.435956235434929 ], [ 130.535660571831755, 33.436067422445191 ], [ 130.535585166837564, 33.436169181658876 ], [ 130.535492218480357, 33.436260097759039 ], [ 130.535341189064951, 33.436489117083063 ], [ 130.535220876766289, 33.436669184131908 ], [ 130.535220217033583, 33.436792815347374 ], [ 130.535252169083577, 33.436946012608566 ], [ 130.535353971614768, 33.437164215565367 ], [ 130.535375582310735, 33.43749986456843 ], [ 130.53540134374191, 33.437718730314266 ], [ 130.535553565778798, 33.437707534777203 ], [ 130.535691726752361, 33.437686457724766 ], [ 130.535797108915745, 33.437682940322013 ], [ 130.535874165887662, 33.437712675735796 ], [ 130.536063078786185, 33.437840921506137 ], [ 130.536419616546482, 33.438134636922953 ], [ 130.536537087925979, 33.438267547737375 ], [ 130.536609326687682, 33.438326674937997 ], [ 130.536740211232853, 33.438362492912951 ], [ 130.536926847692001, 33.438697769119649 ], [ 130.537069790398704, 33.438883715534622 ], [ 130.537139000965709, 33.439078262847694 ], [ 130.537126719740257, 33.439183499020857 ], [ 130.537117220637782, 33.439255600603659 ], [ 130.537113111284128, 33.439277846872677 ], [ 130.537307737995917, 33.439319921828265 ], [ 130.537423599927024, 33.439336696067755 ], [ 130.537473032650183, 33.439347692625546 ], [ 130.537589882674467, 33.439415754922017 ], [ 130.537723929890888, 33.439489306679711 ], [ 130.5377464613141, 33.4395029159868 ], [ 130.537810597805532, 33.439577086487496 ], [ 130.538088369154281, 33.439721475383777 ], [ 130.538153341350238, 33.439844362876954 ], [ 130.538192933118637, 33.43993619704775 ], [ 130.53820117878405, 33.439950032873703 ], [ 130.53829219831232, 33.440025219979148 ], [ 130.538307336998599, 33.440030314659197 ], [ 130.538592847565468, 33.440118301233802 ], [ 130.53876176690784, 33.440247103791656 ], [ 130.53892494084414, 33.440366621720351 ], [ 130.539012101421889, 33.440353418740749 ], [ 130.539045686968365, 33.440516731033519 ], [ 130.539203867298852, 33.440698575767875 ], [ 130.539225597937815, 33.440728276304355 ], [ 130.539297841327624, 33.440826958510307 ], [ 130.53927636135802, 33.440845158169012 ], [ 130.539256778682557, 33.440861959497987 ], [ 130.539210561034082, 33.440862704018848 ], [ 130.539134760739898, 33.440959816150574 ], [ 130.539175414739333, 33.440994237820362 ], [ 130.539374087461141, 33.440923610612082 ], [ 130.539682449178599, 33.440812245283801 ], [ 130.539849279312193, 33.441100812099755 ], [ 130.539928113920155, 33.441112868973335 ], [ 130.539978533173894, 33.441199810201731 ], [ 130.540131203654141, 33.44151058307672 ], [ 130.540236971918091, 33.44175306173554 ], [ 130.541019695205932, 33.4408558592406 ], [ 130.541511014166502, 33.440292656099594 ], [ 130.541575662883815, 33.440333962269904 ], [ 130.541696867695066, 33.440198342217712 ], [ 130.54182826581453, 33.440073855092663 ], [ 130.541938575619952, 33.439972429618372 ], [ 130.542134335662325, 33.439839655186738 ], [ 130.542146336438805, 33.439834451071896 ], [ 130.542454189994686, 33.439700467674847 ], [ 130.542764595653921, 33.439576495691107 ], [ 130.543185847923183, 33.439408264822291 ], [ 130.54379006517371, 33.439166948591662 ], [ 130.543866298737441, 33.43930678053129 ], [ 130.544094829910733, 33.439686335764598 ], [ 130.544162354119464, 33.439732374027223 ], [ 130.544277225079128, 33.439850685478461 ], [ 130.544384593303135, 33.439974006817323 ], [ 130.544410873049998, 33.440001754162552 ], [ 130.544203857840813, 33.440198667652773 ], [ 130.544136847094848, 33.440263126313461 ], [ 130.544133088425212, 33.44026674190588 ], [ 130.544517089220136, 33.440618334313314 ], [ 130.545159282221192, 33.441199007589177 ], [ 130.54565418528793, 33.441651036699923 ], [ 130.545716071095313, 33.441594377506277 ], [ 130.546021392523301, 33.44138232012682 ], [ 130.546317425531299, 33.441146276220202 ], [ 130.5466994965808, 33.440838023024277 ], [ 130.546837920769747, 33.44073440717775 ], [ 130.547152259943232, 33.441016700343553 ], [ 130.54720579181847, 33.441071736707123 ], [ 130.547483642733766, 33.441334279299731 ], [ 130.547497069473735, 33.441345739247964 ], [ 130.547560973625878, 33.441321068723127 ], [ 130.548274394251422, 33.441024225875992 ], [ 130.548580019873981, 33.440907230509275 ], [ 130.54867006895077, 33.440863917541428 ], [ 130.548751695228788, 33.44082458586103 ], [ 130.549010276003827, 33.440794807714589 ], [ 130.549397992768291, 33.440759296236742 ], [ 130.549462879448612, 33.44075600771162 ], [ 130.54946405615209, 33.440755945372217 ], [ 130.549462943399732, 33.440743644117958 ], [ 130.549457346437777, 33.44044475943506 ], [ 130.549441652970643, 33.440367879114916 ], [ 130.549394405941229, 33.44013699701835 ], [ 130.549441652970671, 33.44036787911493 ], [ 130.5499446593779, 33.440225387096518 ], [ 130.549954551324731, 33.440205734819116 ], [ 130.549960542693441, 33.440184411321809 ], [ 130.549820123273548, 33.439812692196917 ], [ 130.549797362065988, 33.439752474937535 ], [ 130.549797393350502, 33.439734608732806 ], [ 130.549797649653101, 33.439685015670818 ], [ 130.54978495306446, 33.439644392894316 ], [ 130.549761599212559, 33.439584799240272 ], [ 130.549738037014009, 33.439565774573857 ], [ 130.549702632472787, 33.439548517786129 ], [ 130.549667881348199, 33.439512677159158 ], [ 130.549652541455515, 33.439459965519227 ], [ 130.549614204290208, 33.439385890544436 ], [ 130.549563883689842, 33.439341521363751 ], [ 130.549507124329324, 33.439294427163183 ], [ 130.54944147590794, 33.439238348638042 ], [ 130.549394336418118, 33.439186791628458 ], [ 130.549371847739451, 33.439148856555029 ], [ 130.549356277147382, 33.439109193604892 ], [ 130.549339341682298, 33.43903504458283 ], [ 130.549334818276776, 33.438976772101846 ], [ 130.549335773819223, 33.43894484589341 ], [ 130.549356880177157, 33.438867903813573 ], [ 130.549357223265758, 33.438820493222238 ], [ 130.549335490340354, 33.438791554295051 ], [ 130.549273353981476, 33.438744444358299 ], [ 130.549199778323128, 33.43869609540905 ], [ 130.549155017887387, 33.438663762149289 ], [ 130.549155702986042, 33.438607876698583 ], [ 130.549299675451124, 33.438511393466761 ], [ 130.54950171701779, 33.438364298239314 ], [ 130.549558992879412, 33.43832927739237 ], [ 130.550020137643656, 33.438349277612929 ], [ 130.55041712754965, 33.438440191185876 ], [ 130.550530738796112, 33.438370092979788 ], [ 130.550637128827219, 33.438310206412474 ], [ 130.550883096361844, 33.438394292349926 ], [ 130.551134594438338, 33.438073857350425 ], [ 130.551376924555285, 33.438203825854515 ], [ 130.551528984882594, 33.437914595083747 ], [ 130.551716297126035, 33.437640600049924 ], [ 130.551800141955994, 33.437577392563412 ], [ 130.551908671715296, 33.437525972813155 ], [ 130.552009258410379, 33.437515943312668 ], [ 130.552288789504274, 33.437551537898479 ], [ 130.552335989024925, 33.437547617280607 ], [ 130.552398550987903, 33.437317448742085 ], [ 130.552565757687887, 33.437202906780897 ], [ 130.552776253468068, 33.437191406861956 ], [ 130.552937042059654, 33.437189515202675 ], [ 130.553039490171074, 33.437160472834584 ], [ 130.553107034286711, 33.437096996900415 ], [ 130.553119143269242, 33.437021098577127 ], [ 130.553102022521728, 33.436935237899824 ], [ 130.553188880439677, 33.436816706223269 ], [ 130.553282522008772, 33.436792524772343 ], [ 130.553285675405959, 33.436750904214975 ], [ 130.55325703948634, 33.436633155923957 ], [ 130.55337745810894, 33.436515980486625 ], [ 130.553383703693868, 33.436444925884373 ], [ 130.553391492864534, 33.436343233943497 ], [ 130.553488407041499, 33.436262741247411 ], [ 130.553560702416263, 33.43612454199954 ], [ 130.554073333055157, 33.435900921448862 ], [ 130.553994594714908, 33.435583289030532 ], [ 130.554542198977799, 33.4353794049971 ], [ 130.554630391471534, 33.435286593611089 ], [ 130.554741691364171, 33.435242857393035 ], [ 130.555001379193186, 33.435041646062793 ], [ 130.555124907324483, 33.434890135913072 ], [ 130.555183968661424, 33.434767810489959 ], [ 130.555219910120798, 33.434598871549831 ], [ 130.555308214734936, 33.434484011943866 ], [ 130.556126325419399, 33.434260588856027 ], [ 130.556838843069045, 33.434173176542174 ], [ 130.556126325419399, 33.434260588856041 ], [ 130.556218666384837, 33.434680803644873 ], [ 130.556302185258431, 33.434944456564402 ], [ 130.556334755234417, 33.434983251684322 ], [ 130.556191674754018, 33.435163112905457 ], [ 130.556110569008922, 33.435300118984316 ], [ 130.556050306202252, 33.435435968162778 ], [ 130.555998139220975, 33.435598650926224 ], [ 130.555964513105522, 33.435767034236186 ], [ 130.555944969234218, 33.435949807637492 ], [ 130.555938153442298, 33.436088263309856 ], [ 130.555944313234335, 33.436096651130335 ], [ 130.556002380106236, 33.436098661640017 ], [ 130.556137683770714, 33.436064477408983 ], [ 130.556225378268209, 33.436025517529096 ], [ 130.556426148277922, 33.435881961956447 ], [ 130.556396414923142, 33.435596020035007 ], [ 130.556423471229408, 33.435562755319253 ], [ 130.55650958131605, 33.43554863289836 ], [ 130.556537351523758, 33.435586602965238 ], [ 130.556625406179165, 33.435613067397782 ], [ 130.556727927966307, 33.43554400022834 ], [ 130.556941383729026, 33.43565476795267 ], [ 130.556990370044929, 33.435750519727108 ], [ 130.557168162564068, 33.435895422775417 ], [ 130.557277053862208, 33.435759735435283 ], [ 130.557352159019757, 33.435666145228851 ], [ 130.557146444969703, 33.435513028267984 ], [ 130.557140400423492, 33.435504808220735 ], [ 130.557081292085144, 33.435424430292038 ], [ 130.557058717401475, 33.435210649323423 ], [ 130.557034838390621, 33.435175760854847 ], [ 130.557004273564019, 33.435131106317499 ], [ 130.557018506390307, 33.435081563845905 ], [ 130.557005898112919, 33.435022908988323 ], [ 130.557012836387941, 33.434927354471426 ], [ 130.557098904385498, 33.434921348578449 ], [ 130.557424908522535, 33.434894556733667 ], [ 130.558061190882853, 33.434840234983611 ], [ 130.558165150652627, 33.434831359562025 ], [ 130.558329333867789, 33.435027704508364 ], [ 130.558405966960436, 33.435133346160065 ], [ 130.558531403557083, 33.435351131589208 ], [ 130.558565825306431, 33.435562249386564 ], [ 130.558871718839612, 33.435538484281253 ], [ 130.558955112718792, 33.435527371402493 ], [ 130.55898007741925, 33.435524042676931 ], [ 130.559107168207532, 33.435487522863014 ], [ 130.559380111447553, 33.435532673529046 ], [ 130.559611429023988, 33.435512904115363 ], [ 130.559623273969493, 33.435511890973658 ], [ 130.559777867148341, 33.435566539036046 ], [ 130.559751455215661, 33.435685469287527 ], [ 130.559779154325241, 33.435737865279016 ], [ 130.559931856285942, 33.435741109855208 ], [ 130.560014601948922, 33.435754026101691 ], [ 130.560121902596109, 33.435803096741353 ], [ 130.560277055226067, 33.435921962709578 ], [ 130.560475448537943, 33.436073950933192 ], [ 130.560858874283383, 33.435750694012711 ], [ 130.561062219368239, 33.435735180514968 ], [ 130.561191801956994, 33.43584474183784 ], [ 130.561365746922775, 33.435901259711414 ], [ 130.561437899179396, 33.435888865679189 ], [ 130.561458319836419, 33.43588535536243 ], [ 130.561521988860051, 33.435842300032157 ], [ 130.561605425036817, 33.435718158552667 ], [ 130.561628670763156, 33.435586592821252 ], [ 130.561673082830993, 33.435523630607911 ], [ 130.561692444906669, 33.435522798931459 ], [ 130.561832974875898, 33.435379922322156 ], [ 130.56206789496909, 33.435264381520497 ], [ 130.562213322672335, 33.4352396939437 ], [ 130.562328406041672, 33.435238295489455 ], [ 130.562563620923697, 33.435301338405367 ], [ 130.562827505232093, 33.435350646269619 ], [ 130.562940130783204, 33.435830170790858 ], [ 130.562998185801206, 33.43608260707267 ], [ 130.563023575023919, 33.436188333086761 ], [ 130.563160771826318, 33.436759652200969 ], [ 130.563178770636711, 33.436834605428757 ], [ 130.563160771826318, 33.436759652200976 ], [ 130.562887306284836, 33.436811913101018 ], [ 130.562319578560562, 33.43692424776166 ], [ 130.560822438627469, 33.437221233790943 ], [ 130.560735050507731, 33.436955007953507 ], [ 130.560730281730315, 33.436940478798505 ], [ 130.560355863438616, 33.436755210441582 ], [ 130.560099954038378, 33.436743487860745 ], [ 130.55994665261818, 33.436645560773876 ], [ 130.559738255451776, 33.436596132606724 ], [ 130.559522116446232, 33.436556626523718 ], [ 130.559304872913884, 33.436515039690711 ], [ 130.559130235848755, 33.436456024587748 ], [ 130.559021663602039, 33.436602032119431 ], [ 130.55848924586806, 33.437318033351822 ], [ 130.558139418118401, 33.437787933481282 ], [ 130.55800923719292, 33.437796488689393 ], [ 130.55805391932509, 33.43789312971839 ], [ 130.558318466010405, 33.438111378519345 ], [ 130.557818107165588, 33.438372001518118 ], [ 130.55783162088926, 33.438252121229041 ], [ 130.557061930007336, 33.438411807230658 ], [ 130.556733438165821, 33.438479956348502 ], [ 130.556654094594109, 33.438629645799736 ], [ 130.556687065336689, 33.438642024532406 ], [ 130.556684791565857, 33.438700905209423 ], [ 130.556680202721765, 33.438810256407386 ], [ 130.556709005651754, 33.438871752333483 ], [ 130.556747262202464, 33.438957654998944 ], [ 130.556808422820012, 33.43905043988407 ], [ 130.556881292187967, 33.439145904784503 ], [ 130.556981966582015, 33.4392596809125 ], [ 130.557085854291614, 33.439344161305499 ], [ 130.557194944124092, 33.439397562168033 ], [ 130.557269083760815, 33.439424734220566 ], [ 130.557325434564717, 33.439389605920759 ], [ 130.557420209049496, 33.43949846415692 ], [ 130.557465962483889, 33.439572631491174 ], [ 130.557505631244794, 33.439670376496217 ], [ 130.557545199282117, 33.43977984867729 ], [ 130.557631532832033, 33.439971128981995 ], [ 130.557739397694718, 33.440067390032944 ], [ 130.557972697999844, 33.440166663924074 ], [ 130.558151309862012, 33.44016391594279 ], [ 130.558308044564171, 33.440125763334564 ], [ 130.558430724882413, 33.440067340222427 ], [ 130.558569683199494, 33.439971921914029 ], [ 130.55865019144548, 33.439920039891682 ], [ 130.558754882527097, 33.43985482796608 ], [ 130.558857461616896, 33.439808060830373 ], [ 130.558990062590254, 33.43978162160937 ], [ 130.559118698764706, 33.43973329266305 ], [ 130.559209374355078, 33.439664615283348 ], [ 130.559261816189121, 33.439612667734629 ], [ 130.559260181932103, 33.439536935140161 ], [ 130.559102731898037, 33.439243039336475 ], [ 130.55918926860295, 33.439178536659327 ], [ 130.559256187549067, 33.43915478611023 ], [ 130.559495116563284, 33.438962825307975 ], [ 130.559891353427957, 33.438676557193865 ], [ 130.560081040134492, 33.438442924586923 ], [ 130.560458193872506, 33.438099426482623 ], [ 130.560715086895556, 33.437926578170611 ], [ 130.561035905326833, 33.437848739694424 ], [ 130.561346783378781, 33.437868258543915 ], [ 130.561657411042233, 33.43794567751906 ], [ 130.562518434257527, 33.438519948734395 ], [ 130.562772359217632, 33.438628797214356 ], [ 130.563003939852734, 33.438694631380649 ], [ 130.563395348655433, 33.438674131983504 ], [ 130.563625200392408, 33.438657254910837 ], [ 130.563673016414555, 33.438832934842331 ], [ 130.563689635169169, 33.438904036103395 ], [ 130.563764360375046, 33.439209819333939 ], [ 130.563816446547293, 33.439430741681299 ], [ 130.563872459439665, 33.439622302009276 ], [ 130.563916037527946, 33.439805402208535 ], [ 130.563952818733441, 33.439961425927677 ], [ 130.563964624470117, 33.440011940777929 ], [ 130.563972564864429, 33.440028805548316 ], [ 130.564213195038377, 33.44099362222979 ], [ 130.564269622727835, 33.441237594426603 ], [ 130.56444701148925, 33.441935765428767 ], [ 130.564546826831105, 33.442342724886046 ], [ 130.564678340870699, 33.442872191313654 ], [ 130.564826573197621, 33.443470366351683 ], [ 130.564948451704879, 33.443953130228117 ], [ 130.565487165067083, 33.443844901578125 ], [ 130.565856462259376, 33.443721815946574 ], [ 130.56627291503608, 33.443485266831978 ], [ 130.566613128445027, 33.443244859398163 ], [ 130.566800590432422, 33.44304301440097 ], [ 130.566996909191175, 33.442766599049882 ], [ 130.567178644009857, 33.44243148999896 ], [ 130.567429864198033, 33.442190805892835 ], [ 130.567532072353941, 33.442091690792218 ], [ 130.567685256743943, 33.441964328869226 ], [ 130.567828037761871, 33.441799596457685 ], [ 130.567955960809996, 33.441640197624935 ], [ 130.568105162899201, 33.441459529185643 ], [ 130.568293077278753, 33.441190516709078 ], [ 130.568439459438196, 33.440984867046744 ], [ 130.568539125521596, 33.440812727768815 ], [ 130.568622386814752, 33.440636057846497 ], [ 130.568671353617191, 33.440504072847453 ], [ 130.568747422961536, 33.440354250583063 ], [ 130.568824448752963, 33.440291715264109 ], [ 130.568950852952071, 33.440209167615592 ], [ 130.56908019618669, 33.440093381037428 ], [ 130.568965735313327, 33.440096543270712 ], [ 130.568927805592125, 33.4400608741946 ], [ 130.5689026611972, 33.439996822533431 ], [ 130.568912005150025, 33.439822783933323 ], [ 130.568870269412486, 33.439698302869864 ], [ 130.568802741492391, 33.439641221149323 ], [ 130.568646231269838, 33.43958383087125 ], [ 130.568523537553034, 33.439544342661115 ], [ 130.568383923604529, 33.439494125485368 ], [ 130.568469861723315, 33.439259947070383 ], [ 130.568523584254848, 33.43910913343511 ], [ 130.568237853917225, 33.439043526146442 ], [ 130.568523584254876, 33.43910913343511 ], [ 130.568606957654424, 33.438892347123776 ], [ 130.568684970474635, 33.438688783149587 ], [ 130.568736699017279, 33.438422467234503 ], [ 130.568801576035611, 33.438156234790846 ], [ 130.568890583981528, 33.437724889840609 ], [ 130.5689296864266, 33.437522532324209 ], [ 130.56896479824016, 33.437277540044391 ], [ 130.56939257409357, 33.437318079219501 ], [ 130.569441322277896, 33.436453183752633 ], [ 130.5698899437308, 33.436568430183279 ], [ 130.570298093247033, 33.436678257067769 ], [ 130.570298093247033, 33.436678257067761 ], [ 130.570411073823891, 33.436727181805885 ], [ 130.5713673826763, 33.437096826388775 ], [ 130.5716199929401, 33.437115339688837 ], [ 130.571717353344155, 33.4371200784026 ], [ 130.571735656433987, 33.437148847660957 ], [ 130.571713507704686, 33.437365039773894 ], [ 130.571783780992774, 33.437530789618506 ], [ 130.571792091265422, 33.437712883195537 ], [ 130.571754653668194, 33.437834167501016 ], [ 130.571680640126345, 33.437900093898506 ], [ 130.571213487804584, 33.438152265526874 ], [ 130.570779310211606, 33.43838803201119 ], [ 130.570581212837055, 33.438526369348132 ], [ 130.570247989126131, 33.438847436578868 ], [ 130.570102216853911, 33.439058550627806 ], [ 130.569962134552355, 33.439274616984349 ], [ 130.569871180054548, 33.439461827235355 ], [ 130.569791544052691, 33.439593987934444 ], [ 130.569716562925038, 33.439856348219053 ], [ 130.569708192557414, 33.440217140503215 ], [ 130.569735359071359, 33.440579144587673 ], [ 130.569777426661545, 33.440858464016394 ], [ 130.569883306815143, 33.441275898616773 ], [ 130.569972714218352, 33.441557599119008 ], [ 130.569988679196371, 33.441797099537361 ], [ 130.570172821459749, 33.441824219044761 ], [ 130.570398756787142, 33.441913264732818 ], [ 130.570545587570592, 33.442035147794208 ], [ 130.570760221049255, 33.442278641299097 ], [ 130.57100518309835, 33.442523364149253 ], [ 130.571328636475101, 33.442895721772445 ], [ 130.571621409702544, 33.442798878107865 ], [ 130.571961425836236, 33.442302564783191 ], [ 130.571990498001355, 33.442260151073093 ], [ 130.572029266553017, 33.442150848256532 ], [ 130.572052522539821, 33.442120320037525 ], [ 130.572068829789202, 33.442101989608098 ], [ 130.572094537245448, 33.442077457887294 ], [ 130.572158121836566, 33.442048404289736 ], [ 130.572710272329061, 33.441893947149367 ], [ 130.572337449455375, 33.440980407601586 ], [ 130.572332105312398, 33.440913079718456 ], [ 130.575903788091466, 33.439801367801422 ], [ 130.575909805094824, 33.439799487429028 ], [ 130.575566842083788, 33.438996020852578 ], [ 130.575553802160101, 33.438964803634036 ], [ 130.576205202651323, 33.438784257620171 ], [ 130.576566344889045, 33.438662458185114 ], [ 130.576516464446314, 33.438500053716837 ], [ 130.576472508778437, 33.438059516865891 ], [ 130.576478178711, 33.437843199532608 ], [ 130.576493682996016, 33.437495571851898 ], [ 130.576530582686786, 33.437006987046843 ], [ 130.576579808838488, 33.436358182161058 ], [ 130.576586765656856, 33.435875308537653 ], [ 130.576528783715247, 33.435477200296987 ], [ 130.57638527345884, 33.435138685660945 ], [ 130.576056025771635, 33.43461989603442 ], [ 130.575726518343458, 33.4341552062753 ], [ 130.575593864138597, 33.433961594340964 ], [ 130.575467922090354, 33.433804706985988 ], [ 130.575353367984292, 33.433672970932776 ], [ 130.575096432258619, 33.433448042890987 ], [ 130.575436373891932, 33.433059397303388 ], [ 130.575579819933012, 33.432881238136737 ], [ 130.575749992308005, 33.432614762829978 ], [ 130.5757713182374, 33.43258306721372 ], [ 130.575892675113352, 33.43240296434081 ], [ 130.576032662087783, 33.4321751671364 ], [ 130.576171254637956, 33.431888433987801 ], [ 130.576347338317902, 33.431493345574268 ], [ 130.576367415778833, 33.431424659809608 ], [ 130.576405897780916, 33.431337407974823 ], [ 130.57649323554304, 33.430920529306462 ], [ 130.576503313156849, 33.430738992976025 ], [ 130.57645902980542, 33.43037569509795 ], [ 130.57590749326107, 33.430480502175342 ], [ 130.574858648006085, 33.430698607627981 ], [ 130.574709005070901, 33.430207450311755 ], [ 130.57391337533673, 33.430376644575489 ], [ 130.572954122093279, 33.430562634342174 ], [ 130.572818385183581, 33.430056091246847 ], [ 130.573593288336781, 33.4298810547157 ], [ 130.573452870160509, 33.429386084933036 ], [ 130.57357512356586, 33.429349838084626 ], [ 130.573667383082267, 33.42933081708069 ], [ 130.573741331453618, 33.429284716438403 ], [ 130.573778472380894, 33.429223028998337 ], [ 130.573769987938334, 33.429076227298275 ], [ 130.573687666495147, 33.428952318876568 ], [ 130.573591243353746, 33.428886295803963 ], [ 130.573517519181905, 33.428877801196336 ], [ 130.57345882165626, 33.428888798748204 ], [ 130.573311073702399, 33.428415853376563 ], [ 130.573230730864225, 33.428377644966602 ], [ 130.573165331898451, 33.428221239327591 ], [ 130.573087232511625, 33.427929328048805 ], [ 130.572954231986472, 33.427688970956389 ], [ 130.572917796580839, 33.427614174533019 ], [ 130.573038853728775, 33.427624525620416 ], [ 130.573171795431477, 33.427626989609927 ], [ 130.573405913120212, 33.4276423418113 ], [ 130.57361099323154, 33.427642443822911 ], [ 130.573627850664792, 33.427596716821284 ], [ 130.573650791600357, 33.42751813873577 ], [ 130.573648813090529, 33.427432508768057 ], [ 130.573625553133951, 33.427334897796257 ], [ 130.573529528363792, 33.427057823237348 ], [ 130.573446093088876, 33.426887309119863 ], [ 130.573387338281321, 33.42676364915026 ], [ 130.573345070599402, 33.426661994357623 ], [ 130.573325387344767, 33.426563373058649 ], [ 130.57335194752585, 33.426465899008292 ], [ 130.573450616461656, 33.426199429453156 ], [ 130.573499114420542, 33.426048138022729 ], [ 130.573576697040068, 33.425729602545424 ], [ 130.573649027692426, 33.42551467858874 ], [ 130.5739679571914, 33.425416126449754 ], [ 130.574341635150404, 33.425323435735024 ], [ 130.574434506762856, 33.425246366674706 ], [ 130.574521601370151, 33.425009547419322 ], [ 130.574564301816991, 33.424961721647534 ], [ 130.574657794386212, 33.424912518857788 ], [ 130.574750741507358, 33.424854370905891 ], [ 130.574911355526979, 33.424676373618183 ], [ 130.575079435982218, 33.42449136318384 ], [ 130.575107182677897, 33.424460811157033 ], [ 130.575217352005637, 33.424376412138493 ], [ 130.575250576053378, 33.424350953600786 ], [ 130.575417032856507, 33.424266988404554 ], [ 130.575612473787942, 33.424217640622977 ], [ 130.576216521081307, 33.424190819235143 ], [ 130.576136362731887, 33.423819612707362 ], [ 130.575883053307564, 33.423510093680385 ], [ 130.575603684682022, 33.4232740331529 ], [ 130.575433514751893, 33.423066869376235 ], [ 130.57519638631112, 33.422704851690426 ], [ 130.575150061203459, 33.422477894749996 ], [ 130.575194077032279, 33.422323135329137 ], [ 130.575351682558193, 33.422010510787501 ], [ 130.575482138553923, 33.421865314516808 ], [ 130.575495476349317, 33.421851901207582 ], [ 130.575708795992, 33.42162220809923 ], [ 130.575799994862791, 33.421499134786494 ], [ 130.575689724897614, 33.421344584231051 ], [ 130.575388578786914, 33.421356552816995 ], [ 130.575151788645059, 33.42147159551795 ], [ 130.575111239092791, 33.421509389384433 ], [ 130.574977752329858, 33.421759857329384 ], [ 130.574795130824782, 33.421860711553322 ], [ 130.574700485332045, 33.421854010751048 ], [ 130.574610275970485, 33.421841759898541 ], [ 130.574358648761375, 33.421785105247189 ], [ 130.574249624684171, 33.421728939818635 ], [ 130.574169468590554, 33.421593163485241 ], [ 130.574052074396945, 33.421305839382498 ], [ 130.573901436064972, 33.421014421048667 ], [ 130.573679416797575, 33.420734694296897 ], [ 130.573670053235702, 33.420725363973894 ], [ 130.57427391044115, 33.420758782563084 ], [ 130.574568468234077, 33.420719146032738 ], [ 130.574696763187859, 33.420681861770312 ], [ 130.57479194167226, 33.420638900563034 ], [ 130.574858591118812, 33.420615211901342 ], [ 130.5749112119301, 33.4205396600805 ], [ 130.574897493914278, 33.420432008230819 ], [ 130.574850333165756, 33.42035217457785 ], [ 130.574290227029735, 33.420218735754091 ], [ 130.574190755654939, 33.420150663123621 ], [ 130.574124609794097, 33.420070726739539 ], [ 130.574072490058171, 33.420034691024632 ], [ 130.574054965813446, 33.419967427394432 ], [ 130.574016420863387, 33.419843206907132 ], [ 130.573954653665851, 33.419839015032061 ], [ 130.573883297206095, 33.41985469271301 ], [ 130.573731358181675, 33.419822292988606 ], [ 130.573395476992999, 33.419506320900261 ], [ 130.572797598356232, 33.418832781887915 ], [ 130.572277841601647, 33.418225274112807 ], [ 130.571963625161089, 33.417855592551035 ], [ 130.571616288545158, 33.417465860712113 ], [ 130.571328407668119, 33.417054386333035 ], [ 130.571153862480742, 33.41679476136494 ], [ 130.571059887656816, 33.41657528226164 ], [ 130.571196582166351, 33.416552895528412 ], [ 130.571254675521828, 33.416534424243636 ], [ 130.571423856477679, 33.416464594908675 ], [ 130.571464470268268, 33.416395875109238 ], [ 130.571453039717653, 33.415502729285301 ], [ 130.571471199481721, 33.415404978830765 ], [ 130.571506617133878, 33.415324827350176 ], [ 130.571558435930228, 33.415266641699887 ], [ 130.57159393138528, 33.415213541450669 ], [ 130.571588544419342, 33.415155830464222 ], [ 130.571549469669066, 33.415055696027693 ], [ 130.571394781784363, 33.414514673771407 ], [ 130.57140656867179, 33.414466109141181 ], [ 130.571496906619359, 33.414423236568204 ], [ 130.571576749148221, 33.414362645608719 ], [ 130.571614525617889, 33.414315507970905 ], [ 130.57163328748041, 33.414292079328646 ], [ 130.571385208752417, 33.413008839755541 ], [ 130.570582082241117, 33.412990654939009 ], [ 130.570481517807764, 33.412986471768185 ], [ 130.57043669313731, 33.413006073764137 ], [ 130.570388998496469, 33.413002956083773 ], [ 130.570125827266736, 33.413125116858971 ], [ 130.569980867444428, 33.413164523759455 ], [ 130.569834508337806, 33.413197520101328 ], [ 130.569708221088462, 33.413223009207044 ], [ 130.569587045318428, 33.413225055323267 ], [ 130.569501166968394, 33.413223527841467 ], [ 130.569388748861797, 33.413212540196859 ], [ 130.569244947844425, 33.413195489468251 ], [ 130.56918830304312, 33.413193144539015 ], [ 130.569139280971001, 33.413212417866013 ], [ 130.569067042586596, 33.413246723815 ], [ 130.568961428782728, 33.413252837250553 ], [ 130.568917592287136, 33.413267800393079 ], [ 130.568703068889278, 33.413437639898902 ], [ 130.568633542850932, 33.413441695430635 ], [ 130.568589844229251, 33.413428617896486 ], [ 130.568392062420401, 33.413328609507758 ], [ 130.568335502893774, 33.413317599175933 ], [ 130.568211914455134, 33.413315024198468 ], [ 130.568120844274205, 33.413344049353839 ], [ 130.56803135055938, 33.413385655992961 ], [ 130.567938459280811, 33.413426367498474 ], [ 130.567879157350234, 33.41344342645958 ], [ 130.567768302913521, 33.41347326073555 ], [ 130.567696213365224, 33.413468717520303 ], [ 130.567652280687355, 33.413460812718078 ], [ 130.567585465437702, 33.413476960021448 ], [ 130.567510739597111, 33.413487478423697 ], [ 130.567405028569226, 33.413521667488382 ], [ 130.567327623926218, 33.413555956120312 ], [ 130.567201271047139, 33.413594401495324 ], [ 130.567075057033094, 33.413604741284011 ], [ 130.566968177151978, 33.413611947096499 ], [ 130.566821532422665, 33.413591992692716 ], [ 130.566740953663754, 33.413588683648655 ], [ 130.566620773828873, 33.413576186129056 ], [ 130.566361098211189, 33.41349969774992 ], [ 130.565299031183343, 33.413510061406647 ], [ 130.565136794609344, 33.41350949691963 ], [ 130.564902530625346, 33.413508681445876 ], [ 130.564757228655452, 33.413514831922598 ], [ 130.56463898118804, 33.413519209700198 ], [ 130.564486278124065, 33.413552249531264 ], [ 130.56435116420451, 33.413586647117206 ], [ 130.564266895521371, 33.41357388289115 ], [ 130.564168804547364, 33.41355353389654 ], [ 130.564092672772347, 33.413526112928778 ], [ 130.56384172425831, 33.41338452415355 ], [ 130.563586193924351, 33.413386836680587 ], [ 130.563592847521704, 33.413585128081337 ], [ 130.561990902958144, 33.413659476006849 ], [ 130.561964441977892, 33.413609790130593 ], [ 130.560859366807279, 33.413645080594428 ], [ 130.56079065371884, 33.413662449146173 ], [ 130.560704699736846, 33.413692541101327 ], [ 130.560618729008979, 33.41372581064914 ], [ 130.560621251103271, 33.413792175107325 ], [ 130.560618729008979, 33.413725810649147 ], [ 130.56045820996232, 33.41379241119926 ], [ 130.560320670606757, 33.413849480550262 ], [ 130.560196501365596, 33.413895431873684 ], [ 130.560156370258881, 33.413908074736945 ], [ 130.560059818845986, 33.413941164180052 ], [ 130.559998973472858, 33.413947466593235 ], [ 130.559893372437955, 33.413959428220195 ], [ 130.559810564090782, 33.413970034476478 ], [ 130.559893372437955, 33.413959428220188 ], [ 130.559880201537226, 33.413656818035875 ], [ 130.559869405386564, 33.413366586906854 ], [ 130.559865810375555, 33.413188385747567 ], [ 130.559858597063567, 33.41307839202306 ], [ 130.559851538312984, 33.41301250597882 ], [ 130.560155679098131, 33.413046498930306 ], [ 130.56029790362777, 33.413067606616046 ], [ 130.560410285291425, 33.413085475032403 ], [ 130.56040531488884, 33.412938333837033 ], [ 130.560394834968719, 33.412751228373224 ], [ 130.560387805759888, 33.412629651900474 ], [ 130.560375281631991, 33.412472900899111 ], [ 130.560234517419786, 33.412478887133197 ], [ 130.559951122243035, 33.412486981158871 ], [ 130.559654186832574, 33.412490065506653 ], [ 130.559368303263852, 33.412483918373105 ], [ 130.559204321142488, 33.412484387934313 ], [ 130.558887102472994, 33.412455865488781 ], [ 130.558544376417473, 33.412422121792801 ], [ 130.558307264866585, 33.41239034989777 ], [ 130.558220658758302, 33.412363189692087 ], [ 130.558154481996979, 33.412058754526484 ], [ 130.558041116216401, 33.412153033265547 ], [ 130.557930070360186, 33.412278208216854 ], [ 130.557638082588483, 33.412266894433991 ], [ 130.55727501517751, 33.412242969421719 ], [ 130.55713271148295, 33.412230107904769 ], [ 130.556887349445105, 33.412225153007057 ], [ 130.556725558903622, 33.412187530550348 ], [ 130.556453562473223, 33.412110420372812 ], [ 130.556164314151147, 33.412047658995078 ], [ 130.556012279255555, 33.412024469925278 ], [ 130.555801502149649, 33.411974344006552 ], [ 130.555520754583029, 33.41192495606299 ], [ 130.555280329208443, 33.411915864913361 ], [ 130.555132985655007, 33.411935948443393 ], [ 130.554915312616998, 33.41196976646831 ], [ 130.554780701532877, 33.411980279585549 ], [ 130.554682247440439, 33.412015646457014 ], [ 130.554601216632989, 33.412027719520701 ], [ 130.554385220560874, 33.412028999066571 ], [ 130.554206066391686, 33.412036605206559 ], [ 130.554102271602005, 33.412040570450479 ], [ 130.553869644147341, 33.412205568059235 ], [ 130.55383211757561, 33.412218431729727 ], [ 130.553662884718335, 33.412199338820379 ], [ 130.553663001152074, 33.412176692664694 ], [ 130.553643357055165, 33.412174545363278 ], [ 130.553581120415004, 33.412166010862599 ], [ 130.553395783204707, 33.412118118825383 ], [ 130.5532658919021, 33.412084726445926 ], [ 130.553128935662386, 33.411995729309133 ], [ 130.553284179921263, 33.411868671234224 ], [ 130.553338420093326, 33.411823601677611 ], [ 130.553398847939633, 33.41176721593046 ] ] ] ] } }
]
}
