{
"type": "FeatureCollection",
"name": "山鹿温泉(¥23800)",
"crs": { "type": "name", "properties": { "name": "urn:ogc:def:crs:OGC:1.3:CRS84" } },
"features": [
{ "type": "Feature", "properties": { "prefec_cd": 43, "area_cd": 43208, "layer_no": 3 }, "geometry": { "type": "MultiPolygon", "coordinates": [ [ [ [ 130.656959570000026, 33.00913787 ], [ 130.65728138, 33.0097107 ], [ 130.658015120000016, 33.01055064 ], [ 130.658990210000013, 33.01126185 ], [ 130.66114959, 33.0125491 ], [ 130.661954120000019, 33.01289344 ], [ 130.662478680000021, 33.01298677 ], [ 130.66352135, 33.01329249 ], [ 130.665207660000021, 33.01412277 ], [ 130.665880250000015, 33.01439953 ], [ 130.667511850000011, 33.01491765 ], [ 130.66805893, 33.01512361 ], [ 130.669027590000013, 33.01536497 ], [ 130.669983380000019, 33.01543899 ], [ 130.670926290000011, 33.01570931 ], [ 130.671576360000017, 33.01594102 ], [ 130.67194, 33.01619525 ], [ 130.672113780000018, 33.01645592 ], [ 130.6723294, 33.01696439 ], [ 130.672377670000031, 33.01718 ], [ 130.67238733, 33.01749538 ], [ 130.671956100000017, 33.01856058 ], [ 130.67181772, 33.01875045 ], [ 130.671698640000017, 33.01897251 ], [ 130.671138690000021, 33.02012138 ], [ 130.67042748, 33.02205548 ], [ 130.67021508, 33.02321401 ], [ 130.66999625, 33.02444012 ], [ 130.66983212, 33.02637422 ], [ 130.66990292, 33.02667995 ], [ 130.67001234, 33.02693418 ], [ 130.671035710000012, 33.02775159 ], [ 130.67125132000001, 33.02792537 ], [ 130.671846680000016, 33.02834694 ], [ 130.67192713, 33.02862692 ], [ 130.672042990000023, 33.02953766 ], [ 130.671949660000024, 33.03109202 ], [ 130.67219746, 33.03197379 ], [ 130.672248950000011, 33.03235353 ], [ 130.672454910000027, 33.03276867 ], [ 130.673404260000012, 33.03331575 ], [ 130.67420236000001, 33.03365044 ], [ 130.674611060000018, 33.03442923 ], [ 130.6753094, 33.03538823 ], [ 130.67531261000002, 33.03567465 ], [ 130.675586160000023, 33.03651458 ], [ 130.675660170000015, 33.03796918 ], [ 130.675750280000017, 33.03868361 ], [ 130.67591762, 33.03943987 ], [ 130.676207260000012, 33.03993868 ], [ 130.67646149, 33.04027015 ], [ 130.676744690000021, 33.04049542 ], [ 130.676889500000016, 33.04064023 ], [ 130.67712764, 33.04079792 ], [ 130.677327170000012, 33.04084941 ], [ 130.677488080000018, 33.04094596 ], [ 130.67784529, 33.04121628 ], [ 130.678080210000019, 33.04135144 ], [ 130.67833123, 33.04144477 ], [ 130.67881073, 33.04147051 ], [ 130.679312760000016, 33.04149626 ], [ 130.67979226, 33.04157671 ], [ 130.680033620000017, 33.04163464 ], [ 130.68016879000001, 33.04174406 ], [ 130.68039406, 33.0421077 ], [ 130.680545310000014, 33.04232332 ], [ 130.680680470000027, 33.04233941 ], [ 130.68123399000001, 33.0423555 ], [ 130.681365930000027, 33.04236194 ], [ 130.68154615, 33.04239734 ], [ 130.681662, 33.04240056 ], [ 130.682003120000019, 33.04298947 ], [ 130.682077140000018, 33.0431536 ], [ 130.682129030000027, 33.04323526 ], [ 130.682732080000022, 33.0432468 ], [ 130.682951230000015, 33.04336708 ], [ 130.683264290000011, 33.04362412 ], [ 130.68334008, 33.04382678 ], [ 130.68356087, 33.0443458 ], [ 130.6838591, 33.04504772 ], [ 130.683969499999989, 33.04523226 ], [ 130.684422610000013, 33.04539209 ], [ 130.684722490000013, 33.04547612 ], [ 130.684875730000016, 33.04547447 ], [ 130.684874080000014, 33.04550907 ], [ 130.68504214, 33.04589298 ], [ 130.685087940000017, 33.04608034 ], [ 130.68511587, 33.04609832 ], [ 130.685314440000013, 33.04622424 ], [ 130.68564192, 33.04634632 ], [ 130.685845090000015, 33.04636415 ], [ 130.686145840000023, 33.04636014 ], [ 130.68639223, 33.04635657 ], [ 130.68668541, 33.04627013 ], [ 130.68699507, 33.04616766 ], [ 130.687088640000013, 33.04613691 ], [ 130.687336360000018, 33.0460282 ], [ 130.687435280000017, 33.04598453 ], [ 130.687558700000011, 33.0458776 ], [ 130.687707510000024, 33.04574884 ], [ 130.68789598, 33.0454922 ], [ 130.68803098, 33.04530818 ], [ 130.68809693, 33.04521684 ], [ 130.688193610000013, 33.04505956 ], [ 130.68829342, 33.04489738 ], [ 130.688379850000018, 33.04476149 ], [ 130.688485900000018, 33.04459351 ], [ 130.688593270000013, 33.04442242 ], [ 130.688669460000028, 33.04430078 ], [ 130.68877595, 33.04413147 ], [ 130.688774170000016, 33.04399736 ], [ 130.688900260000025, 33.04379998 ], [ 130.688986700000015, 33.04364359 ], [ 130.689055310000015, 33.04351616 ], [ 130.68910076, 33.04336601 ], [ 130.689136850000011, 33.04324794 ], [ 130.689108340000018, 33.04311605 ], [ 130.689066450000013, 33.04292001 ], [ 130.689029030000029, 33.04274847 ], [ 130.68899873, 33.04260589 ], [ 130.688996060000022, 33.04258985 ], [ 130.68896977, 33.04244415 ], [ 130.68894125, 33.04228108 ], [ 130.688972890000031, 33.04214296 ], [ 130.689008090000016, 33.04199058 ], [ 130.689038830000015, 33.04185736 ], [ 130.6890718, 33.04171523 ], [ 130.689102100000014, 33.04158334 ], [ 130.689300370000012, 33.04143319 ], [ 130.68935918, 33.04116898 ], [ 130.689404630000013, 33.04096937 ], [ 130.68944518, 33.04079025 ], [ 130.68946745, 33.0406958 ], [ 130.68948438000001, 33.04053495 ], [ 130.68950354, 33.04036876 ], [ 130.68952493, 33.0401745 ], [ 130.68954498, 33.03998826 ], [ 130.689565480000027, 33.03980201 ], [ 130.68957483, 33.03972538 ], [ 130.68959978, 33.03959037 ], [ 130.68962830000001, 33.03943488 ], [ 130.689651020000014, 33.03931413 ], [ 130.689694240000023, 33.03908155 ], [ 130.68972677, 33.03890422 ], [ 130.689750380000021, 33.03878303 ], [ 130.689775780000019, 33.03864803 ], [ 130.68980518, 33.03849164 ], [ 130.689828800000015, 33.03836777 ], [ 130.68986221000003, 33.0381891 ], [ 130.689893400000017, 33.03802113 ], [ 130.68992058, 33.03787454 ], [ 130.689937510000021, 33.03778543 ], [ 130.690048900000022, 33.03764597 ], [ 130.69019727, 33.03746062 ], [ 130.690350990000013, 33.03727794 ], [ 130.690474850000015, 33.03712913 ], [ 130.69062634, 33.03694779 ], [ 130.690743520000012, 33.03680744 ], [ 130.69089724, 33.03668803 ], [ 130.691088830000012, 33.03653832 ], [ 130.69123319000002, 33.03642649 ], [ 130.69138156, 33.03631376 ], [ 130.691408740000014, 33.03629327 ], [ 130.69168231, 33.03616317 ], [ 130.691961670000012, 33.03610391 ], [ 130.692106030000019, 33.03607316 ], [ 130.69227668000002, 33.03601346 ], [ 130.69250926, 33.03593281 ], [ 130.69280065, 33.03583212 ], [ 130.693105850000023, 33.0357791 ], [ 130.693451160000023, 33.0357185 ], [ 130.693804930000027, 33.03565657 ], [ 130.69414712, 33.03559642 ], [ 130.694372570000013, 33.0355581 ], [ 130.69471787, 33.03546142 ], [ 130.6950204, 33.03537543 ], [ 130.69526769, 33.03530592 ], [ 130.695314470000028, 33.035293 ], [ 130.69556621000001, 33.03516245 ], [ 130.69581349, 33.03505373 ], [ 130.696111120000012, 33.03496596 ], [ 130.69636108, 33.03494056 ], [ 130.696559800000017, 33.03498022 ], [ 130.69678614, 33.03504081 ], [ 130.697138570000021, 33.03502878 ], [ 130.697510610000023, 33.0350172 ], [ 130.697719130000024, 33.03504126 ], [ 130.69799938, 33.03507245 ], [ 130.698114340000018, 33.03508626 ], [ 130.698365630000012, 33.03502165 ], [ 130.698464100000024, 33.03499759 ], [ 130.69872831, 33.03498467 ], [ 130.699062030000022, 33.03496819 ], [ 130.69908654, 33.0349673 ], [ 130.699286590000014, 33.03492987 ], [ 130.69952942, 33.03488398 ], [ 130.699860910000012, 33.03482205 ], [ 130.70019998, 33.03475878 ], [ 130.70060365, 33.03468348 ], [ 130.70078098, 33.03465051 ], [ 130.701034060000012, 33.03461085 ], [ 130.70142882, 33.03454981 ], [ 130.701701500000013, 33.03450927 ], [ 130.70200492, 33.0344656 ], [ 130.702072650000019, 33.03434397 ], [ 130.702122100000025, 33.03428025 ], [ 130.70206819, 33.03411317 ], [ 130.702093140000017, 33.03389975 ], [ 130.70211988, 33.03367162 ], [ 130.70213324, 33.0335638 ], [ 130.70235557, 33.03341409 ], [ 130.702404140000027, 33.03332988 ], [ 130.7025534, 33.03330538 ], [ 130.702929450000028, 33.03330048 ], [ 130.70305331, 33.03334058 ], [ 130.70325649, 33.03344394 ], [ 130.7034102, 33.03363063 ], [ 130.70363699, 33.03379549 ], [ 130.703841950000026, 33.03400356 ], [ 130.7041418, 33.034 ], [ 130.704373940000011, 33.03390955 ], [ 130.70459003000002, 33.03382534 ], [ 130.704738850000012, 33.03373801 ], [ 130.70483553, 33.03361147 ], [ 130.70485692, 33.03344083 ], [ 130.704853800000024, 33.03327463 ], [ 130.70479989, 33.03310755 ], [ 130.704699190000014, 33.03302334 ], [ 130.704671570000016, 33.03294047 ], [ 130.70437349, 33.03278898 ], [ 130.704268340000027, 33.03273551 ], [ 130.704038880000013, 33.03250694 ], [ 130.704032200000029, 33.0321701 ], [ 130.70408042, 33.03206342 ], [ 130.704227270000018, 33.03191514 ], [ 130.704372410000019, 33.03179823 ], [ 130.704499310000017, 33.03169614 ], [ 130.704547500000018, 33.03165764 ], [ 130.704645590000013, 33.03152362 ], [ 130.704715740000012, 33.03142724 ], [ 130.7047856, 33.03133656 ], [ 130.70481612, 33.03129721 ], [ 130.704936450000019, 33.03136365 ], [ 130.705014300000016, 33.03140813 ], [ 130.705068760000017, 33.03143979 ], [ 130.70527008, 33.03150081 ], [ 130.705345930000021, 33.03158379 ], [ 130.705473110000014, 33.03158208 ], [ 130.705670160000011, 33.03155841 ], [ 130.70584496, 33.03149282 ], [ 130.705916810000019, 33.03134511 ], [ 130.70591282, 33.03113381 ], [ 130.705959870000015, 33.03096472 ], [ 130.70603173, 33.03079619 ], [ 130.70615292, 33.0306904 ], [ 130.706266700000015, 33.03058175 ], [ 130.706399870000013, 33.03045429 ], [ 130.70639502, 33.0301794 ], [ 130.706358240000014, 33.03000916 ], [ 130.706314890000016, 33.02980642 ], [ 130.70627098, 33.02959939 ], [ 130.706201970000023, 33.02927831 ], [ 130.706195130000026, 33.02887767 ], [ 130.70636337, 33.02851809 ], [ 130.70649967, 33.02777812 ], [ 130.706388340000018, 33.02725532 ], [ 130.70684115, 33.02606947 ], [ 130.70693404, 33.02571095 ], [ 130.70687799000001, 33.02539706 ], [ 130.706443910000019, 33.02493923 ], [ 130.70604079, 33.02437543 ], [ 130.705879, 33.02414699 ], [ 130.70572102, 33.02375002 ], [ 130.70566598, 33.02347697 ], [ 130.705685030000012, 33.02320306 ], [ 130.70582133, 33.02249633 ], [ 130.70584399, 33.02238007 ], [ 130.70586315, 33.02206414 ], [ 130.705982400000011, 33.0220735 ], [ 130.70610922, 33.02208379 ], [ 130.70631351, 33.02210007 ], [ 130.706449070000019, 33.02214017 ], [ 130.70651591, 33.02215988 ], [ 130.706608280000012, 33.0221945 ], [ 130.7067178, 33.02223546 ], [ 130.70684239000002, 33.02228173 ], [ 130.70687564, 33.02229887 ], [ 130.70699954, 33.02236348 ], [ 130.70707307, 33.02240187 ], [ 130.70714333, 33.02243837 ], [ 130.70721308, 33.0224747 ], [ 130.707303920000015, 33.02252406 ], [ 130.707378300000016, 33.02256468 ], [ 130.707441360000018, 33.02259913 ], [ 130.70749998, 33.022631 ], [ 130.7076064, 33.02265174 ], [ 130.70771951, 33.02267419 ], [ 130.7078184, 33.02269304 ], [ 130.707921060000018, 33.02271309 ], [ 130.708000920000018, 33.02272886 ], [ 130.708083180000017, 33.02273212 ], [ 130.70824737, 33.02273863 ], [ 130.70833991, 33.02274257 ], [ 130.708402980000017, 33.02274497 ], [ 130.708469470000011, 33.02274137 ], [ 130.70855054, 33.02273674 ], [ 130.70865491, 33.02273092 ], [ 130.70876648, 33.02272475 ], [ 130.70890204, 33.02271704 ], [ 130.708984820000012, 33.02269716 ], [ 130.709039140000016, 33.02268413 ], [ 130.70913597, 33.02266082 ], [ 130.709228690000032, 33.02263854 ], [ 130.70927633, 33.02262706 ], [ 130.7093927, 33.02258816 ], [ 130.70947393, 33.02256125 ], [ 130.709581050000025, 33.02247779 ], [ 130.70966537000001, 33.02241232 ], [ 130.709721410000014, 33.02236862 ], [ 130.709758430000022, 33.02231823 ], [ 130.709804010000028, 33.02225619 ], [ 130.709837430000022, 33.02221061 ], [ 130.70988473, 33.02214617 ], [ 130.70991473, 33.02210521 ], [ 130.70994009, 33.02207076 ], [ 130.7099646, 33.02200101 ], [ 130.709983790000024, 33.02194582 ], [ 130.709999900000014, 33.02190092 ], [ 130.71002167, 33.02183854 ], [ 130.71004069, 33.02178524 ], [ 130.71005937000001, 33.02173246 ], [ 130.710115240000022, 33.0216699 ], [ 130.710171800000012, 33.02160649 ], [ 130.710208810000012, 33.02156485 ], [ 130.71023109, 33.02154017 ], [ 130.71025046, 33.02152097 ], [ 130.710290220000019, 33.0214819 ], [ 130.71034832, 33.02142517 ], [ 130.710423900000023, 33.02135079 ], [ 130.71042767000003, 33.02134753 ], [ 130.71047685000002, 33.02129252 ], [ 130.71051713, 33.02124831 ], [ 130.71055929, 33.02120169 ], [ 130.710610190000011, 33.02114531 ], [ 130.710651150000018, 33.02109989 ], [ 130.710683190000026, 33.02106441 ], [ 130.71073375, 33.0210082 ], [ 130.71078996, 33.02094616 ], [ 130.710836750000027, 33.02089406 ], [ 130.71088907, 33.02083634 ], [ 130.710938570000025, 33.0207815 ], [ 130.71098326, 33.02073201 ], [ 130.71103002000001, 33.02068018 ], [ 130.7110754, 33.02063 ], [ 130.71112352, 33.0205768 ], [ 130.711165890000018, 33.02052964 ], [ 130.71119427, 33.02049879 ], [ 130.711228, 33.0204615 ], [ 130.711265700000013, 33.02041954 ], [ 130.71130011, 33.02038143 ], [ 130.711330410000016, 33.0203477 ], [ 130.711368120000031, 33.0203063 ], [ 130.711393070000014, 33.0202786 ], [ 130.711436670000012, 33.02023061 ], [ 130.71145998, 33.0202047 ], [ 130.711483010000023, 33.02017934 ], [ 130.71151304, 33.02014561 ], [ 130.71153758, 33.0201186 ], [ 130.711560890000015, 33.02009269 ], [ 130.71159653, 33.02005361 ], [ 130.71162436000003, 33.02002276 ], [ 130.71165453, 33.01998904 ], [ 130.711740490000011, 33.01989416 ], [ 130.711865780000011, 33.01975546 ], [ 130.71196742, 33.01964292 ], [ 130.712094400000012, 33.01950196 ], [ 130.71223063, 33.01935175 ], [ 130.71236923, 33.01919799 ], [ 130.71255592, 33.01899187 ], [ 130.71282174000001, 33.01869739 ], [ 130.712903230000023, 33.0186076 ], [ 130.71297952, 33.01852941 ], [ 130.713109590000016, 33.01839532 ], [ 130.71326216, 33.01823777 ], [ 130.71348581, 33.01800749 ], [ 130.713691690000019, 33.01779592 ], [ 130.71381797, 33.01766562 ], [ 130.713845210000017, 33.01763766 ], [ 130.71391155, 33.01756872 ], [ 130.71402669, 33.01745026 ], [ 130.714161500000017, 33.01731166 ], [ 130.71426645, 33.01720363 ], [ 130.71437756, 33.01708944 ], [ 130.71454578, 33.01691625 ], [ 130.714750230000021, 33.01670397 ], [ 130.714945450000016, 33.01650165 ], [ 130.71504972, 33.01639361 ], [ 130.71505503, 33.01638755 ], [ 130.715142970000016, 33.01632292 ], [ 130.71526219, 33.0162346 ], [ 130.71541703, 33.01619991 ], [ 130.715518620000012, 33.01617717 ], [ 130.71566836, 33.01616182 ], [ 130.715772980000025, 33.01615158 ], [ 130.71584292, 33.01614457 ], [ 130.7159646, 33.01614931 ], [ 130.71609973, 33.01615386 ], [ 130.71619336, 33.01615727 ], [ 130.716273160000014, 33.01615973 ], [ 130.716382329999988, 33.01616333 ], [ 130.716424210000014, 33.01616523 ], [ 130.716529400000013, 33.01616333 ], [ 130.71666302, 33.01616144 ], [ 130.716848960000021, 33.01615878 ], [ 130.717063130000014, 33.01615537 ], [ 130.717099900000022, 33.01615518 ], [ 130.717274460000027, 33.01612561 ], [ 130.717427980000025, 33.01610041 ], [ 130.717576010000016, 33.01607577 ], [ 130.71760652, 33.01607084 ], [ 130.71763002, 33.01606591 ], [ 130.717755110000013, 33.01602175 ], [ 130.71791091, 33.01596717 ], [ 130.718076560000014, 33.01590879 ], [ 130.71811011, 33.01589704 ], [ 130.718200710000019, 33.01585743 ], [ 130.718362760000019, 33.01578635 ], [ 130.7184924, 33.01572987 ], [ 130.71849884, 33.01572646 ], [ 130.718635870000014, 33.01565463 ], [ 130.71873272000002, 33.01560383 ], [ 130.71886028000003, 33.0155373 ], [ 130.718962060000024, 33.01548348 ], [ 130.71905304, 33.01543628 ], [ 130.71915766, 33.01534493 ], [ 130.719254700000022, 33.01526078 ], [ 130.719331650000015, 33.0151933 ], [ 130.71941694, 33.01511919 ], [ 130.719476070000013, 33.01505968 ], [ 130.719536910000016, 33.01499865 ], [ 130.71959662, 33.01493876 ], [ 130.719645900000017, 33.0148891 ], [ 130.719661060000021, 33.01487413 ], [ 130.71973232000002, 33.01480211 ], [ 130.719796950000017, 33.01473729 ], [ 130.71982936, 33.01470488 ], [ 130.719885840000018, 33.01461788 ], [ 130.719928300000021, 33.01455249 ], [ 130.71997909000001, 33.0144744 ], [ 130.72004752, 33.01436883 ], [ 130.72009395, 33.01429776 ], [ 130.72014626, 33.01421721 ], [ 130.72020293, 33.0141304 ], [ 130.72022075000001, 33.01410349 ], [ 130.720267940000014, 33.01400152 ], [ 130.720339960000018, 33.01384534 ], [ 130.72041085, 33.01369201 ], [ 130.72047472, 33.01355479 ], [ 130.720529880000015, 33.01340203 ], [ 130.72058257, 33.01325646 ], [ 130.720628620000014, 33.01312986 ], [ 130.72068188, 33.01299282 ], [ 130.720743100000021, 33.01283494 ], [ 130.720765280000023, 33.0127777 ], [ 130.72081664000001, 33.01268123 ], [ 130.72084905, 33.01262096 ], [ 130.720942870000016, 33.01248374 ], [ 130.72117448000003, 33.01238272 ], [ 130.721303230000018, 33.01232633 ], [ 130.72136864, 33.01229702 ], [ 130.72139077, 33.01228712 ], [ 130.72145637, 33.01224753 ], [ 130.721533800000032, 33.01220085 ], [ 130.721599210000022, 33.01216136 ], [ 130.72165307, 33.01213011 ], [ 130.72170062, 33.01210226 ], [ 130.721744770000015, 33.01207683 ], [ 130.72178922, 33.01205102 ], [ 130.721837640000018, 33.01199697 ], [ 130.721876840000022, 33.01195301 ], [ 130.72190004, 33.01192681 ], [ 130.721923620000013, 33.01186111 ], [ 130.72196234, 33.01175204 ], [ 130.722006980000032, 33.01162695 ], [ 130.722082960000023, 33.01151225 ], [ 130.72217942, 33.0113663 ], [ 130.72224841000002, 33.01123423 ], [ 130.72227199, 33.0111893 ], [ 130.72232372000002, 33.01113447 ], [ 130.72235458000003, 33.01110206 ], [ 130.722414940000021, 33.0110384 ], [ 130.72242415, 33.01102986 ], [ 130.72247035, 33.0109893 ], [ 130.72251178, 33.01095271 ], [ 130.722540800000019, 33.01092709 ], [ 130.72258699, 33.01090691 ], [ 130.722701300000011, 33.01085703 ], [ 130.722778940000012, 33.01084733 ], [ 130.72286123, 33.01083714 ], [ 130.722942640000014, 33.01082714 ], [ 130.72302231, 33.01081957 ], [ 130.723102180000012, 33.010812 ], [ 130.723180010000021, 33.01080472 ], [ 130.7232458, 33.01079822 ], [ 130.723280250000016, 33.01079492 ], [ 130.7233245, 33.01079444 ], [ 130.72339757, 33.01079318 ], [ 130.72347443000001, 33.01079191 ], [ 130.72354177, 33.01079114 ], [ 130.723602810000017, 33.01079027 ], [ 130.72368734, 33.0107892 ], [ 130.72375682, 33.01078803 ], [ 130.72384542, 33.01078677 ], [ 130.72392227, 33.0107857 ], [ 130.724021930000021, 33.01078502 ], [ 130.724193400000019, 33.01066993 ], [ 130.72439603, 33.01053223 ], [ 130.724451820000013, 33.0104939 ], [ 130.724630280000014, 33.01040948 ], [ 130.72483581, 33.01031214 ], [ 130.72512927, 33.01022083 ], [ 130.72540418, 33.01013475 ], [ 130.7254398, 33.0101234 ], [ 130.72551568, 33.01009768 ], [ 130.72597281, 33.00994413 ], [ 130.72661403, 33.00982332 ], [ 130.726769690000026, 33.0097815 ], [ 130.726853330000012, 33.00976756 ], [ 130.726927650000022, 33.0097308 ], [ 130.726940730000024, 33.00967965 ], [ 130.726938350000012, 33.00959758 ], [ 130.726890770000011, 33.00950479 ], [ 130.72626120000001, 33.0086973 ], [ 130.72612609, 33.00837293 ], [ 130.726088870000012, 33.00801078 ], [ 130.726063430000011, 33.00781817 ], [ 130.726027090000031, 33.00747838 ], [ 130.725893540000015, 33.00728759 ], [ 130.725599180000017, 33.00702321 ], [ 130.72538304, 33.00673884 ], [ 130.72460970000003, 33.00547562 ], [ 130.72420922, 33.00472263 ], [ 130.72403623, 33.00411282 ], [ 130.72387706, 33.00337946 ], [ 130.723736050000014, 33.00189674 ], [ 130.72371788, 33.00098748 ], [ 130.723766580000017, 33.00011675 ], [ 130.72373097, 33.00002371 ], [ 130.723713520000018, 32.99991396 ], [ 130.72358415, 32.99986308 ], [ 130.72342279, 32.99983765 ], [ 130.72319457, 32.99984128 ], [ 130.72306956, 32.9999096 ], [ 130.722353640000023, 33.000587 ], [ 130.72206872000001, 33.00074109 ], [ 130.72185722, 33.00067495 ], [ 130.721742380000023, 33.00060735 ], [ 130.721455280000015, 33.00002299 ], [ 130.72132227, 32.99968865 ], [ 130.72132155, 32.9995411 ], [ 130.72134989, 32.99943208 ], [ 130.721513430000016, 32.999262 ], [ 130.721584660000019, 32.99918714 ], [ 130.72173293, 32.99904323 ], [ 130.721855760000011, 32.99892403 ], [ 130.7219517, 32.99884044 ], [ 130.72206727, 32.99883826 ], [ 130.72232238, 32.99887606 ], [ 130.72250409, 32.99895528 ], [ 130.722728680000017, 32.99908611 ], [ 130.722891490000023, 32.99912536 ], [ 130.72305429, 32.99913699 ], [ 130.72316622, 32.99910864 ], [ 130.723229460000027, 32.99902506 ], [ 130.723290510000027, 32.99888987 ], [ 130.72335113, 32.99797192 ], [ 130.72338338, 32.99736363 ], [ 130.72341257, 32.99683982 ], [ 130.72349091000001, 32.99669696 ], [ 130.723695210000017, 32.99657561 ], [ 130.724527780000017, 32.99642353 ], [ 130.72491181, 32.99635287 ], [ 130.72535267, 32.99628989 ], [ 130.725541610000022, 32.9962561 ], [ 130.725598440000027, 32.99624535 ], [ 130.725710580000026, 32.9962008 ], [ 130.72577035, 32.99612174 ], [ 130.72576885, 32.99598537 ], [ 130.725582950000017, 32.9956076 ], [ 130.725369710000024, 32.99497397 ], [ 130.72534307, 32.9948903 ], [ 130.725338800000031, 32.99468726 ], [ 130.725411160000021, 32.99430703 ], [ 130.72556226, 32.99371853 ], [ 130.725680010000019, 32.99313536 ], [ 130.725721240000013, 32.99264959 ], [ 130.725698990000012, 32.99233806 ], [ 130.725632170000011, 32.99220327 ], [ 130.72558297, 32.99216299 ], [ 130.725454290000016, 32.99216476 ], [ 130.724937900000015, 32.99234944 ], [ 130.724864680000024, 32.99237584 ], [ 130.724802090000026, 32.99239677 ], [ 130.72469639000002, 32.99243242 ], [ 130.7245254, 32.99248983 ], [ 130.724251060000029, 32.99253402 ], [ 130.72387859, 32.99250776 ], [ 130.723766070000011, 32.99250029 ], [ 130.723568490000019, 32.99246866 ], [ 130.723349130000031, 32.99243404 ], [ 130.723216620000017, 32.99241315 ], [ 130.723102610000012, 32.99238897 ], [ 130.72289996, 32.99234599 ], [ 130.722796390000013, 32.99232391 ], [ 130.7226415, 32.99230242 ], [ 130.722616720000019, 32.99229884 ], [ 130.722393180000012, 32.99228869 ], [ 130.72228992, 32.99229018 ], [ 130.722169940000015, 32.99229108 ], [ 130.722118310000013, 32.99228899 ], [ 130.722028170000016, 32.9922863 ], [ 130.72194819, 32.99228451 ], [ 130.72188730000002, 32.99228272 ], [ 130.72174285, 32.99227854 ], [ 130.721655700000014, 32.99227616 ], [ 130.721559900000017, 32.99227257 ], [ 130.72145813, 32.99226959 ], [ 130.7213859, 32.9922681 ], [ 130.72132144, 32.99226601 ], [ 130.72124414000001, 32.99226362 ], [ 130.72054692, 32.99228683 ], [ 130.720355800000021, 32.99245083 ], [ 130.71981363, 32.9931185 ], [ 130.71977666, 32.99316671 ], [ 130.719746930000014, 32.99320287 ], [ 130.718911390000017, 32.99407985 ], [ 130.71889583, 32.99409623 ], [ 130.71796738, 32.99481978 ], [ 130.71723279, 32.99518369 ], [ 130.716538300000025, 32.99531557 ], [ 130.716134149999988, 32.9953613 ], [ 130.7158704, 32.99536343 ], [ 130.715387550000031, 32.99535173 ], [ 130.7152227, 32.99534747 ], [ 130.714816430000013, 32.99525814 ], [ 130.71437825000001, 32.99507733 ], [ 130.71404537, 32.99494014 ], [ 130.713856060000012, 32.99485293 ], [ 130.71369972, 32.99477848 ], [ 130.713557200000025, 32.99471999 ], [ 130.713335990000019, 32.99462427 ], [ 130.71329345, 32.99460512 ], [ 130.71316689, 32.99453599 ], [ 130.712940350000025, 32.99450941 ], [ 130.71192127, 32.99448179 ], [ 130.71036509000001, 32.99458219 ], [ 130.70998358, 32.99441152 ], [ 130.70950167, 32.99349789 ], [ 130.708889240000019, 32.99274491 ], [ 130.70786518, 32.99174092 ], [ 130.707154480000014, 32.9906812 ], [ 130.7064451, 32.98918021 ], [ 130.7063937, 32.98887692 ], [ 130.706400980000012, 32.98831067 ], [ 130.706371510000025, 32.98779693 ], [ 130.7063694, 32.98765376 ], [ 130.70627044, 32.987479 ], [ 130.705352760000011, 32.98655098 ], [ 130.70509524000002, 32.98627415 ], [ 130.70483773, 32.98599303 ], [ 130.70463815, 32.98581706 ], [ 130.70440210000001, 32.98572907 ], [ 130.704204670000024, 32.9857162 ], [ 130.70376689, 32.98576555 ], [ 130.703571610000012, 32.98584925 ], [ 130.70280979, 32.98669046 ], [ 130.70263383, 32.98678489 ], [ 130.70249648, 32.98678489 ], [ 130.70239992, 32.98675484 ], [ 130.70226901, 32.98667973 ], [ 130.702075870000016, 32.98665184 ], [ 130.70200506, 32.98666686 ], [ 130.70185484000001, 32.98678489 ], [ 130.70156728, 32.98715614 ], [ 130.70140633, 32.98711536 ], [ 130.701288310000024, 32.98707244 ], [ 130.701135940000029, 32.98704669 ], [ 130.700975, 32.98704669 ], [ 130.70082263, 32.98714112 ], [ 130.7004428, 32.98764971 ], [ 130.700052230000011, 32.98766044 ], [ 130.69992991, 32.98766902 ], [ 130.69979042, 32.98769907 ], [ 130.699311870000031, 32.98815186 ], [ 130.69921531, 32.98817118 ], [ 130.69893633, 32.98803169 ], [ 130.69875822000003, 32.98791795 ], [ 130.698532890000024, 32.98793298 ], [ 130.69837623, 32.98799092 ], [ 130.697659480000027, 32.9886626 ], [ 130.69695561, 32.98955318 ], [ 130.69599636, 32.99050599 ], [ 130.695912670000013, 32.99058539 ], [ 130.69583541, 32.99066908 ], [ 130.69575387, 32.9907635 ], [ 130.69540837, 32.99113904 ], [ 130.69519377, 32.9913751 ], [ 130.695155140000026, 32.99141373 ], [ 130.694773160000011, 32.99173562 ], [ 130.694505240000012, 32.99183411 ], [ 130.69433164000003, 32.99190993 ], [ 130.694186600000023, 32.99192751 ], [ 130.69399432, 32.99188795 ], [ 130.693798750000013, 32.99180994 ], [ 130.693619660000024, 32.99178577 ], [ 130.69352407, 32.99185169 ], [ 130.69339881, 32.99197585 ], [ 130.693157090000028, 32.99237249 ], [ 130.6929747, 32.99267464 ], [ 130.69284074, 32.9926649 ], [ 130.692717430000016, 32.9926523 ], [ 130.692491510000025, 32.99270991 ], [ 130.692412300000029, 32.99276436 ], [ 130.692192230000018, 32.99298038 ], [ 130.692032470000015, 32.99313699 ], [ 130.691760640000012, 32.99316805 ], [ 130.691550020000022, 32.9932387 ], [ 130.6912404, 32.99359019 ], [ 130.691235, 32.99359694 ], [ 130.69105259, 32.99387378 ], [ 130.69087891, 32.99387702 ], [ 130.69070523000002, 32.99381157 ], [ 130.690555530000012, 32.99377917 ], [ 130.69023021000001, 32.993785 ], [ 130.68968454, 32.9944013 ], [ 130.68904794, 32.99511816 ], [ 130.689035890000014, 32.99513307 ], [ 130.688660780000021, 32.9957459 ], [ 130.68853002, 32.99582333 ], [ 130.68845113, 32.99581676 ], [ 130.68833791, 32.99579995 ], [ 130.688197660000014, 32.99576051 ], [ 130.68811657, 32.99577877 ], [ 130.68788867, 32.99604758 ], [ 130.687655650000011, 32.99632516 ], [ 130.68739998, 32.99662977 ], [ 130.68711363, 32.99696871 ], [ 130.68701794, 32.99708267 ], [ 130.686974110000023, 32.99714037 ], [ 130.686919430000017, 32.99714157 ], [ 130.686832940000016, 32.99713503 ], [ 130.68665997, 32.99706911 ], [ 130.68615115, 32.99673922 ], [ 130.68596202, 32.99664571 ], [ 130.68584340000001, 32.99666258 ], [ 130.68567166, 32.99672512 ], [ 130.685229350000014, 32.99732719 ], [ 130.68510042, 32.99743082 ], [ 130.68498994, 32.99746633 ], [ 130.68474666, 32.99747017 ], [ 130.68455316, 32.99740442 ], [ 130.68437019000001, 32.99733066 ], [ 130.68420771000001, 32.99728076 ], [ 130.683965910000012, 32.99731798 ], [ 130.683850830000011, 32.99740049 ], [ 130.683726440000015, 32.9974987 ], [ 130.683607850000016, 32.99759178 ], [ 130.68353091, 32.99765225 ], [ 130.683433980000018, 32.99772815 ], [ 130.683363650000018, 32.99778343 ], [ 130.683355480000017, 32.99779005 ], [ 130.68328749, 32.99784312 ], [ 130.683216900000019, 32.99789865 ], [ 130.682941530000022, 32.99811353 ], [ 130.682038010000014, 32.99874194 ], [ 130.680706370000024, 32.9996693 ], [ 130.67979277, 33.00017308 ], [ 130.6785553, 33.00084279 ], [ 130.67779163000003, 33.0010467 ], [ 130.677311840000016, 33.00107669 ], [ 130.67683605000002, 33.00124462 ], [ 130.67605439, 33.00147052 ], [ 130.67437712, 33.00169242 ], [ 130.67388933, 33.00169842 ], [ 130.673401540000015, 33.00163045 ], [ 130.67274982, 33.0012766 ], [ 130.671950170000031, 33.00074883 ], [ 130.671836220000017, 33.00066087 ], [ 130.670282620000023, 32.99948623 ], [ 130.67007887, 32.99934361 ], [ 130.67000416, 32.99914325 ], [ 130.669973590000012, 32.99886478 ], [ 130.669778900000011, 32.99846859 ], [ 130.669638530000014, 32.99845048 ], [ 130.66942685, 32.99861122 ], [ 130.66926045, 32.99865537 ], [ 130.66915178, 32.99905495 ], [ 130.669063490000013, 32.99933342 ], [ 130.6689469, 32.99949529 ], [ 130.66885747, 32.99959377 ], [ 130.66866730000001, 32.99964018 ], [ 130.668546180000021, 32.9995417 ], [ 130.668351480000013, 32.99948284 ], [ 130.668170370000013, 32.99944888 ], [ 130.66796661, 32.9994319 ], [ 130.667847750000021, 32.99942964 ], [ 130.66769267, 32.99943303 ], [ 130.66748213, 32.99951567 ], [ 130.667316860000028, 32.99943982 ], [ 130.667153860000013, 32.999347 ], [ 130.666729370000013, 32.99910136 ], [ 130.666572020000018, 32.99901194 ], [ 130.6663943, 32.9989859 ], [ 130.666144140000029, 32.99895081 ], [ 130.666058110000023, 32.99893836 ], [ 130.66586114, 32.99889761 ], [ 130.665527210000022, 32.99882064 ], [ 130.665088010000034, 32.99872329 ], [ 130.664532210000033, 32.99871649 ], [ 130.663992260000015, 32.99868593 ], [ 130.663222660000031, 32.99853416 ], [ 130.66281385000002, 32.99823879 ], [ 130.66267301000002, 32.99810383 ], [ 130.66234635, 32.9975131 ], [ 130.66218791, 32.99719622 ], [ 130.66197467, 32.99699717 ], [ 130.661878680000029, 32.99690487 ], [ 130.661805580000021, 32.99684432 ], [ 130.6617539, 32.99680445 ], [ 130.661632060000017, 32.9967247 ], [ 130.6613692, 32.99658958 ], [ 130.661069420000018, 32.9962898 ], [ 130.66097127, 32.99607149 ], [ 130.660895540000013, 32.99575515 ], [ 130.660861540000013, 32.99523516 ], [ 130.660880050000031, 32.99494117 ], [ 130.66085347, 32.99476084 ], [ 130.66075497, 32.99458155 ], [ 130.66063406, 32.99448357 ], [ 130.660422980000021, 32.99446741 ], [ 130.66007066, 32.99457061 ], [ 130.65948225, 32.99483797 ], [ 130.65941397, 32.9949568 ], [ 130.65941890000002, 32.99523597 ], [ 130.65933623, 32.99585542 ], [ 130.659451640000015, 32.99692374 ], [ 130.65945351000002, 32.99704911 ], [ 130.65938735, 32.99732897 ], [ 130.65929681, 32.99742726 ], [ 130.65872647, 32.99761738 ], [ 130.65858162, 32.99775059 ], [ 130.65839409, 32.99793294 ], [ 130.658294510000019, 32.99804029 ], [ 130.65819751, 32.99811918 ], [ 130.65790264, 32.99824204 ], [ 130.65770347, 32.99834551 ], [ 130.65758707, 32.99850975 ], [ 130.65751336, 32.99956121 ], [ 130.657377560000015, 32.99990393 ], [ 130.657457740000012, 33.00035917 ], [ 130.65762458, 33.00061395 ], [ 130.65782245, 33.00085062 ], [ 130.65802292, 33.00097737 ], [ 130.65820915, 33.00117136 ], [ 130.65835529, 33.00144942 ], [ 130.658377280000025, 33.00156323 ], [ 130.65838245, 33.00175335 ], [ 130.65836693, 33.00208055 ], [ 130.65821691, 33.00245302 ], [ 130.658039730000013, 33.00289145 ], [ 130.657854790000016, 33.00335833 ], [ 130.65767373, 33.00381486 ], [ 130.657483610000014, 33.00429338 ], [ 130.65734135, 33.00483269 ], [ 130.657172, 33.00545352 ], [ 130.65698853, 33.00652796 ], [ 130.65683406, 33.00749662 ], [ 130.656805100000014, 33.00850068 ], [ 130.656959570000026, 33.00913787 ] ] ] ] } }
]
}
