{
"type": "FeatureCollection",
"name": "新宮",
"crs": { "type": "name", "properties": { "name": "urn:ogc:def:crs:OGC:1.3:CRS84" } },
"features": [
{ "type": "Feature", "properties": { "id": "新宮.1", "Name": null, "description": null, "timestamp": null, "begin": null, "end": null, "altitudeMode": null, "tessellate": -1, "extrude": 0, "visibility": -1, "drawOrder": null, "icon": null, "KEY_CODE": "403450179105", "PREF": "40", "CITY": "345", "K_AREA": "013008010", "S_AREA": "0179105", "PREF_NAME": "福岡県", "CITY_NAME": "新宮町", "S_NAME": "下府八丁目", "KIGO_E": null, "HCODE": 8101, "AREA": 7726.25, "PERIMETER": 662.887, "KIHON1": "0130", "DUMMY1": "-", "KIHON2": "08", "KIHON3": "010", "C1": 8, "C2": 179, "DUMMY2": "-", "C3": 1, "DUMMY3": "-", "C4": 5, "KIGO_A": null, "KIGO_D": null, "N_KEN": null, "N_CITY": null, "N_C1": 0, "KIGO_I": null, "KEYCODE1": "3450179-1-05", "JINKO": 42, "SETAI": 12, "KEN_OLD": "40", "CITY_OLD": "345", "X_CODE": 130.438845, "Y_CODE": 33.715127, "KCODE1": "0130-08010", "CCODE1": "179-1- 5" }, "geometry": { "type": "MultiPolygon", "coordinates": [ [ [ [ 130.438303855136013, 33.702437607028301 ], [ 130.437101627678004, 33.703002431680403 ], [ 130.437233755645991, 33.703212602319802 ], [ 130.435678730001001, 33.704035891412701 ], [ 130.435175090424991, 33.703920005295998 ], [ 130.435150606706998, 33.703706444583702 ], [ 130.43527527402901, 33.703678631958397 ], [ 130.434816398954013, 33.7033378321116 ], [ 130.434217018469013, 33.703387995856701 ], [ 130.434133980795991, 33.7037144788302 ], [ 130.433642529471996, 33.703704690988303 ], [ 130.433833721998013, 33.704265387292303 ], [ 130.433439730606011, 33.704714425551899 ], [ 130.43320393826599, 33.705716470258402 ], [ 130.432677301735993, 33.7058267631934 ], [ 130.432131563001008, 33.706266783676 ], [ 130.431272092164988, 33.7062485997007 ], [ 130.430148786907012, 33.706863325697299 ], [ 130.43050835728701, 33.707552516042597 ], [ 130.430516952961995, 33.708296441682798 ], [ 130.428561474535002, 33.708309940443698 ], [ 130.428571538716994, 33.708828450563601 ], [ 130.428823667877992, 33.709449520907903 ], [ 130.428514506198013, 33.709667236433702 ], [ 130.427868479857011, 33.709918892148004 ], [ 130.427689383889003, 33.709101200741301 ], [ 130.426976205538011, 33.7087894895852 ], [ 130.426955699345996, 33.708462114395502 ], [ 130.426748138432998, 33.708361966044798 ], [ 130.426325089822001, 33.708518918787803 ], [ 130.426344152261009, 33.708929903844599 ], [ 130.426074861348013, 33.7095465744531 ], [ 130.430567179706998, 33.710862304354002 ], [ 130.433498276156001, 33.712387965552502 ], [ 130.433734871377993, 33.713686199010702 ], [ 130.433598038091986, 33.714846193670702 ], [ 130.433554963684003, 33.714956169403102 ], [ 130.432905242000999, 33.714957122262597 ], [ 130.432194041570995, 33.716282190531501 ], [ 130.433312910432988, 33.716938388139504 ], [ 130.433636845513007, 33.7169002205003 ], [ 130.434809461615004, 33.717764882720402 ], [ 130.436335989522007, 33.718292213974301 ], [ 130.43721464570001, 33.719071701096198 ], [ 130.439277557276, 33.720426423465 ], [ 130.440636111047013, 33.720915030782002 ], [ 130.442577506818992, 33.722055472267499 ], [ 130.443155925671988, 33.722213220177601 ], [ 130.446074759762013, 33.724232649846599 ], [ 130.447172940592992, 33.725359538125197 ], [ 130.448342095502994, 33.724584182931999 ], [ 130.450726825856009, 33.723754278666199 ], [ 130.452173779920997, 33.722646965209798 ], [ 130.454678385849007, 33.721401897849603 ], [ 130.454696939655008, 33.721259897740303 ], [ 130.456330395956996, 33.720716978695997 ], [ 130.456542264516997, 33.720544432433599 ], [ 130.456431353088988, 33.720459621523702 ], [ 130.456542264516997, 33.720544432433499 ], [ 130.459159092264997, 33.719319076246997 ], [ 130.459918216355987, 33.718143442762504 ], [ 130.460795666107998, 33.717514333370403 ], [ 130.460537500229009, 33.716799391071703 ], [ 130.46068356884399, 33.716430402943701 ], [ 130.462082197363003, 33.715549450053103 ], [ 130.462432664926013, 33.714754033698497 ], [ 130.462564668819994, 33.713973799718801 ], [ 130.464016318262992, 33.713007621379603 ], [ 130.464930057977, 33.712752841418897 ], [ 130.46512069427601, 33.712314730557303 ], [ 130.464762914245, 33.712063735936603 ], [ 130.465134309126995, 33.711475939977099 ], [ 130.465953490337995, 33.7108270351603 ], [ 130.466534712228992, 33.710594479307098 ], [ 130.466853854715993, 33.710044141429101 ], [ 130.467565700005991, 33.709574608623001 ], [ 130.467763435946011, 33.709158082639597 ], [ 130.467245296706011, 33.709175216861198 ], [ 130.467763435946011, 33.709158082639597 ], [ 130.467991975930005, 33.708405810812401 ], [ 130.468946567511011, 33.708131674671499 ], [ 130.468744741031998, 33.707816555268103 ], [ 130.468727393509994, 33.706895355342702 ], [ 130.467966301617992, 33.706045266693899 ], [ 130.468182648468996, 33.705403330225401 ], [ 130.468028924131005, 33.705196336902397 ], [ 130.46769793680599, 33.7030215692971 ], [ 130.467591447809014, 33.702277151299498 ], [ 130.467700665931005, 33.702121520973698 ], [ 130.466630623185011, 33.701285582100702 ], [ 130.46553183966401, 33.700807083420599 ], [ 130.463226681994996, 33.6988281499764 ], [ 130.461577259129001, 33.700028146005501 ], [ 130.460321833346995, 33.700609589322902 ], [ 130.460860508167002, 33.701087374438799 ], [ 130.460385067688009, 33.701164681645302 ], [ 130.460102760186999, 33.701678317481097 ], [ 130.459636859721002, 33.701697888880901 ], [ 130.458499073334991, 33.7025628445205 ], [ 130.457778859269013, 33.702714705732397 ], [ 130.457263863700007, 33.703443489123501 ], [ 130.457293127762995, 33.703937081607798 ], [ 130.457094024615003, 33.704082160735801 ], [ 130.456871939004998, 33.704149224455001 ], [ 130.457008746389988, 33.703972170069498 ], [ 130.455767700936008, 33.702694716424801 ], [ 130.455930368714007, 33.702246928505303 ], [ 130.455676524604996, 33.7015384427255 ], [ 130.454016862832987, 33.702648586409403 ], [ 130.45416361004601, 33.705579172102098 ], [ 130.454732571379992, 33.707883259981202 ], [ 130.453461848560011, 33.708112522001798 ], [ 130.451953096903992, 33.708061886573198 ], [ 130.450372876878987, 33.708752686013497 ], [ 130.447722812123999, 33.709475339153101 ], [ 130.444981158659004, 33.70482080435 ], [ 130.441507378490002, 33.706148826087997 ], [ 130.439434345921995, 33.7067474048675 ], [ 130.439474888292011, 33.706890663232301 ], [ 130.43771167617399, 33.707597993356998 ], [ 130.43767980213201, 33.707106426660097 ], [ 130.438101422106996, 33.706973113532399 ], [ 130.438241593297988, 33.707070054535301 ], [ 130.438790719281997, 33.706828841739103 ], [ 130.439279104225989, 33.706198565884101 ], [ 130.439218433952988, 33.705786117204099 ], [ 130.440096282750005, 33.705541335403097 ], [ 130.439852867198994, 33.704433609572 ], [ 130.43855754271101, 33.703478776000701 ], [ 130.438552242138002, 33.703178872913497 ], [ 130.438754999912987, 33.703105419370402 ], [ 130.438862482660994, 33.7028111886221 ], [ 130.438671594059997, 33.7025124866095 ], [ 130.438436509328, 33.7026257307039 ], [ 130.438303855136013, 33.702437607028301 ] ] ] ] } }
]
}
