{
"type": "FeatureCollection",
"name": "日田",
"crs": { "type": "name", "properties": { "name": "urn:ogc:def:crs:OGC:1.3:CRS84" } },
"features": [
{ "type": "Feature", "properties": { "id": "日田.1", "Name": null, "description": null, "timestamp": null, "begin": null, "end": null, "altitudeMode": null, "tessellate": -1, "extrude": 0, "visibility": -1, "drawOrder": null, "icon": null, "KEY_CODE": "442040007101", "PREF": "44", "CITY": "204", "K_AREA": "025000050", "S_AREA": "0007101", "PREF_NAME": "大分県", "CITY_NAME": "日田市", "S_NAME": "豆田町", "KIGO_E": null, "HCODE": 8101, "AREA": 21927.579, "PERIMETER": 631.188, "KIHON1": "0250", "DUMMY1": "-", "KIHON2": "00", "KIHON3": "050", "C1": 3, "C2": 7, "DUMMY2": "-", "C3": 1, "DUMMY3": "-", "C4": 1, "KIGO_A": null, "KIGO_D": null, "N_KEN": null, "N_CITY": null, "N_C1": 0, "KIGO_I": null, "KEYCODE1": "2040007-1-01", "JINKO": 21, "SETAI": 9, "KEN_OLD": "44", "CITY_OLD": "204", "X_CODE": 130.93809, "Y_CODE": 33.328687, "KCODE1": "0250-00050", "CCODE1": "7-1- 1" }, "geometry": { "type": "MultiPolygon", "coordinates": [ [ [ [ 130.936557760058008, 33.325732007421699 ], [ 130.936584207882987, 33.325896637732598 ], [ 130.936207054503001, 33.325941563457597 ], [ 130.936215601584991, 33.326004688499197 ], [ 130.93623499291499, 33.326105762049501 ], [ 130.935970857170986, 33.326132621925801 ], [ 130.935977000361987, 33.326201592869097 ], [ 130.935942879716009, 33.326213304756799 ], [ 130.935821945908998, 33.326219721910697 ], [ 130.93577544102601, 33.326219697908599 ], [ 130.935732037981012, 33.326201466545903 ], [ 130.93565772288099, 33.3260595469403 ], [ 130.935440646165006, 33.3260958914179 ], [ 130.934984735981999, 33.3261202739805 ], [ 130.934984613711009, 33.326285718681603 ], [ 130.934972220470996, 33.326385677314299 ], [ 130.93500090524401, 33.3264615288698 ], [ 130.935241939717002, 33.3264341796216 ], [ 130.935227700984001, 33.326824626388401 ], [ 130.935314532722003, 33.326814281674601 ], [ 130.935323771128992, 33.3268949837381 ], [ 130.935450919266998, 33.326884621886499 ], [ 130.935518915169013, 33.327181416436297 ], [ 130.935555949866995, 33.3274235284374 ], [ 130.935580592272004, 33.327657812713497 ], [ 130.935617621414991, 33.327899923000601 ], [ 130.935465652853992, 33.327925839442401 ], [ 130.935567544435997, 33.328529833481099 ], [ 130.935683832178995, 33.328518163650799 ], [ 130.935720891122998, 33.328721208657498 ], [ 130.935750214086994, 33.328917769717101 ], [ 130.935863886931998, 33.329463116334097 ], [ 130.93607232340301, 33.329433353083601 ], [ 130.936373146978013, 33.329384019591302 ], [ 130.937639699776014, 33.329246268328497 ], [ 130.938849048501993, 33.329602619437303 ], [ 130.93875018662601, 33.3290767608596 ], [ 130.938737843291989, 33.328983061866701 ], [ 130.938706959826987, 33.328819046776701 ], [ 130.938654474814996, 33.328480631963203 ], [ 130.938620004793989, 33.328219259910199 ], [ 130.938586549791012, 33.328058904932 ], [ 130.938532442900993, 33.3278363003596 ], [ 130.93849077376899, 33.327564250263599 ], [ 130.938466069473009, 33.327423695691301 ], [ 130.938439815767993, 33.327271410908999 ], [ 130.938417874616988, 33.327117403942502 ], [ 130.938374994709989, 33.3268535585633 ], [ 130.938506796663006, 33.326832806626598 ], [ 130.938759526409996, 33.326805596642103 ], [ 130.938494557045999, 33.326598527851999 ], [ 130.938420950141989, 33.326547066215802 ], [ 130.938355082272011, 33.326500854467497 ], [ 130.938316345810989, 33.326476108359003 ], [ 130.938273731701997, 33.326445479085301 ], [ 130.938236543156989, 33.326420733716603 ], [ 130.938200898698994, 33.326398595092897 ], [ 130.93815285123901, 33.326368630119397 ], [ 130.938083124468989, 33.326312625799297 ], [ 130.938038453773999, 33.326284953086599 ], [ 130.937961682647995, 33.326237399378897 ], [ 130.937810373529004, 33.326143312202198 ], [ 130.937581788805005, 33.326005859997203 ], [ 130.937477962305991, 33.325947265752099 ], [ 130.937128517148011, 33.325700420079102 ], [ 130.937003773371003, 33.325624238803499 ], [ 130.936986675473008, 33.325676290012701 ], [ 130.936701388025995, 33.325709996012101 ], [ 130.936557760058008, 33.325732007421699 ] ] ] ] } }
]
}
