{
"type": "FeatureCollection",
"name": "東区C",
"crs": { "type": "name", "properties": { "name": "urn:ogc:def:crs:EPSG::4612" } },
"features": [
{ "type": "Feature", "properties": { "KEY_CODE": "401312991101", "PREF": "40", "CITY": "131", "K_AREA": "058001010", "S_AREA": "2991101", "PREF_NAME": "福岡県", "CITY_NAME": "福岡市東区", "S_NAME": "大岳一丁目", "KIGO_E": null, "HCODE": 8101, "AREA": 4782.81, "PERIMETER": 342.334, "KIHON1": "0580", "DUMMY1": "-", "KIHON2": "01", "KIHON3": "010", "C1": 59, "C2": 2991, "DUMMY2": "-", "C3": 1, "DUMMY3": "-", "C4": 1, "KIGO_A": null, "KIGO_D": null, "N_KEN": null, "N_CITY": null, "N_C1": 0, "KIGO_I": null, "KEYCODE1": "1312991-1-01", "JINKO": 18, "SETAI": 8, "KEN_OLD": "40", "CITY_OLD": "131", "X_CODE": 130.345624, "Y_CODE": 33.652003, "KCODE1": "0580-01010", "CCODE1": "2991-1- 1" }, "geometry": { "type": "MultiPolygon", "coordinates": [ [ [ [ 130.355494950522314, 33.643782587116704 ], [ 130.355320945925939, 33.643253092548605 ], [ 130.355333244488435, 33.6431624255085 ], [ 130.355148646338733, 33.643217400743026 ], [ 130.355152771929681, 33.643268348933027 ], [ 130.355253395782171, 33.643265139124978 ], [ 130.35531567108859, 33.64342367469709 ], [ 130.355436117844732, 33.643811512848231 ], [ 130.355336879128004, 33.643855024505321 ], [ 130.355018139127765, 33.644059336337655 ], [ 130.354902646394351, 33.644090999982488 ], [ 130.3547404486375, 33.644112482860933 ], [ 130.354495704235035, 33.64379105847194 ], [ 130.354489796169787, 33.643854775828316 ], [ 130.354681615463932, 33.644141413707246 ], [ 130.354481308124633, 33.644343027184746 ], [ 130.354338073503158, 33.644508734521779 ], [ 130.35420222352505, 33.644599318921202 ], [ 130.354087605708969, 33.644756158451116 ], [ 130.353907896559662, 33.644917235805835 ], [ 130.353682061286122, 33.644618232702086 ], [ 130.353360181625447, 33.644166722289178 ], [ 130.353358274415484, 33.644089648731963 ], [ 130.353451631068452, 33.643988133979128 ], [ 130.353088640381458, 33.644174530303651 ], [ 130.353082906502408, 33.644186618459308 ], [ 130.353270163831127, 33.644142233123425 ], [ 130.353395729293339, 33.644289473938237 ], [ 130.353890373325129, 33.64493510864466 ], [ 130.35319735971504, 33.645368367837982 ], [ 130.352740623178022, 33.645689447566077 ], [ 130.352664501814445, 33.64575462808935 ], [ 130.352621499378529, 33.645828651701592 ], [ 130.352466992200817, 33.646036842862152 ], [ 130.352457108154312, 33.646119767349056 ], [ 130.352264847288296, 33.646353120027335 ], [ 130.35219045914161, 33.646513051547771 ], [ 130.352190459141639, 33.646513051547799 ], [ 130.352153447208963, 33.646557377576848 ], [ 130.352017004836313, 33.646821588603622 ], [ 130.351785384383334, 33.647176032125849 ], [ 130.351542822553625, 33.64750689005853 ], [ 130.351337248487027, 33.647757356046213 ], [ 130.351228531463306, 33.647850546260337 ], [ 130.351147951457534, 33.647898021000742 ], [ 130.351053809148226, 33.647822648892031 ], [ 130.35088389515272, 33.647950384519845 ], [ 130.350616619372374, 33.648151285699171 ], [ 130.350237696013835, 33.648414224729301 ], [ 130.350161596236603, 33.648464966271803 ], [ 130.350101877692907, 33.648504802819673 ], [ 130.349856909472692, 33.64860002109117 ], [ 130.34964855327712, 33.648648236131017 ], [ 130.349553896948777, 33.648657745536006 ], [ 130.348576716548905, 33.648614218036869 ], [ 130.348413702962063, 33.648613852753193 ], [ 130.348024929502856, 33.648613004867272 ], [ 130.347546156706812, 33.648690855794037 ], [ 130.347166008791504, 33.64876922644784 ], [ 130.346595672019077, 33.648926542900512 ], [ 130.346192610958155, 33.649094247741729 ], [ 130.346192610958155, 33.649094247741743 ], [ 130.344805235168593, 33.649842172605858 ], [ 130.344805235168593, 33.649842172605837 ], [ 130.344755888488976, 33.649868749758589 ], [ 130.344443692730124, 33.650037067874678 ], [ 130.3441801059856, 33.650209660304839 ], [ 130.343922476627, 33.650412432471413 ], [ 130.343717838803741, 33.650563637250258 ], [ 130.343099357689681, 33.65098596095126 ], [ 130.343018505082568, 33.651013350967844 ], [ 130.342862010353485, 33.651041120612895 ], [ 130.342478761205342, 33.651087901338038 ], [ 130.342117012063937, 33.651120989398841 ], [ 130.34197672510939, 33.651144193304681 ], [ 130.341723384891992, 33.651230970838007 ], [ 130.341459614310594, 33.651376507368262 ], [ 130.341346444197285, 33.651422114191767 ], [ 130.341281623163212, 33.651417892603774 ], [ 130.341194981521141, 33.651386650269906 ], [ 130.341049317522646, 33.651418839143616 ], [ 130.340731540423747, 33.651577892425252 ], [ 130.340629869191588, 33.651628776709352 ], [ 130.340316786094405, 33.651751433785741 ], [ 130.339932765706976, 33.651882517052798 ], [ 130.339415791631978, 33.651935761489618 ], [ 130.339184295831529, 33.651949048407381 ], [ 130.339161946763681, 33.651950330276833 ], [ 130.338940293602235, 33.651924208716139 ], [ 130.338648168049701, 33.651866793591736 ], [ 130.338355931403214, 33.651791269246964 ], [ 130.338085284409146, 33.651706705728863 ], [ 130.337864246156983, 33.651616560854904 ], [ 130.3376247077953, 33.651501026094387 ], [ 130.337478251022418, 33.651411416330376 ], [ 130.337277459553889, 33.651267844034898 ], [ 130.336930234888854, 33.65104811678782 ], [ 130.336540182182944, 33.650878311168448 ], [ 130.336247785151301, 33.650780243721961 ], [ 130.336112723836209, 33.650780789586697 ], [ 130.336081802406909, 33.650771182218065 ], [ 130.336133811964544, 33.650697552701985 ], [ 130.336494102135134, 33.650187471971584 ], [ 130.336449089887083, 33.650170186704429 ], [ 130.336357690361751, 33.650238233256971 ], [ 130.336325982565654, 33.650342174287637 ], [ 130.33603055178861, 33.650754777426457 ], [ 130.335966548347642, 33.650731752823965 ], [ 130.335847692992473, 33.650727806688749 ], [ 130.335663761734509, 33.65069244156431 ], [ 130.33537061947365, 33.650472511404807 ], [ 130.335002025116069, 33.650289081315904 ], [ 130.334779068450615, 33.650219272731576 ], [ 130.334724058800077, 33.650111278046005 ], [ 130.334573171952798, 33.649995647584916 ], [ 130.334377935595171, 33.64985393458953 ], [ 130.334242532420404, 33.649800305511611 ], [ 130.334214765442738, 33.649687663767388 ], [ 130.334133061584367, 33.649584170600932 ], [ 130.334059247594269, 33.649479030329594 ], [ 130.3339392180213, 33.649348848573332 ], [ 130.333831394371572, 33.649367569516137 ], [ 130.333756612878403, 33.649453736142469 ], [ 130.333513017090098, 33.649767292428358 ], [ 130.333170349371699, 33.650242535792117 ], [ 130.332698954037966, 33.650862758885104 ], [ 130.332522250490712, 33.65110270551704 ], [ 130.332409460122392, 33.65120247593125 ], [ 130.332259246646856, 33.651365582137409 ], [ 130.332128457057109, 33.651603663980872 ], [ 130.331842262484514, 33.652044198971922 ], [ 130.331737453994378, 33.652157182817753 ], [ 130.331737453994378, 33.652157182817746 ], [ 130.331675881531282, 33.652211864542494 ], [ 130.331519772345359, 33.652298295901986 ], [ 130.331266419294508, 33.652385051954553 ], [ 130.331137247195926, 33.652462327415989 ], [ 130.331089490346301, 33.652593373210522 ], [ 130.33098870539277, 33.6528826132405 ], [ 130.330775459190477, 33.65332128718191 ], [ 130.330486746630356, 33.653791810633372 ], [ 130.330160536651761, 33.654307632094572 ], [ 130.330133934451965, 33.65437088844692 ], [ 130.330081231435486, 33.6545741698394 ], [ 130.329968828863088, 33.65473711948767 ], [ 130.329872142258125, 33.654823238904051 ], [ 130.329748343737691, 33.654891456513631 ], [ 130.330188052973739, 33.65521905464783 ], [ 130.330731127541867, 33.655654554489246 ], [ 130.331104463677832, 33.655444338095322 ], [ 130.332316853084023, 33.656368771243372 ], [ 130.332828235579996, 33.655908175769362 ], [ 130.333093004707052, 33.656198967496891 ], [ 130.333372983095387, 33.656478426062321 ], [ 130.333600922762315, 33.656635391083029 ], [ 130.333774659878145, 33.656765581861123 ], [ 130.334493644407388, 33.657287102897946 ], [ 130.334516929881602, 33.657304065138206 ], [ 130.335072072089986, 33.657707845225701 ], [ 130.335174491861778, 33.657675781553586 ], [ 130.335314157300729, 33.657548893408062 ], [ 130.335614598924991, 33.657227190612822 ], [ 130.335968562773843, 33.65682406184488 ], [ 130.336070715348143, 33.65667908034002 ], [ 130.336284540998179, 33.656398539813281 ], [ 130.336354063902945, 33.65628994397121 ], [ 130.336514721082665, 33.65607265549837 ], [ 130.336562757413503, 33.655986696329713 ], [ 130.336588955726427, 33.655860254189299 ], [ 130.336560891250656, 33.65569788258712 ], [ 130.336548818607781, 33.655503898995903 ], [ 130.336492136735728, 33.655382722435213 ], [ 130.336461733585054, 33.655409469559437 ], [ 130.336461733584997, 33.655409469559437 ], [ 130.336492136735671, 33.655382722435213 ], [ 130.336988182453297, 33.654946964903012 ], [ 130.337520179580252, 33.654507032228906 ], [ 130.337756371177107, 33.654280354649053 ], [ 130.33784780520125, 33.654202726980273 ], [ 130.338734084004386, 33.654167239786034 ], [ 130.339578360368193, 33.654133283878345 ], [ 130.339931257560977, 33.654229834792538 ], [ 130.340081597897324, 33.654253104151984 ], [ 130.340116946561295, 33.654256886491304 ], [ 130.340413824108424, 33.654288332564718 ], [ 130.340586908317476, 33.654355324698905 ], [ 130.341177404106844, 33.654641421543708 ], [ 130.341323088166149, 33.654711999594142 ], [ 130.341287293731654, 33.654739281588256 ], [ 130.341177647157593, 33.654852455878896 ], [ 130.341115880165233, 33.654961169168402 ], [ 130.341132323059639, 33.654997178854259 ], [ 130.341354544344597, 33.655104584113154 ], [ 130.341376553739195, 33.655167601486681 ], [ 130.341373585054669, 33.655182126953555 ], [ 130.34154602350219, 33.655269029175201 ], [ 130.341723136788744, 33.655358293123349 ], [ 130.34154602350219, 33.655269029175209 ], [ 130.34137358505464, 33.655182126953555 ], [ 130.341360847098173, 33.655244436813085 ], [ 130.341307438912509, 33.655339389138327 ], [ 130.341162442888276, 33.655470902046872 ], [ 130.341120308935274, 33.655633531834212 ], [ 130.341158366247555, 33.655674025869011 ], [ 130.341504941104631, 33.655794346708404 ], [ 130.341526934060511, 33.655848419850663 ], [ 130.341501195171048, 33.656042554853514 ], [ 130.341566694538415, 33.656146093289443 ], [ 130.341685951273917, 33.65620878535951 ], [ 130.341832017418199, 33.656235201675663 ], [ 130.342199574053268, 33.656260750618095 ], [ 130.342388919240847, 33.656300567006895 ], [ 130.342508627182411, 33.656430950264401 ], [ 130.342643689235643, 33.656425822650981 ], [ 130.342843343081427, 33.656388914578486 ], [ 130.343010454761782, 33.656334010395092 ], [ 130.343193384511068, 33.656220447638113 ], [ 130.343286041008867, 33.656341881837811 ], [ 130.343346268472288, 33.656463499595702 ], [ 130.343438240915248, 33.656481103082065 ], [ 130.343519166139032, 33.656467232216684 ], [ 130.344032445454758, 33.656465090866831 ], [ 130.344604826560385, 33.656421982284215 ], [ 130.345020492961368, 33.65592427286262 ], [ 130.345440526086321, 33.655428067777549 ], [ 130.345472690944746, 33.655340825833974 ], [ 130.344702666444448, 33.654208110428755 ], [ 130.34389154111571, 33.652939293527716 ], [ 130.343438088843612, 33.652269757644724 ], [ 130.34492821869037, 33.652228197675761 ], [ 130.346386485966804, 33.652167856034012 ], [ 130.346385590138283, 33.652152353995497 ], [ 130.346704940032339, 33.652140937816846 ], [ 130.346927450272659, 33.652444225845137 ], [ 130.347600858831214, 33.653290375992825 ], [ 130.348082461832917, 33.653849871110893 ], [ 130.34835884728605, 33.654191547827196 ], [ 130.349036608614142, 33.654118055108484 ], [ 130.349779110722096, 33.654037502500316 ], [ 130.350740126656717, 33.653925900936144 ], [ 130.351236037131144, 33.653863416246047 ], [ 130.350568935123164, 33.653355367248935 ], [ 130.350568935123164, 33.653355367248928 ], [ 130.351236037131144, 33.653863416246033 ], [ 130.351607102502101, 33.653830494136272 ], [ 130.351705220419063, 33.65380403206273 ], [ 130.352083284518613, 33.653255255864423 ], [ 130.352221463153001, 33.653086780085665 ], [ 130.352384435705659, 33.652846658415484 ], [ 130.35262290924382, 33.652495349976832 ], [ 130.352743556664194, 33.652344818167393 ], [ 130.35226904021701, 33.65186996220455 ], [ 130.351580843508714, 33.65118759642538 ], [ 130.351618733069955, 33.651110802529125 ], [ 130.351977019136115, 33.650888396491524 ], [ 130.352433828046514, 33.650567324405465 ], [ 130.352672631930801, 33.650395712877668 ], [ 130.353234220426458, 33.650000657074841 ], [ 130.353656585826712, 33.649700461532873 ], [ 130.354201029346797, 33.650211882369547 ], [ 130.354354845085481, 33.650130552347782 ], [ 130.354642100504208, 33.649915726472948 ], [ 130.354673179496018, 33.64989912134989 ], [ 130.35491644564911, 33.650110234880223 ], [ 130.355097307059197, 33.649971069242753 ], [ 130.3552558087097, 33.649865387079359 ], [ 130.355390346140922, 33.650047894445137 ], [ 130.355705758643893, 33.650083208786697 ], [ 130.355983162514349, 33.650263077800638 ], [ 130.356545325364863, 33.650461613502557 ], [ 130.357180015687845, 33.650670667070045 ], [ 130.357250240185891, 33.650713156436545 ], [ 130.357330256299775, 33.650797891830784 ], [ 130.357976657886326, 33.65170366436751 ], [ 130.358100069364298, 33.651877097399911 ], [ 130.358274806871037, 33.652096932105053 ], [ 130.358366279394573, 33.65228978145479 ], [ 130.358500570632486, 33.652727565027028 ], [ 130.35859842038181, 33.653235673396722 ], [ 130.358749211134921, 33.653796852471366 ], [ 130.358769319553033, 33.653940856239423 ], [ 130.358854328963588, 33.654275943328237 ], [ 130.359030804230997, 33.655040954764956 ], [ 130.359480040914036, 33.65496833198106 ], [ 130.359756936294076, 33.654918981420749 ], [ 130.359995037722967, 33.65487654278531 ], [ 130.3597929640529, 33.654341024293601 ], [ 130.359706524271871, 33.653965573867055 ], [ 130.359658935412455, 33.653830226387349 ], [ 130.359662539769744, 33.653600978275783 ], [ 130.359570367632926, 33.65323760873558 ], [ 130.359470697212316, 33.652991530972606 ], [ 130.35935033288365, 33.652650958203338 ], [ 130.35927729675771, 33.652379806448636 ], [ 130.359156221471267, 33.651998866673104 ], [ 130.359105986980751, 33.651731284621327 ], [ 130.359087276704372, 33.651392152324547 ], [ 130.359099706680325, 33.65114722127727 ], [ 130.359149869776559, 33.651061543313979 ], [ 130.359343105019661, 33.650985200161635 ], [ 130.359238073169848, 33.65061632302514 ], [ 130.359200552599418, 33.650371907120004 ], [ 130.359235977452641, 33.650302916112224 ], [ 130.35940035937864, 33.650255162214215 ], [ 130.359436026038992, 33.650204556971836 ], [ 130.359381572110578, 33.649937730209004 ], [ 130.359449986528062, 33.649929204652693 ], [ 130.359472384199364, 33.649895723348848 ], [ 130.359366352613733, 33.649877702722719 ], [ 130.359230376289645, 33.649411523934802 ], [ 130.359281020579886, 33.649402488239161 ], [ 130.359215155630096, 33.649351501949269 ], [ 130.35911833684878, 33.649022179442738 ], [ 130.359162105259145, 33.649003317968898 ], [ 130.35910160304806, 33.648973492310922 ], [ 130.358987521582378, 33.648558705256058 ], [ 130.359092408483605, 33.648311367043121 ], [ 130.359331857071425, 33.648368251762747 ], [ 130.359367017321887, 33.648402600304543 ], [ 130.359388274180674, 33.648347129347805 ], [ 130.359338530169396, 33.648359693541977 ], [ 130.359093064236333, 33.648296504044616 ], [ 130.359109880848081, 33.648233551677336 ], [ 130.359167959219945, 33.64801612386097 ], [ 130.3588532300694, 33.647954367115304 ], [ 130.358542059920723, 33.647893307699611 ], [ 130.358853230069428, 33.647954367115304 ], [ 130.359167959219945, 33.648016123860963 ], [ 130.359241792504235, 33.64773971468879 ], [ 130.359291617690332, 33.647553179832265 ], [ 130.359337208398216, 33.647482264393737 ], [ 130.359426756662742, 33.647342977385811 ], [ 130.359483709038955, 33.647175904459147 ], [ 130.359638796533147, 33.647069211363387 ], [ 130.359725540085094, 33.647024577070141 ], [ 130.359725540085122, 33.647024577070148 ], [ 130.359860164230071, 33.647042461178067 ], [ 130.359899143665359, 33.646987577397709 ], [ 130.359735312038708, 33.646950381903693 ], [ 130.360015944414329, 33.646682815283647 ], [ 130.360192834376875, 33.6464411284595 ], [ 130.360311796863641, 33.646475199316413 ], [ 130.360395668123203, 33.646545083795885 ], [ 130.360319086284079, 33.646451783082554 ], [ 130.360216503248665, 33.646377854991528 ], [ 130.360241077508931, 33.646318174828025 ], [ 130.36014976171333, 33.646269456404937 ], [ 130.360287267894535, 33.6461251221168 ], [ 130.360396416598462, 33.646176890492939 ], [ 130.360448141891908, 33.646135103090771 ], [ 130.360348432155433, 33.646048727194305 ], [ 130.360493502916029, 33.645917813252844 ], [ 130.360632290396723, 33.645964596312247 ], [ 130.3607263873742, 33.645915840160484 ], [ 130.360938696424995, 33.646031324711501 ], [ 130.361019370467318, 33.645907482397341 ], [ 130.361206118784281, 33.64569239640781 ], [ 130.361276869149492, 33.645623656941268 ], [ 130.361762841919358, 33.645239284123704 ], [ 130.361834823137968, 33.645123214407363 ], [ 130.361852605100324, 33.645002003254874 ], [ 130.36172664027427, 33.644644646232983 ], [ 130.361628433735319, 33.644640058365702 ], [ 130.361585841450164, 33.644437463435629 ], [ 130.361488505600647, 33.644314675626582 ], [ 130.361169917095452, 33.644102281337254 ], [ 130.360601045754549, 33.643842319493693 ], [ 130.360313760291945, 33.643775755536979 ], [ 130.359608053749639, 33.643632152347273 ], [ 130.359243796605341, 33.643604915248126 ], [ 130.358981233197767, 33.643526280230432 ], [ 130.358954788069383, 33.643519655270531 ], [ 130.358954788069383, 33.643519655270545 ], [ 130.358637291186, 33.643440117101761 ], [ 130.358425656968109, 33.643370903272981 ], [ 130.358195932404186, 33.64331373341966 ], [ 130.35816665516424, 33.643306448117052 ], [ 130.357856639527171, 33.643284277105991 ], [ 130.357270100900877, 33.643215446373759 ], [ 130.357122111200255, 33.643223416456557 ], [ 130.357019717887368, 33.643260358315295 ], [ 130.357000888326723, 33.643267163958015 ], [ 130.356953452024669, 33.642958455416526 ], [ 130.357075334474956, 33.64289984495479 ], [ 130.356752496460331, 33.642931564985616 ], [ 130.356731938900623, 33.642972169560771 ], [ 130.356897655104717, 33.642964715565704 ], [ 130.356944471365011, 33.64328828565197 ], [ 130.356510511645808, 33.64342093080861 ], [ 130.356380456609799, 33.643455367736038 ], [ 130.356084700403159, 33.64353368126244 ], [ 130.355906974641215, 33.643555339388435 ], [ 130.355887869736847, 33.643557665456406 ], [ 130.355759599872584, 33.643643222093317 ], [ 130.355494950522342, 33.643782587116704 ], [ 130.355634259264946, 33.644309227257587 ], [ 130.355494950522314, 33.643782587116704 ] ] ] ] } }
]
}
