{
"type": "FeatureCollection",
"name": "東区A",
"crs": { "type": "name", "properties": { "name": "urn:ogc:def:crs:EPSG::4612" } },
"features": [
{ "type": "Feature", "properties": { "KEY_CODE": "401311743301", "PREF": "40", "CITY": "131", "K_AREA": "069004010", "S_AREA": "1743301", "PREF_NAME": "福岡県", "CITY_NAME": "福岡市東区", "S_NAME": "香椎照葉四丁目", "KIGO_E": null, "HCODE": 8101, "AREA": 149740.31, "PERIMETER": 1566.836, "KIHON1": "0690", "DUMMY1": "-", "KIHON2": "04", "KIHON3": "010", "C1": 32, "C2": 1743, "DUMMY2": "-", "C3": 3, "DUMMY3": "-", "C4": 1, "KIGO_A": null, "KIGO_D": null, "N_KEN": null, "N_CITY": null, "N_C1": 0, "KIGO_I": null, "KEYCODE1": "1311743-3-01", "JINKO": 0, "SETAI": 0, "KEN_OLD": "40", "CITY_OLD": "131", "X_CODE": 130.420752, "Y_CODE": 33.664258, "KCODE1": "0690-04010", "CCODE1": "1743-3- 1" }, "geometry": { "type": "MultiPolygon", "coordinates": [ [ [ [ 130.415990481549898, 33.664144917830619 ], [ 130.415093178808803, 33.663804318145679 ], [ 130.415026933412804, 33.663913285721449 ], [ 130.414855746797997, 33.664207602804801 ], [ 130.414287241161617, 33.665185265600499 ], [ 130.414216996602931, 33.665306132257093 ], [ 130.416748266217894, 33.666317209924607 ], [ 130.416777860861401, 33.666329018657223 ], [ 130.416823776090212, 33.666347348590286 ], [ 130.416777860861373, 33.666329018657223 ], [ 130.416748266217894, 33.666317209924628 ], [ 130.414216996602931, 33.665306132257101 ], [ 130.413667770343181, 33.666251192341157 ], [ 130.41361358438246, 33.666344435922248 ], [ 130.413324713560598, 33.666907776135204 ], [ 130.413234893043011, 33.667082980444512 ], [ 130.412907534832755, 33.667721640631356 ], [ 130.412736102755417, 33.667994231766308 ], [ 130.412468154795221, 33.668420371720856 ], [ 130.411810568579568, 33.669232901497196 ], [ 130.411744901322635, 33.669296272534183 ], [ 130.411713821645066, 33.669347831528192 ], [ 130.411650221900885, 33.669411333866705 ], [ 130.411598164879848, 33.669460008743492 ], [ 130.411594956363189, 33.669463009862163 ], [ 130.412681560040966, 33.66992468946502 ], [ 130.41159495636316, 33.669463009862156 ], [ 130.411410714711735, 33.669635294044333 ], [ 130.409304881622461, 33.671530290689368 ], [ 130.410119069539917, 33.671983691660621 ], [ 130.415811437261709, 33.675153360978882 ], [ 130.416226739377834, 33.675294236077356 ], [ 130.416746957505012, 33.675394958874747 ], [ 130.420460603971947, 33.675475560064079 ], [ 130.421029515084825, 33.675397081162686 ], [ 130.421613500135834, 33.675156374542865 ], [ 130.422338528277379, 33.674625968963426 ], [ 130.422952647915309, 33.67399895923883 ], [ 130.423722534088284, 33.6731813079302 ], [ 130.42482288915923, 33.672012651494931 ], [ 130.425242714882415, 33.671566755801287 ], [ 130.425439225331957, 33.671207929642797 ], [ 130.425665785680309, 33.670722071226173 ], [ 130.426001170684316, 33.6700031853239 ], [ 130.424122454401044, 33.669255816107615 ], [ 130.424122454401044, 33.669255816107594 ], [ 130.424050731378742, 33.669227283688436 ], [ 130.423729502633307, 33.669099482432976 ], [ 130.422765340773054, 33.668715910852242 ], [ 130.422670753010806, 33.668830876610357 ], [ 130.422138350717916, 33.669766602032816 ], [ 130.422670753010777, 33.668830876610357 ], [ 130.422765340772997, 33.668715910852256 ], [ 130.421481305253934, 33.668204613761645 ], [ 130.421163356120417, 33.668077952069602 ], [ 130.421339210358639, 33.667787715445023 ], [ 130.421561864400985, 33.667420299659653 ], [ 130.421884950246891, 33.666887284063449 ], [ 130.422080661728103, 33.666564473851707 ], [ 130.422083730218418, 33.666559489458024 ], [ 130.422365393603854, 33.66609498508047 ], [ 130.422676709321507, 33.665581688277854 ], [ 130.422944228856124, 33.665140148472922 ], [ 130.423328237947857, 33.664506403358722 ], [ 130.423330476735771, 33.664502710177011 ], [ 130.423536062168893, 33.664163419748689 ], [ 130.423701191254992, 33.663890896172603 ], [ 130.423483482283928, 33.663803985482289 ], [ 130.422587689075385, 33.663446263560168 ], [ 130.422430527428219, 33.663383292991483 ], [ 130.421638083617296, 33.66306571142551 ], [ 130.421579016329105, 33.663042033561695 ], [ 130.420551941534683, 33.662630187345258 ], [ 130.420546011555842, 33.662627822161603 ], [ 130.41933164442267, 33.662140694422142 ], [ 130.419310011089919, 33.662128420766862 ], [ 130.418519859660165, 33.661680948711634 ], [ 130.418057807722221, 33.661419560394357 ], [ 130.416807338700949, 33.660712722548929 ], [ 130.416525238628168, 33.661451016916502 ], [ 130.416077839802028, 33.662185341202679 ], [ 130.415093178808803, 33.663804318145658 ], [ 130.415990481549898, 33.664144917830612 ], [ 130.416421358850869, 33.664308402243933 ], [ 130.415990481549898, 33.664144917830619 ] ] ] ] } }
]
}
