{
"type": "FeatureCollection",
"name": "東区B",
"crs": { "type": "name", "properties": { "name": "urn:ogc:def:crs:EPSG::4612" } },
"features": [
{ "type": "Feature", "properties": { "KEY_CODE": "4013122691", "PREF": "40", "CITY": "131", "K_AREA": "043001230", "S_AREA": "22691", "PREF_NAME": "福岡県", "CITY_NAME": "福岡市東区", "S_NAME": "唐原一丁目", "KIGO_E": null, "HCODE": 8101, "AREA": 4582.322, "PERIMETER": 406.709, "KIHON1": "0430", "DUMMY1": "-", "KIHON2": "01", "KIHON3": "230", "C1": 42, "C2": 2269, "DUMMY2": "-", "C3": 1, "DUMMY3": null, "C4": 0, "KIGO_A": null, "KIGO_D": null, "N_KEN": null, "N_CITY": null, "N_C1": 0, "KIGO_I": null, "KEYCODE1": "1312269-1-00", "JINKO": 130, "SETAI": 64, "KEN_OLD": "40", "CITY_OLD": "131", "X_CODE": 130.436602, "Y_CODE": 33.676315, "KCODE1": "0430-01230", "CCODE1": "2269-1" }, "geometry": { "type": "MultiPolygon", "coordinates": [ [ [ [ 130.430043684532905, 33.668398053697629 ], [ 130.429973909703875, 33.668743453677813 ], [ 130.429828176028991, 33.669007920646216 ], [ 130.429703753424349, 33.66930453588899 ], [ 130.429438240767666, 33.66964783164223 ], [ 130.42930888388841, 33.669780084777159 ], [ 130.429134124053661, 33.669917480144278 ], [ 130.429016662900608, 33.670034294612407 ], [ 130.428954017785969, 33.670193622924742 ], [ 130.428951114456623, 33.670269331347491 ], [ 130.428862649953459, 33.67041537096231 ], [ 130.428818830714448, 33.670575210061571 ], [ 130.428759470515786, 33.670747233930619 ], [ 130.428720622958537, 33.670875679320389 ], [ 130.428577660608681, 33.671165447742993 ], [ 130.42842098908244, 33.671420138361519 ], [ 130.428269772053056, 33.671728602682002 ], [ 130.428149994081735, 33.672003259943068 ], [ 130.42795665833566, 33.672329561510153 ], [ 130.42779789821833, 33.672637851509315 ], [ 130.427676285145537, 33.672764009668406 ], [ 130.427560862315147, 33.673022980334466 ], [ 130.427376134291933, 33.673321075641269 ], [ 130.427286212580469, 33.673407089883703 ], [ 130.427096766619769, 33.67353455051007 ], [ 130.427056457642578, 33.673602976663012 ], [ 130.427028469700531, 33.673643278142578 ], [ 130.42689299824761, 33.673838473660403 ], [ 130.426866283100424, 33.673864697230087 ], [ 130.426752090616219, 33.673976798490941 ], [ 130.426518476587972, 33.674175693589795 ], [ 130.426303146480336, 33.674387705904984 ], [ 130.426070225881915, 33.674665640224973 ], [ 130.4259498679003, 33.674767007204416 ], [ 130.425939471162536, 33.674784358835709 ], [ 130.425931613727329, 33.674794042021503 ], [ 130.425919945433634, 33.674806736984884 ], [ 130.425897149979022, 33.67482649580532 ], [ 130.425852722760112, 33.674855174252109 ], [ 130.425762859121392, 33.674907018801875 ], [ 130.425745480610971, 33.674923068335389 ], [ 130.425706438583717, 33.674959094891918 ], [ 130.425677938110766, 33.675025673059807 ], [ 130.425671204368825, 33.675075298691041 ], [ 130.425670662761121, 33.675150033402751 ], [ 130.425689775445619, 33.675353910055257 ], [ 130.42569351287915, 33.675444091785614 ], [ 130.425701731031268, 33.675500059000022 ], [ 130.42571544126568, 33.67554788283514 ], [ 130.425723750026407, 33.6755965939576 ], [ 130.425722329866403, 33.675645334090106 ], [ 130.425750995581808, 33.675718442613835 ], [ 130.425775480408618, 33.675760966383322 ], [ 130.425837484609417, 33.675844231545788 ], [ 130.426019522595453, 33.676038931845348 ], [ 130.426108478899636, 33.676123173050001 ], [ 130.426163197284154, 33.676168509720213 ], [ 130.426236169879417, 33.676217521540849 ], [ 130.426449052875114, 33.67631677417863 ], [ 130.426518825630836, 33.676365845253684 ], [ 130.426614393588125, 33.676419120092746 ], [ 130.42669514288005, 33.676452320790297 ], [ 130.426740397170363, 33.676457039282326 ], [ 130.426788968804658, 33.676450928024963 ], [ 130.426934706111098, 33.676410464795936 ], [ 130.42694883201284, 33.6764084854195 ], [ 130.427053604949464, 33.676389042189065 ], [ 130.427148053591935, 33.676389266128702 ], [ 130.427238917193449, 33.676402718442752 ], [ 130.427242498248006, 33.676402735067029 ], [ 130.427340231213208, 33.676421930411976 ], [ 130.427376911603545, 33.676423929369655 ], [ 130.427414698877584, 33.676417767812652 ], [ 130.427453526464262, 33.67641343978336 ], [ 130.427622529849828, 33.676415208460746 ], [ 130.427698413700512, 33.67640738823269 ], [ 130.427821491412033, 33.67638450170714 ], [ 130.427867861937273, 33.676386476667517 ], [ 130.428024349804957, 33.676382556987875 ], [ 130.428114980105789, 33.676361490984355 ], [ 130.428219756899182, 33.676309708348221 ], [ 130.428273772261406, 33.676283123978315 ], [ 130.428311855973021, 33.676270477451794 ], [ 130.428311855973021, 33.676270477451787 ], [ 130.428381713088356, 33.67626889866677 ], [ 130.428448060585396, 33.676282447279092 ], [ 130.428564939293494, 33.676323919786412 ], [ 130.428732711116822, 33.676396828212305 ], [ 130.428949928046308, 33.676497432832903 ], [ 130.429147651346113, 33.676602531047173 ], [ 130.429386743771232, 33.676796363420607 ], [ 130.430148149708828, 33.676143233327053 ], [ 130.429386743771232, 33.676796363420614 ], [ 130.429464674992317, 33.676873363544757 ], [ 130.429553301296721, 33.676932100634851 ], [ 130.429678777744243, 33.676998610680208 ], [ 130.429758639132558, 33.677076537478982 ], [ 130.429860152427324, 33.677142303715563 ], [ 130.429908502766779, 33.677169576456549 ], [ 130.430022394468466, 33.6772111003948 ], [ 130.430119412035168, 33.677243598638768 ], [ 130.430201126667953, 33.677277295169255 ], [ 130.430273079681797, 33.677321791718931 ], [ 130.430352212698637, 33.677382808958093 ], [ 130.430456594798898, 33.677460633908062 ], [ 130.430769452697405, 33.67793544081055 ], [ 130.430787466293339, 33.677982366035685 ], [ 130.430819632250007, 33.678030202393771 ], [ 130.430902688221636, 33.678084195497561 ], [ 130.430955659586061, 33.678151781911325 ], [ 130.431034655075223, 33.678278376385748 ], [ 130.431102078670904, 33.678351731389867 ], [ 130.431198668410786, 33.678423395976118 ], [ 130.431344794038694, 33.678508808007749 ], [ 130.431472270597737, 33.678567227092479 ], [ 130.431529375419615, 33.678627365138375 ], [ 130.431537587754292, 33.67863444818618 ], [ 130.431620489278799, 33.678705620116077 ], [ 130.431775480269835, 33.678788679685383 ], [ 130.43190378532185, 33.678880562190123 ], [ 130.43202370303942, 33.678896471041497 ], [ 130.432038026349176, 33.678915767391779 ], [ 130.432101026375676, 33.679040598297867 ], [ 130.432220322374491, 33.679170123860928 ], [ 130.432354669438865, 33.679202162660459 ], [ 130.432450526974463, 33.679168296145527 ], [ 130.432577841040114, 33.679078789332472 ], [ 130.432983133166516, 33.678827768305908 ], [ 130.433089722223116, 33.678942018813594 ], [ 130.432969034813681, 33.679061428024141 ], [ 130.432883453273377, 33.67931363789728 ], [ 130.432833789229022, 33.679491551142135 ], [ 130.432500759612225, 33.679918795367442 ], [ 130.432469849438519, 33.680076581988949 ], [ 130.432467675449629, 33.680291275175108 ], [ 130.432341651350214, 33.68040826089527 ], [ 130.432374602288377, 33.680490480170285 ], [ 130.432193668130566, 33.680526768312909 ], [ 130.432220783018266, 33.680644179081938 ], [ 130.432323189638623, 33.680563006441737 ], [ 130.432350484654307, 33.680646534222532 ], [ 130.432310825116218, 33.680814497777803 ], [ 130.432287794468067, 33.681042266330074 ], [ 130.432343112913571, 33.681233065516707 ], [ 130.43255621393763, 33.681225588567017 ], [ 130.432537109933804, 33.681196693064827 ], [ 130.432749806226099, 33.681160687504125 ], [ 130.433259276917198, 33.681129359886455 ], [ 130.433390732460424, 33.681121298922342 ], [ 130.433441493505768, 33.681077576849788 ], [ 130.433544663906076, 33.681001200001752 ], [ 130.433711526447439, 33.680849672552796 ], [ 130.433721530371542, 33.680840559488168 ], [ 130.433951690817196, 33.680609022216181 ], [ 130.434052747375631, 33.680495863915553 ], [ 130.43420655219316, 33.680394710563249 ], [ 130.434323369964176, 33.680344741694249 ], [ 130.434377347164315, 33.680336886816065 ], [ 130.434478887099175, 33.680335521959364 ], [ 130.434486930824619, 33.680303858713231 ], [ 130.43439941666179, 33.680318531347631 ], [ 130.434455752634875, 33.680080349446428 ], [ 130.434697680684792, 33.679180021979299 ], [ 130.434710545235362, 33.679139366549272 ], [ 130.435055687719654, 33.679187229000668 ], [ 130.435412650647891, 33.679243596064964 ], [ 130.435627377658591, 33.679276065225601 ], [ 130.435629676193656, 33.679253325482897 ], [ 130.435746483638297, 33.679268580397796 ], [ 130.435846781815002, 33.679276437049687 ], [ 130.43593441775684, 33.679294519511693 ], [ 130.436001395146661, 33.679308350784389 ], [ 130.436078733086617, 33.679342022292424 ], [ 130.436117106212208, 33.679355794688867 ], [ 130.436800188365822, 33.679631100669916 ], [ 130.436907414531191, 33.679681181342325 ], [ 130.436912706446861, 33.679683672619404 ], [ 130.437073509275194, 33.679761328634577 ], [ 130.436898911294236, 33.680034054430784 ], [ 130.436757825640257, 33.680258397478809 ], [ 130.436646863876803, 33.680450056329356 ], [ 130.436708399713268, 33.68043948703346 ], [ 130.436767603721052, 33.68039911538586 ], [ 130.436772374680544, 33.680391105255488 ], [ 130.436980137560369, 33.680239550374949 ], [ 130.437180103183408, 33.680056120582641 ], [ 130.437303224869567, 33.68018812517321 ], [ 130.437417560818773, 33.680265849818468 ], [ 130.437624270830156, 33.680242703270878 ], [ 130.437701221682119, 33.680239181357663 ], [ 130.437852803756698, 33.680251848698788 ], [ 130.43802909325106, 33.680268150631662 ], [ 130.438029093251089, 33.680268150631633 ], [ 130.438086749589331, 33.680270876873102 ], [ 130.438447438009433, 33.680035416702822 ], [ 130.438552112074092, 33.68001215340248 ], [ 130.438592143034271, 33.680004518491884 ], [ 130.439047596271905, 33.680179314709001 ], [ 130.439906813942173, 33.680581569636956 ], [ 130.440128901129071, 33.680687749369369 ], [ 130.440635198018441, 33.6807416132391 ], [ 130.441023350763572, 33.680817056526628 ], [ 130.441324636798697, 33.680879284880248 ], [ 130.441662029979426, 33.680934562176198 ], [ 130.442047028492084, 33.681100364073885 ], [ 130.442321908389374, 33.681304199519836 ], [ 130.442671919484582, 33.681538734824755 ], [ 130.442972291406079, 33.681788048293974 ], [ 130.443077019604829, 33.681854173016355 ], [ 130.443146293261776, 33.681897877235521 ], [ 130.443699096585107, 33.681497944754291 ], [ 130.443753535572654, 33.681477479699076 ], [ 130.443810020714835, 33.681433357103955 ], [ 130.443823793775408, 33.681407918865375 ], [ 130.443901551657007, 33.681351281573235 ], [ 130.444084831531598, 33.681022937124254 ], [ 130.444254685503324, 33.680848795205364 ], [ 130.444421021586322, 33.680743249570689 ], [ 130.444469266525203, 33.680618151864394 ], [ 130.444483048037768, 33.680493390698345 ], [ 130.444514565687456, 33.680434009004848 ], [ 130.44452544569765, 33.680412784659168 ], [ 130.444513327983202, 33.680397232280981 ], [ 130.44478137140959, 33.680218322756943 ], [ 130.444885090284117, 33.680192584187587 ], [ 130.445226963919936, 33.680167426267666 ], [ 130.445311199670329, 33.680144982989475 ], [ 130.445446605554736, 33.68002647493504 ], [ 130.445494623565963, 33.679995205231847 ], [ 130.445587580366606, 33.679965825603411 ], [ 130.445826181308377, 33.679923013866208 ], [ 130.445905087565166, 33.679896955838693 ], [ 130.446080867239402, 33.679737278617083 ], [ 130.446113733442189, 33.679703473395627 ], [ 130.446268452928194, 33.679660846013036 ], [ 130.446589224667662, 33.679536196257054 ], [ 130.446744459100728, 33.679478709495484 ], [ 130.446973207480113, 33.679323073566046 ], [ 130.447061123728901, 33.679291277263324 ], [ 130.447288086792412, 33.679321599438644 ], [ 130.44748854408499, 33.679366030536841 ], [ 130.447592681775348, 33.679392982560167 ], [ 130.447951175102219, 33.679514975977668 ], [ 130.448093362715241, 33.679547524670276 ], [ 130.448261760921497, 33.679539684832378 ], [ 130.448283234520318, 33.679534921095396 ], [ 130.447927327545983, 33.67877973455893 ], [ 130.448283234520346, 33.679534921095396 ], [ 130.448399676799539, 33.679509236662959 ], [ 130.448618754274293, 33.679462037108657 ], [ 130.448828638524617, 33.679396688541786 ], [ 130.449091172959072, 33.679273885296176 ], [ 130.449341200884845, 33.679242038896383 ], [ 130.44967022128921, 33.679216950296762 ], [ 130.449871576276479, 33.679246663556931 ], [ 130.450046336307992, 33.679331269722852 ], [ 130.4501057990704, 33.679400568000133 ], [ 130.450215527782319, 33.679462765807948 ], [ 130.450586910686326, 33.679592206529826 ], [ 130.450783786745433, 33.679690222329882 ], [ 130.451008393342107, 33.679879304519943 ], [ 130.451081555079128, 33.679895056433011 ], [ 130.451373926796066, 33.679830147143015 ], [ 130.451616187360571, 33.679754585219783 ], [ 130.451700584351869, 33.679666482906001 ], [ 130.451721019137182, 33.679620154687036 ], [ 130.451676629350516, 33.67957811270734 ], [ 130.451495980718931, 33.679551385420503 ], [ 130.451177577743721, 33.679517353626977 ], [ 130.450991254319888, 33.679461857171212 ], [ 130.450905590990061, 33.679411461829346 ], [ 130.450863129621723, 33.6792526383826 ], [ 130.451038867431151, 33.678998280928425 ], [ 130.451068818696683, 33.678866617124946 ], [ 130.451041796737229, 33.67862480845934 ], [ 130.450994413139199, 33.678432009975751 ], [ 130.450935646536209, 33.67831227806645 ], [ 130.450827883628932, 33.678173308124656 ], [ 130.45062491084164, 33.678008066083514 ], [ 130.450480471780594, 33.677800395533886 ], [ 130.450423651862081, 33.677686377844083 ], [ 130.450210497960626, 33.67733491293329 ], [ 130.450061787581063, 33.67718273357179 ], [ 130.449684545846793, 33.676983390672753 ], [ 130.449619178000688, 33.676928015536106 ], [ 130.449599074267866, 33.67673843820193 ], [ 130.449469025435945, 33.676409251645822 ], [ 130.449477216150626, 33.676241566406347 ], [ 130.44935643798226, 33.676011460999945 ], [ 130.449220155385291, 33.675879551143716 ], [ 130.449186118753573, 33.675761658754766 ], [ 130.4491709549051, 33.675663034314653 ], [ 130.44925819779516, 33.675428515705825 ], [ 130.449048824377201, 33.675412394044635 ], [ 130.448583443858212, 33.675288029429517 ], [ 130.448570324735556, 33.675231618048464 ], [ 130.448527458629002, 33.675103856188791 ], [ 130.448349262135537, 33.674986057866235 ], [ 130.448224654756643, 33.674899630854398 ], [ 130.448128157105259, 33.674851510764476 ], [ 130.4480617057568, 33.674828109603837 ], [ 130.448039974643905, 33.674820474532623 ], [ 130.447974800219782, 33.674808066163685 ], [ 130.448010205984787, 33.674686925157147 ], [ 130.448053432275998, 33.674541728958786 ], [ 130.448077626325755, 33.674427864090092 ], [ 130.448083653284527, 33.674355265498363 ], [ 130.448069937800284, 33.674306531651816 ], [ 130.448070076494162, 33.674284907490446 ], [ 130.448084439353607, 33.674232703635838 ], [ 130.448063247233193, 33.674174001939733 ], [ 130.448062324153767, 33.674146948527799 ], [ 130.448042003190778, 33.674123400152411 ], [ 130.448023476226609, 33.6741024677723 ], [ 130.448125407281708, 33.674039102223205 ], [ 130.448254094052402, 33.674033552942184 ], [ 130.448356839351078, 33.673955763124852 ], [ 130.448359627942352, 33.673953651378099 ], [ 130.44844099402809, 33.673937181922774 ], [ 130.448480033058871, 33.673926086136404 ], [ 130.448513472164649, 33.673920811312783 ], [ 130.448550281777869, 33.673913894553976 ], [ 130.448555587697484, 33.673912899659911 ], [ 130.44847665516582, 33.673608690999814 ], [ 130.448390451920972, 33.673573959712925 ], [ 130.448395758598195, 33.673574349431185 ], [ 130.448289472704573, 33.673536623038103 ], [ 130.448188519558499, 33.673555185055982 ], [ 130.447969422171383, 33.673584558175691 ], [ 130.447900849580833, 33.67357023212147 ], [ 130.447825379156598, 33.673534531549301 ], [ 130.447780326006267, 33.673485231843131 ], [ 130.447823345050097, 33.673457531161404 ], [ 130.447884214756357, 33.673418357051794 ], [ 130.448002829488331, 33.67330829306168 ], [ 130.448116904814583, 33.673188584635135 ], [ 130.448315953971132, 33.672979701473068 ], [ 130.448336688898706, 33.67295794002937 ], [ 130.448378830297031, 33.672899392021641 ], [ 130.448540453250985, 33.672674834559139 ], [ 130.448576843464451, 33.672629915254497 ], [ 130.448514049981725, 33.672443174553337 ], [ 130.448537559081814, 33.672272039681296 ], [ 130.448510144460499, 33.672184782206003 ], [ 130.448348715216298, 33.672093895387604 ], [ 130.448245594550059, 33.671982207075686 ], [ 130.448163697729768, 33.671993796064818 ], [ 130.447637219517645, 33.672068309836348 ], [ 130.447558796704442, 33.672079437878104 ], [ 130.446643219907656, 33.672222406899998 ], [ 130.446643219907656, 33.672222406899984 ], [ 130.446629796069971, 33.672180929038731 ], [ 130.446425651800354, 33.672286447014628 ], [ 130.446183234120014, 33.672429128486861 ], [ 130.446014405905714, 33.672512263464206 ], [ 130.445697405410243, 33.67264964751157 ], [ 130.445670632501674, 33.67266125051335 ], [ 130.445638495583779, 33.672673714288742 ], [ 130.445308897268887, 33.672805856120519 ], [ 130.44527626941138, 33.672820126492852 ], [ 130.445117087719467, 33.672889748787206 ], [ 130.445104689623321, 33.672895171380979 ], [ 130.444803335227533, 33.673011099555751 ], [ 130.444644027556251, 33.673081251193537 ], [ 130.444608413936095, 33.673096932162089 ], [ 130.444570622692794, 33.673117544621704 ], [ 130.444353783607966, 33.673205037952748 ], [ 130.443744128566749, 33.67347424293235 ], [ 130.443734287845047, 33.673478585653179 ], [ 130.443472582839377, 33.673592148814777 ], [ 130.443178503288323, 33.673728815036206 ], [ 130.442903487359416, 33.673868315059778 ], [ 130.442627932486943, 33.674019221272374 ], [ 130.442228703332006, 33.67425332081541 ], [ 130.442001694285807, 33.674453399078814 ], [ 130.442110196715049, 33.674072594301535 ], [ 130.442214723467032, 33.673655211495905 ], [ 130.442297274383833, 33.673235549313269 ], [ 130.442159390998341, 33.673216093211551 ], [ 130.442074464190682, 33.673204110155176 ], [ 130.441728801080075, 33.673169152759932 ], [ 130.441539657157023, 33.673182033271921 ], [ 130.441353744328353, 33.673216691639965 ], [ 130.441218077119174, 33.673291659590717 ], [ 130.441139166103653, 33.673357587176561 ], [ 130.441030811857587, 33.673488396478852 ], [ 130.440835717592392, 33.673483957337588 ], [ 130.440431452725818, 33.673474757207359 ], [ 130.440431452725818, 33.673474757207352 ], [ 130.440356646370901, 33.673466951832332 ], [ 130.440160368556406, 33.673456409804103 ], [ 130.439906692629279, 33.673442717944809 ], [ 130.439453628753654, 33.673423822328417 ], [ 130.439456227152021, 33.673413057783229 ], [ 130.439152664681842, 33.673407379012552 ], [ 130.439020467768898, 33.673401987799146 ], [ 130.438944451356946, 33.673398893399764 ], [ 130.438896398568403, 33.673396985109761 ], [ 130.43871666656139, 33.6734330759542 ], [ 130.438343412943141, 33.673590925630499 ], [ 130.438321347550186, 33.673596179116373 ], [ 130.438022369588737, 33.673752604266888 ], [ 130.437709575379188, 33.673921501959839 ], [ 130.437656502908936, 33.673952959862227 ], [ 130.437440912516024, 33.67407996597445 ], [ 130.437287255463445, 33.674154566350964 ], [ 130.437296827825691, 33.674178701979912 ], [ 130.437287255463417, 33.674154566350964 ], [ 130.43704831892984, 33.67426991341145 ], [ 130.436893898797905, 33.674306472791194 ], [ 130.436674049864109, 33.674331105177231 ], [ 130.436611322463961, 33.674337793715672 ], [ 130.43653704450773, 33.674339214022332 ], [ 130.436462593738042, 33.674347679244562 ], [ 130.436351960352397, 33.67438788759727 ], [ 130.436240677256734, 33.67445626982957 ], [ 130.436140549135985, 33.674551681909143 ], [ 130.436128738466039, 33.674708077320751 ], [ 130.436119720110298, 33.674933166024893 ], [ 130.436037701908759, 33.675119036137367 ], [ 130.435956218302834, 33.67521051936447 ], [ 130.435659441926703, 33.675414917699044 ], [ 130.435527715509437, 33.675491377952149 ], [ 130.435438470093288, 33.675533021861114 ], [ 130.435234203466194, 33.675628238979733 ], [ 130.435206876543646, 33.675286684551928 ], [ 130.435166932467666, 33.675031788448585 ], [ 130.43508474255583, 33.67460911940065 ], [ 130.435044428238967, 33.674090204433632 ], [ 130.435020953061581, 33.673867715750816 ], [ 130.435009131308533, 33.673755746798328 ], [ 130.434958852454827, 33.673279528962702 ], [ 130.43487784652919, 33.672433865637529 ], [ 130.434834895923984, 33.672053359425561 ], [ 130.434826219815221, 33.671976327633544 ], [ 130.434796276535536, 33.671674139307477 ], [ 130.434766464895148, 33.671364976251333 ], [ 130.434736592190063, 33.671129073786645 ], [ 130.434669920502671, 33.670704713804241 ], [ 130.43466831846996, 33.670692240049988 ], [ 130.434614917256937, 33.670273857309553 ], [ 130.434590867490158, 33.670138922391843 ], [ 130.434564481122919, 33.669948595784106 ], [ 130.434526363120654, 33.669673645151605 ], [ 130.434518489329236, 33.669593665866813 ], [ 130.43449801625556, 33.669385692859557 ], [ 130.43449560482091, 33.669361380817634 ], [ 130.434503354087923, 33.669268983624292 ], [ 130.4345199711058, 33.669070856820788 ], [ 130.434398501405155, 33.669254009919584 ], [ 130.434326973418962, 33.669381742440379 ], [ 130.434304763327759, 33.66939643486338 ], [ 130.43420021258251, 33.669395955575531 ], [ 130.434028193441094, 33.669546823176859 ], [ 130.433928066169102, 33.669482754765255 ], [ 130.433628623534474, 33.669345501622352 ], [ 130.433457782863712, 33.66967536616238 ], [ 130.433349533452741, 33.669845968276313 ], [ 130.433295513646016, 33.669784579790907 ], [ 130.433105575477754, 33.669637614270862 ], [ 130.432972986693784, 33.669564659117604 ], [ 130.432773575761104, 33.669467873332806 ], [ 130.432594156251383, 33.669437885500024 ], [ 130.432377883792356, 33.66938800558632 ], [ 130.432091440209916, 33.669304696333 ], [ 130.431936384008338, 33.669228049726158 ], [ 130.431857301650922, 33.669134491956299 ], [ 130.431718600714362, 33.668928866773783 ], [ 130.431297516803681, 33.669305759353428 ], [ 130.431718600714362, 33.668928866773776 ], [ 130.431466213055018, 33.668549932550704 ], [ 130.431357137574338, 33.668259986579841 ], [ 130.431353654885925, 33.668155792986596 ], [ 130.431436656030826, 33.667956119081502 ], [ 130.431314443153497, 33.667957602662412 ], [ 130.431239795834159, 33.667958522772814 ], [ 130.430868274719103, 33.66796308213047 ], [ 130.430839294975073, 33.668706803273523 ], [ 130.430868274719074, 33.66796308213047 ], [ 130.430321932017137, 33.667752902692946 ], [ 130.430218148912076, 33.667878653516723 ], [ 130.430321932017108, 33.667752902692946 ], [ 130.430142734540738, 33.667683959761504 ], [ 130.430034734893013, 33.667848431190663 ], [ 130.430000244906239, 33.667961117495928 ], [ 130.430042602032472, 33.668230678655455 ], [ 130.430043684532905, 33.668398053697629 ] ] ] ] } }
]
}
