{
"type": "FeatureCollection",
"name": "武雄",
"crs": { "type": "name", "properties": { "name": "urn:ogc:def:crs:OGC:1.3:CRS84" } },
"features": [
{ "type": "Feature", "properties": { "id": "武雄.1", "Name": null, "description": null, "timestamp": null, "begin": null, "end": null, "altitudeMode": null, "tessellate": -1, "extrude": 0, "visibility": -1, "drawOrder": null, "icon": null, "KEY_CODE": "4120600321", "PREF": "41", "CITY": "206", "K_AREA": "001007010", "S_AREA": "00321", "PREF_NAME": "佐賀県", "CITY_NAME": "武雄市", "S_NAME": "武雄町大字富岡西浦", "KIGO_E": null, "HCODE": 8101, "AREA": 34830.264, "PERIMETER": 848.683, "KIHON1": "0010", "DUMMY1": "-", "KIHON2": "07", "KIHON3": "010", "C1": 2, "C2": 32, "DUMMY2": "-", "C3": 1, "DUMMY3": null, "C4": 0, "KIGO_A": null, "KIGO_D": null, "N_KEN": null, "N_CITY": null, "N_C1": 0, "KIGO_I": null, "KEYCODE1": "2060032-1-00", "JINKO": 90, "SETAI": 44, "KEN_OLD": "41", "CITY_OLD": "206", "X_CODE": 130.020991, "Y_CODE": 33.196245, "KCODE1": "0010-07010", "CCODE1": "32-1" }, "geometry": { "type": "MultiPolygon", "coordinates": [ [ [ [ 130.002181192698998, 33.178016751433901 ], [ 130.001987274718005, 33.178133334979798 ], [ 130.001820367725998, 33.178158254191203 ], [ 130.001072985884008, 33.177955363242098 ], [ 130.000803996483, 33.177800054795199 ], [ 130.000684744213004, 33.177759718152998 ], [ 130.000392197036007, 33.177849265725399 ], [ 130.000267417722995, 33.1778307577476 ], [ 130.000133197602992, 33.177729028904302 ], [ 129.999984393115994, 33.177539690533997 ], [ 129.999799647917996, 33.177306315661497 ], [ 129.999567300336992, 33.177133792985998 ], [ 129.998913950582988, 33.1767667990433 ], [ 129.998284805655004, 33.1763419845146 ], [ 129.997759745540009, 33.176097888134002 ], [ 129.997260259667001, 33.176014995239299 ], [ 129.997215621207005, 33.176006797286597 ], [ 129.997038272215008, 33.175985886847499 ], [ 129.996811297121013, 33.1760709158998 ], [ 129.996532311070013, 33.176177219616001 ], [ 129.996351928380989, 33.176143198349102 ], [ 129.99594576565201, 33.176074771658101 ], [ 129.995777578311987, 33.176095127303697 ], [ 129.995582416530993, 33.176218398655998 ], [ 129.995286830162996, 33.1766557141882 ], [ 129.995215367212012, 33.1766931412917 ], [ 129.994931726080011, 33.176641992173103 ], [ 129.994598101745993, 33.176449301126297 ], [ 129.994239962166006, 33.176136968559497 ], [ 129.993882010829992, 33.1758083629746 ], [ 129.993663532465007, 33.175714326966897 ], [ 129.99338537198301, 33.1757554870265 ], [ 129.993278528524002, 33.175773624122598 ], [ 129.993025793600992, 33.175847568425198 ], [ 129.992754455855987, 33.175856236338298 ], [ 129.992599624088996, 33.175844113619497 ], [ 129.992538823372001, 33.176077043693702 ], [ 129.992395253224998, 33.176200744234301 ], [ 129.992056972031008, 33.176415133251901 ], [ 129.991990527777006, 33.176577446377898 ], [ 129.991930408575996, 33.176750661648398 ], [ 129.991819790276992, 33.176820333211303 ], [ 129.991535177082994, 33.176861453161699 ], [ 129.990896579896997, 33.176791123079397 ], [ 129.990387515640009, 33.176689278299399 ], [ 129.989935025, 33.176723605903597 ], [ 129.989721854863006, 33.176721872643 ], [ 129.989671607617993, 33.1765965993254 ], [ 129.989748176483999, 33.1763990913675 ], [ 129.989873999066987, 33.176128704158103 ], [ 129.989889264809989, 33.175922546843999 ], [ 129.989516777705006, 33.175175820477698 ], [ 129.989090621189007, 33.174602375908101 ], [ 129.988982455361992, 33.174465800028997 ], [ 129.988432379736992, 33.174559031780099 ], [ 129.988286840505992, 33.1745768313978 ], [ 129.98794466526499, 33.174568619843399 ], [ 129.987654585226011, 33.174517401965097 ], [ 129.987378217507, 33.174380934650998 ], [ 129.986976144264986, 33.173979901921399 ], [ 129.986698281259009, 33.173434798361299 ], [ 129.986610695691013, 33.173184370704 ], [ 129.986476154825993, 33.173090988789497 ], [ 129.986112462897012, 33.172987602320397 ], [ 129.985790328637989, 33.1729198292037 ], [ 129.985226662569005, 33.172513527645897 ], [ 129.984958126717999, 33.172272486993897 ], [ 129.984856606184991, 33.172119671466298 ], [ 129.984469401234009, 33.1720947929822 ], [ 129.983952543274995, 33.172112283171799 ], [ 129.983610289941993, 33.171951897092001 ], [ 129.983425707951, 33.171869110947597 ], [ 129.983189278162996, 33.171720841892302 ], [ 129.982843479242007, 33.171512311150103 ], [ 129.982625746303995, 33.171362661235598 ], [ 129.982602917064014, 33.171352155661602 ], [ 129.982537740081, 33.171302150310098 ], [ 129.982302140271997, 33.171140204333398 ], [ 129.982168846404988, 33.171019196107601 ], [ 129.981756034429992, 33.170702575343697 ], [ 129.981640475835007, 33.170627060829098 ], [ 129.981638052152988, 33.170612088820697 ], [ 129.981603056863008, 33.170588819593199 ], [ 129.981512867985998, 33.170528836502598 ], [ 129.981191305717999, 33.170173459550099 ], [ 129.980886060817994, 33.169769241055697 ], [ 129.979924909986011, 33.169109969255899 ], [ 129.979565653902995, 33.1689007392905 ], [ 129.979208622524993, 33.168506978906898 ], [ 129.979107286036992, 33.168332430220197 ], [ 129.979161353109987, 33.168126611840002 ], [ 129.979266591698007, 33.167964626352898 ], [ 129.979074173836011, 33.167843623970697 ], [ 129.979076314107999, 33.167659075560202 ], [ 129.978949812789011, 33.1674300419023 ], [ 129.978771092047992, 33.167254875098898 ], [ 129.978748360413988, 33.166983282147598 ], [ 129.978632995408987, 33.166906325017599 ], [ 129.978140406933989, 33.167065126696997 ], [ 129.977725707341989, 33.167181139239098 ], [ 129.977547634476991, 33.167159527600198 ], [ 129.977371810813992, 33.166901046912699 ], [ 129.97723091531401, 33.166613759220198 ], [ 129.976603677316007, 33.167115358654598 ], [ 129.976410860865002, 33.167274032673603 ], [ 129.976098615062, 33.167561233915997 ], [ 129.975782294764997, 33.167881634976801 ], [ 129.975334573048997, 33.168466508269098 ], [ 129.975286945521987, 33.168557323614003 ], [ 129.975257212753007, 33.168672184208297 ], [ 129.975240454563988, 33.168780618587903 ], [ 129.975254432176996, 33.168911020894001 ], [ 129.975465858436991, 33.169399218400997 ], [ 129.975580127568008, 33.1697718778438 ], [ 129.975652311505996, 33.170032696348997 ], [ 129.975831573025005, 33.170839883959999 ], [ 129.975850591751993, 33.170947717533302 ], [ 129.975858221880998, 33.171055280576702 ], [ 129.975835538719991, 33.171212576931701 ], [ 129.975775509779993, 33.171440977988503 ], [ 129.975466872048997, 33.1722028453066 ], [ 129.975435298738006, 33.172425933179099 ], [ 129.975522677375011, 33.172561946297598 ], [ 129.975688219960006, 33.172819486293903 ], [ 129.975918705558001, 33.173291419978398 ], [ 129.975967566560001, 33.1735417657057 ], [ 129.975989725286013, 33.1738625471164 ], [ 129.976044341333989, 33.174172730711803 ], [ 129.976073770325002, 33.1744229344012 ], [ 129.976471105660011, 33.174456093335998 ], [ 129.976877160094006, 33.174568117726899 ], [ 129.976608472060008, 33.174875620981901 ], [ 129.976444233485012, 33.175097054072303 ], [ 129.976397364444011, 33.175237947572398 ], [ 129.976403624595008, 33.175254307379397 ], [ 129.976402867975992, 33.175319500033801 ], [ 129.97645532295499, 33.175534562288 ], [ 129.976480196103012, 33.175621715097002 ], [ 129.976575296486004, 33.175785527289698 ], [ 129.976896021675998, 33.176010954764102 ], [ 129.977065975508992, 33.176134612567999 ], [ 129.977623399328991, 33.176579344058403 ], [ 129.977729138504998, 33.176635039394299 ], [ 129.977895423006998, 33.176728549047098 ], [ 129.978504199506006, 33.1769711857185 ], [ 129.97852619415599, 33.177068370516402 ], [ 129.978541566134993, 33.177238236310799 ], [ 129.978638468902005, 33.177340880314603 ], [ 129.978804671648987, 33.177434387990303 ], [ 129.979168820859002, 33.1776289396173 ], [ 129.979242971701012, 33.177707161766101 ], [ 129.979228773561999, 33.177934991617299 ], [ 129.979227762998988, 33.178022265244103 ], [ 129.979399437577996, 33.178149773004399 ], [ 129.979368125532005, 33.178358053764001 ], [ 129.979312322937005, 33.178692228338797 ], [ 129.979446462209012, 33.179066762488901 ], [ 129.979532567162011, 33.179111109830799 ], [ 129.979705281766002, 33.179141638093 ], [ 129.979788539332986, 33.179178688943097 ], [ 129.979884549854006, 33.179358919273099 ], [ 129.979894259416, 33.179519035239998 ], [ 129.979787254130997, 33.179789741055203 ], [ 129.979813937382005, 33.179974264257297 ], [ 129.979718602822999, 33.180235361331199 ], [ 129.979704968536993, 33.180414691754201 ], [ 129.979714677203987, 33.180574807693503 ], [ 129.979777889183993, 33.180599576869497 ], [ 129.980021336311012, 33.180504589518598 ], [ 129.980634598833007, 33.180368974806001 ], [ 129.980917635334009, 33.180342202754602 ], [ 129.981234844259006, 33.180359349514099 ], [ 129.981592259747998, 33.180391373012199 ], [ 129.981800355911986, 33.180354278833398 ], [ 129.982216939016013, 33.180260705213698 ], [ 129.982419898977014, 33.180175067776403 ], [ 129.982617189585, 33.180079679156201 ], [ 129.982772429524005, 33.180129450942999 ], [ 129.982892012417011, 33.180271073634799 ], [ 129.982980963372, 33.180562777628701 ], [ 129.983037921304003, 33.180621448245901 ], [ 129.983164682520993, 33.180641893634402 ], [ 129.983314088138997, 33.180696460747399 ], [ 129.983359570962989, 33.1807550214047 ], [ 129.983332289828013, 33.1808687792741 ], [ 129.983225236521008, 33.181144331620203 ], [ 129.983165567144994, 33.181313582176301 ], [ 129.983185162785986, 33.1816192827009 ], [ 129.983134759183997, 33.181987459891303 ], [ 129.983073410933002, 33.182302184384199 ], [ 129.983068221646988, 33.182977397040702 ], [ 129.983067731772991, 33.183041728015297 ], [ 129.983097469860013, 33.183317907259202 ], [ 129.983216545201003, 33.183649166217599 ], [ 129.983332111468002, 33.1838853284032 ], [ 129.983875790538008, 33.183784652515897 ], [ 129.984139052019998, 33.183773596774301 ], [ 129.984436300554989, 33.183888246643299 ], [ 129.984510708752993, 33.183908648801399 ], [ 129.984561646201001, 33.183915669297399 ], [ 129.984761968880008, 33.183913995023097 ], [ 129.985161701790986, 33.183829801681497 ], [ 129.985464782571, 33.183772874280201 ], [ 129.985755604545005, 33.183762056261699 ], [ 129.986246294669996, 33.183789149405101 ], [ 129.986564136852991, 33.1838181579703 ], [ 129.986705307535004, 33.183839105519297 ], [ 129.98677577915899, 33.183859475912598 ], [ 129.986860573255996, 33.1839165578752 ], [ 129.987079442528994, 33.184451826035101 ], [ 129.987110388564986, 33.184777009081998 ], [ 129.987166935080012, 33.184879317211703 ], [ 129.987287059947988, 33.184967577716499 ], [ 129.987427019768006, 33.1853421512672 ], [ 129.987490181039988, 33.185371776415799 ], [ 129.987628482767008, 33.185387451252801 ], [ 129.987697257753013, 33.185431670132402 ], [ 129.987705412699995, 33.185472946111602 ], [ 129.987464096872003, 33.185899518719403 ], [ 129.987223928487992, 33.186525038524799 ], [ 129.987147355180014, 33.187035617661003 ], [ 129.987137392163987, 33.187217461368903 ], [ 129.987153954540986, 33.187606225263103 ], [ 129.987291364304014, 33.1878312206373 ], [ 129.987228855980987, 33.188189506577302 ], [ 129.987366422196999, 33.188597818750502 ], [ 129.988091325639004, 33.189564420448498 ], [ 129.988253684054996, 33.189922723645402 ], [ 129.988254751408988, 33.189946524116699 ], [ 129.988256680641001, 33.189990128370198 ], [ 129.988178793698012, 33.190126352303601 ], [ 129.987891252682999, 33.190484638202499 ], [ 129.988203770560006, 33.1908262706296 ], [ 129.988341221689012, 33.191026273612202 ], [ 129.988453703776003, 33.1910512826122 ], [ 129.988833687810995, 33.191040691024099 ], [ 129.988833687810995, 33.191040691024099 ], [ 129.988888247927008, 33.1910390551662 ], [ 129.989154299761992, 33.190969154066003 ], [ 129.989491716494996, 33.191244135504398 ], [ 129.989579252336, 33.191552445875701 ], [ 129.98960427720499, 33.192344048766202 ], [ 129.989679226779998, 33.192785681063903 ], [ 129.989929230314004, 33.1934439629688 ], [ 129.989966598915998, 33.193655796101403 ], [ 129.989798018208006, 33.193854014692199 ], [ 129.989742189536003, 33.193929641115403 ], [ 129.989706936868004, 33.194022905762097 ], [ 129.989691079097014, 33.194112595036898 ], [ 129.989699765343005, 33.194261094276001 ], [ 129.989824355237999, 33.194721286109903 ], [ 129.989927408156007, 33.194860302089502 ], [ 129.990169456887003, 33.195050692204902 ], [ 129.990404314470993, 33.195217988543497 ], [ 129.990458480103001, 33.1952728476085 ], [ 129.990751999717986, 33.195731558921601 ], [ 129.990825658218, 33.195898742649 ], [ 129.990904480011011, 33.195973668400299 ], [ 129.991080426075001, 33.196054347417899 ], [ 129.991195112556994, 33.196077573874703 ], [ 129.991337726175004, 33.196076583492498 ], [ 129.991548808212997, 33.196066937323501 ], [ 129.992448968105009, 33.196083924636199 ], [ 129.99302458487, 33.196214687879397 ], [ 129.992964533680009, 33.196417893150297 ], [ 129.992332987965995, 33.1971402448616 ], [ 129.992253926128001, 33.197393699248202 ], [ 129.992491397565004, 33.197802005705903 ], [ 129.99262887122299, 33.198118644911297 ], [ 129.992491391984998, 33.198651927476 ], [ 129.992466354920992, 33.198943561495902 ], [ 129.992541342284994, 33.199368531993997 ], [ 129.992541371482986, 33.199710173406203 ], [ 129.992542850344989, 33.199947022226901 ], [ 129.992538062719007, 33.199955366949801 ], [ 129.99236018330501, 33.200057584522703 ], [ 129.992441720174014, 33.200137198131102 ], [ 129.992490650625996, 33.200210662990102 ], [ 129.992497706601, 33.200311632961601 ], [ 129.992467046169992, 33.20045754118 ], [ 129.992339652507013, 33.2007314197621 ], [ 129.992234267707005, 33.200890635015 ], [ 129.992089563616986, 33.201044317291597 ], [ 129.992042995480006, 33.201137897056597 ], [ 129.992012289385997, 33.201280334272901 ], [ 129.992035380299001, 33.201437103635598 ], [ 129.992083350156008, 33.201587136436103 ], [ 129.992185630433994, 33.201699304457598 ], [ 129.992246881354987, 33.201779844451799 ], [ 129.992279102523014, 33.201863635542402 ], [ 129.992340715224998, 33.202271273642197 ], [ 129.992520231177991, 33.202150929094202 ], [ 129.992633191363012, 33.202047444316499 ], [ 129.992721315396011, 33.201954203323503 ], [ 129.993434288456001, 33.202159162381001 ], [ 129.993649675222002, 33.202228393459599 ], [ 129.994250832198986, 33.202334488920798 ], [ 129.994925597788011, 33.202349034417999 ], [ 129.994997048308988, 33.202585796004001 ], [ 129.995185648789999, 33.202836468720101 ], [ 129.995495790278994, 33.203002496234397 ], [ 129.995603367714011, 33.203047498327997 ], [ 129.995972677063008, 33.203139207596202 ], [ 129.996523803034989, 33.203276077263197 ], [ 129.996879982568004, 33.203424721204499 ], [ 129.997092761089988, 33.203547129356998 ], [ 129.997224890626001, 33.203643824470497 ], [ 129.997441194830998, 33.204008980106899 ], [ 129.99755827182301, 33.204139879039197 ], [ 129.997715676529992, 33.204283606448101 ], [ 129.997979561521987, 33.204326744647503 ], [ 129.998065411324006, 33.204352531018102 ], [ 129.998135725412993, 33.204381151696403 ], [ 129.998213557915989, 33.204426685721302 ], [ 129.998358798131989, 33.204535352164697 ], [ 129.998586273372013, 33.204958672842103 ], [ 129.998706240397013, 33.205020290670802 ], [ 129.998946937433999, 33.2050025687643 ], [ 129.999167642498008, 33.2049964871076 ], [ 129.999404227127997, 33.205016173536201 ], [ 130.000214137515997, 33.205103333818599 ], [ 130.000258915708997, 33.205100556531598 ], [ 130.000479224009013, 33.205151706124497 ], [ 130.000828462371004, 33.205065218041199 ], [ 130.000851587634997, 33.205131974171202 ], [ 130.001290503184009, 33.2063974461933 ], [ 130.001438000337004, 33.206507201483397 ], [ 130.00185838876601, 33.206820104950502 ], [ 130.001886670485987, 33.206853405953602 ], [ 130.001949272777011, 33.206926993481297 ], [ 130.002050464683009, 33.2071151706484 ], [ 130.001977532226988, 33.207887069608901 ], [ 130.002067400638992, 33.208017074545097 ], [ 130.002658138476988, 33.208220914225997 ], [ 130.002818357700988, 33.208295370652799 ], [ 130.003015181209008, 33.208474993595203 ], [ 130.003707614303011, 33.209178991919003 ], [ 130.003774815473008, 33.209527827307397 ], [ 130.003839493145989, 33.209610764731501 ], [ 130.004444196115003, 33.209803523913401 ], [ 130.004602556014987, 33.209924140143599 ], [ 130.004678477601999, 33.210065248155303 ], [ 130.004507322656991, 33.210579803949301 ], [ 130.004236645053993, 33.211195127390901 ], [ 130.003846068497012, 33.211748875531804 ], [ 130.003757703907013, 33.2119078501891 ], [ 130.003767501557007, 33.212197667431198 ], [ 130.003776028960004, 33.212451531212402 ], [ 130.003721307886991, 33.212784931462799 ], [ 130.003480809113, 33.213331915292599 ], [ 130.003475984435994, 33.213447316328903 ], [ 130.003522651037002, 33.213633717575199 ], [ 130.003674329786008, 33.213915914202701 ], [ 130.004027670526995, 33.214262346547798 ], [ 130.005127872715008, 33.2153144807356 ], [ 130.005576774768002, 33.215652423738398 ], [ 130.006000481965003, 33.215943302019603 ], [ 130.006148623880989, 33.215982751562898 ], [ 130.006378236441009, 33.216036180210899 ], [ 130.006733842595992, 33.215989928674396 ], [ 130.006868293053003, 33.215957890516499 ], [ 130.007099207896005, 33.216066767925803 ], [ 130.007320517886001, 33.216209964028799 ], [ 130.007359139447999, 33.216345047912903 ], [ 130.007529767252009, 33.217022072961399 ], [ 130.007736298261989, 33.217272191275697 ], [ 130.00855388042001, 33.217714932531599 ], [ 130.009049774468991, 33.217982491498802 ], [ 130.009244115509006, 33.218035475717102 ], [ 130.009255787055992, 33.218040886356803 ], [ 130.00953465912599, 33.218141352915403 ], [ 130.009787524531987, 33.2182217284929 ], [ 130.00992146947101, 33.218257273513501 ], [ 130.010033180096997, 33.2182801029644 ], [ 130.010118956454988, 33.218283917483902 ], [ 130.010242340496006, 33.2182598182291 ], [ 130.010377126363011, 33.2182056217964 ], [ 130.010470399403005, 33.218116598473898 ], [ 130.01057264911401, 33.217922312352002 ], [ 130.010729838986009, 33.217388234182799 ], [ 130.010781006114001, 33.217287218055098 ], [ 130.010988198456999, 33.217098835995202 ], [ 130.011382344340007, 33.216770395025797 ], [ 130.012079774944993, 33.216136405111897 ], [ 130.012409169899001, 33.215886661724603 ], [ 130.012536872340007, 33.215806150219699 ], [ 130.013331129228987, 33.215527164913297 ], [ 130.013485023447004, 33.215450011838399 ], [ 130.013695688279995, 33.215294938000703 ], [ 130.014335656826006, 33.214633838461602 ], [ 130.01461084217101, 33.214382076846 ], [ 130.014858562341004, 33.214255507087501 ], [ 130.015393150456987, 33.214001105348501 ], [ 130.015701091962001, 33.213824852244102 ], [ 130.015936069435014, 33.213668399275697 ], [ 130.016391947411989, 33.213280129430601 ], [ 130.016674197132005, 33.213062920969598 ], [ 130.017025067318997, 33.212809303295799 ], [ 130.017459913713992, 33.212540124318402 ], [ 130.017815550806006, 33.2123246528596 ], [ 130.017983045226003, 33.212222083914199 ], [ 130.018136627709993, 33.212036932561901 ], [ 130.018213464635011, 33.211767508255299 ], [ 130.01811172099201, 33.211144741248702 ], [ 130.018095160942011, 33.211089224585102 ], [ 130.018125847340997, 33.210772433391298 ], [ 130.018176058411001, 33.210470801982801 ], [ 130.018226835460013, 33.210328622234698 ], [ 130.018272126211002, 33.210272695646303 ], [ 130.018346262494987, 33.210230132064197 ], [ 130.018728681395999, 33.210249676354202 ], [ 130.019654970884005, 33.210449953137498 ], [ 130.020454514879987, 33.210586182971902 ], [ 130.020625407519987, 33.2104262427859 ], [ 130.020905763835998, 33.210045988269002 ], [ 130.021165240144001, 33.209568902084897 ], [ 130.021256886894008, 33.209473765725001 ], [ 130.021397022748999, 33.209404052810697 ], [ 130.021514675751007, 33.209374190684898 ], [ 130.02166711946299, 33.2093430537101 ], [ 130.021777380378012, 33.209322360922897 ], [ 130.021913349160002, 33.209295707990002 ], [ 130.022049592070999, 33.209244437142502 ], [ 130.022149167654987, 33.209189795251298 ], [ 130.02234119957501, 33.209065049889197 ], [ 130.022461054366005, 33.209002871893397 ], [ 130.022602282406012, 33.2089931818522 ], [ 130.022916811404997, 33.209058626729004 ], [ 130.023361628077993, 33.209322303644399 ], [ 130.023549843683014, 33.209465759399201 ], [ 130.023624837785007, 33.209745814927302 ], [ 130.023645994150002, 33.209810313375698 ], [ 130.023678392389996, 33.209851018702601 ], [ 130.023730441451988, 33.209895542449701 ], [ 130.02379802635599, 33.2099144581681 ], [ 130.023855112159993, 33.209912935520101 ], [ 130.023920942231001, 33.209886014013399 ], [ 130.023978592172, 33.209818453449302 ], [ 130.024037159496999, 33.2096681637789 ], [ 130.024070638534994, 33.209611420774301 ], [ 130.024129269208004, 33.209561250241102 ], [ 130.024269006131988, 33.209466788558601 ], [ 130.024170343559007, 33.209333370693699 ], [ 130.024159114480995, 33.209318159258302 ], [ 130.024170343559007, 33.209333370693699 ], [ 130.024269006131988, 33.209466788558601 ], [ 130.024334961860006, 33.209428492793997 ], [ 130.024701791848997, 33.209228615112103 ], [ 130.024764587150997, 33.209218489819598 ], [ 130.024765509979005, 33.209218338007602 ], [ 130.024864000023001, 33.209208578948498 ], [ 130.024955978360993, 33.209204034408003 ], [ 130.025050107737002, 33.209171857046101 ], [ 130.025240406493992, 33.209127402944397 ], [ 130.025358140381002, 33.209097594611002 ], [ 130.025581137475001, 33.209218249999203 ], [ 130.025732094418998, 33.209154711482 ], [ 130.025880488112989, 33.209072892379702 ], [ 130.025898368046995, 33.2090700732331 ], [ 130.025907552344989, 33.209057976034998 ], [ 130.025941591290007, 33.209041372477799 ], [ 130.02620482570299, 33.208888264039601 ], [ 130.026597971913986, 33.208770811739299 ], [ 130.026732926383005, 33.208790253029598 ], [ 130.02688764256601, 33.208841250714499 ], [ 130.027036111093992, 33.208942000860098 ], [ 130.027226274044011, 33.208841539124599 ], [ 130.027497060304995, 33.208740368977899 ], [ 130.027739060080989, 33.208680921325197 ], [ 130.027863159502999, 33.208646653421297 ], [ 130.027923916600002, 33.208634798314598 ], [ 130.027988566548004, 33.2086246175867 ], [ 130.028085844217998, 33.208626199702501 ], [ 130.028268575732994, 33.208637491297502 ], [ 130.028425813024995, 33.208655159470197 ], [ 130.02845410444499, 33.2086611344196 ], [ 130.028594734364987, 33.2087241536072 ], [ 130.028685983124006, 33.2087275207491 ], [ 130.028803939508009, 33.208730555668801 ], [ 130.029232009482001, 33.208728613432797 ], [ 130.02940959018801, 33.208856921681402 ], [ 130.029451710359012, 33.208882593124699 ], [ 130.029518228527991, 33.208914634734398 ], [ 130.029609811489991, 33.208930759454198 ], [ 130.02970167461001, 33.2089290810219 ], [ 130.029835831360998, 33.208891753679701 ], [ 130.029868373218989, 33.208896797143602 ], [ 130.029903519935004, 33.208916460993102 ], [ 130.030029169086987, 33.2090882848074 ], [ 130.030070179710009, 33.209123352261201 ], [ 130.030128432242009, 33.209152775545398 ], [ 130.030241903175011, 33.2091826134059 ], [ 130.030396609477009, 33.209227266521502 ], [ 130.030458392236994, 33.209248017902198 ], [ 130.030523439825998, 33.2092919537562 ], [ 130.030574586519009, 33.209350204664098 ], [ 130.030655906407986, 33.209385180014401 ], [ 130.03148940599101, 33.208682793462401 ], [ 130.031505868251998, 33.208694668766697 ], [ 130.032328841613008, 33.209313833237097 ], [ 130.033196620468004, 33.2084801091465 ], [ 130.033179742791987, 33.208475576291697 ], [ 130.033115586169998, 33.208457254636699 ], [ 130.032813456658005, 33.2083916126766 ], [ 130.032765918101006, 33.208378579568297 ], [ 130.03267673535899, 33.208266091431902 ], [ 130.032575022033001, 33.2081577308264 ], [ 130.032525132131013, 33.2081299223725 ], [ 130.032480023040989, 33.208116910276502 ], [ 130.032414493879003, 33.208139612019998 ], [ 130.032254731319, 33.208288133906102 ], [ 130.03217642453501, 33.208329703772101 ], [ 130.031983000716991, 33.208338746674002 ], [ 130.031945447134007, 33.208332115549901 ], [ 130.031921260845991, 33.208245455875101 ], [ 130.031963942801013, 33.208128709072398 ], [ 130.032070565211001, 33.207798381717303 ], [ 130.032168194262994, 33.207592438372998 ], [ 130.032335689, 33.207365554950499 ], [ 130.032439365361, 33.207295301048397 ], [ 130.032590336594012, 33.207290716694402 ], [ 130.032647863086993, 33.207256575222502 ], [ 130.032685260335001, 33.207185805751401 ], [ 130.032678811714987, 33.207147345270101 ], [ 130.032658536955012, 33.207116456288098 ], [ 130.032592680732989, 33.207077516326997 ], [ 130.03255183482301, 33.2070503247757 ], [ 130.032453950086989, 33.207005377452099 ], [ 130.032383252947994, 33.206987551228202 ], [ 130.032261627320992, 33.207028854903598 ], [ 130.03215587814401, 33.207081816093002 ], [ 130.032111904147996, 33.207125642625599 ], [ 130.032063426979988, 33.207167531007997 ], [ 130.031966092353002, 33.2072858615158 ], [ 130.031618805841987, 33.2076384303965 ], [ 130.031562981729991, 33.207715974311 ], [ 130.031481111185002, 33.207769191059299 ], [ 130.031404123123991, 33.207797490335402 ], [ 130.031321109223995, 33.207809983496702 ], [ 130.031254712410998, 33.207804870013703 ], [ 130.031196427057012, 33.207770919929203 ], [ 130.031120423698013, 33.207709904549503 ], [ 130.031066740454008, 33.207646085051302 ], [ 130.030927277254989, 33.207541640724003 ], [ 130.030835048871012, 33.207477645309197 ], [ 130.03079977841, 33.2074921297137 ], [ 130.030792831463998, 33.207567450845097 ], [ 130.030813350193995, 33.207629336829001 ], [ 130.030847880690999, 33.207682157711901 ], [ 130.030862670118012, 33.207754530467398 ], [ 130.030858831359012, 33.207821493511901 ], [ 130.030850927311008, 33.207968554566101 ], [ 130.030845540611011, 33.208031558472101 ], [ 130.030840737827987, 33.208117569143397 ], [ 130.030834077988004, 33.208151665613499 ], [ 130.030816625130001, 33.208176485033597 ], [ 130.030788210534013, 33.208199914728297 ], [ 130.030740202123013, 33.208153558264002 ], [ 130.030668814515991, 33.208107019620698 ], [ 130.030611029944993, 33.208096073727901 ], [ 130.030515661101987, 33.208096632655 ], [ 130.030420452993013, 33.2080748812417 ], [ 130.030314324388002, 33.208055668683102 ], [ 130.030153754493, 33.208018649003598 ], [ 130.030018783229991, 33.207962754349502 ], [ 130.029934050583989, 33.207903026327799 ], [ 130.029767510763008, 33.207981876419801 ], [ 130.029687061275013, 33.207989701702402 ], [ 130.029632029195994, 33.207972401668201 ], [ 130.029522382087009, 33.207899815658102 ], [ 130.029478056319988, 33.207823549952103 ], [ 130.029444212508992, 33.207700942317103 ], [ 130.029384245757996, 33.207675149329901 ], [ 130.029287913956011, 33.207762981060398 ], [ 130.029222641003997, 33.207762471753099 ], [ 130.029122733344991, 33.207711078698701 ], [ 130.028772288846, 33.207619760758803 ], [ 130.028586942456002, 33.2075803439255 ], [ 130.027982501313005, 33.207535011139697 ], [ 130.027704135346994, 33.207511105814 ], [ 130.027528604232998, 33.207470829727697 ], [ 130.027358676684997, 33.207431497581602 ], [ 130.027245758650992, 33.207382131344602 ], [ 130.027228881259987, 33.2072867082654 ], [ 130.027227923553994, 33.207191407448597 ], [ 130.027227640792006, 33.2070426280413 ], [ 130.027238599859004, 33.206945747343198 ], [ 130.027311062494988, 33.206500421848801 ], [ 130.027102397514994, 33.206467899462801 ], [ 130.027053313826997, 33.2066554309881 ], [ 130.02689621963799, 33.206634324299003 ], [ 130.026819389428994, 33.206844447566901 ], [ 130.026776911138001, 33.206934723554099 ], [ 130.026741956411996, 33.206996333843499 ], [ 130.026613164026003, 33.207011019389299 ], [ 130.026421555516009, 33.207075736281901 ], [ 130.026273451208993, 33.207139316178797 ], [ 130.026207463954989, 33.207165480293803 ], [ 130.026185696731005, 33.207224288863699 ], [ 130.026032028020012, 33.207798187130102 ], [ 130.026185696731005, 33.207224288863699 ], [ 130.026207463954989, 33.207165480293803 ], [ 130.026021151516005, 33.2069887379498 ], [ 130.025984821840012, 33.206996183674804 ], [ 130.025868669227009, 33.207069438311898 ], [ 130.025824058207007, 33.207016765981997 ], [ 130.025446085115988, 33.207028247718299 ], [ 130.025441213407987, 33.207082310202999 ], [ 130.025334160864986, 33.207063438153902 ], [ 130.025307673773995, 33.207124533604897 ], [ 130.025055216858988, 33.207054031850298 ], [ 130.025041396256995, 33.206750964238999 ], [ 130.024691310808009, 33.206575087903801 ], [ 130.024700016585001, 33.206560732835399 ], [ 130.024964381119986, 33.2061462374079 ], [ 130.025122735656993, 33.205875952301803 ], [ 130.025023290250999, 33.205768099194998 ], [ 130.024970579268995, 33.205677518593497 ], [ 130.02488909385599, 33.205317619509003 ], [ 130.024910695688988, 33.205031787564202 ], [ 130.024898161495003, 33.204779061369102 ], [ 130.024894575500014, 33.2046412986181 ], [ 130.024832249617987, 33.204473260565898 ], [ 130.024782879745004, 33.204353594852101 ], [ 130.024710163979989, 33.204208212146497 ], [ 130.024654666958014, 33.204028868568301 ], [ 130.024634712643007, 33.203848376937401 ], [ 130.024750970711011, 33.203724336771501 ], [ 130.024901675037995, 33.203546608111097 ], [ 130.024991550435999, 33.2033684029157 ], [ 130.02503411757101, 33.203186972809398 ], [ 130.025079820971996, 33.203040244048303 ], [ 130.025100156417011, 33.202883927763096 ], [ 130.025145350584012, 33.2027300806567 ], [ 130.025179846599002, 33.202415130071401 ], [ 130.025303901948007, 33.202426526330903 ], [ 130.025527476034, 33.202417850855902 ], [ 130.026000968098003, 33.202427859930701 ], [ 130.026274108427998, 33.202453030182603 ], [ 130.026258084487012, 33.202590922355498 ], [ 130.026431516642987, 33.202623116476403 ], [ 130.026411992688992, 33.202706422185202 ], [ 130.026397091460012, 33.2029548337634 ], [ 130.026461485314996, 33.203087526500497 ], [ 130.026741929802, 33.203058634014901 ], [ 130.026745379287007, 33.202996810867901 ], [ 130.026731880540012, 33.202868760881003 ], [ 130.026717407283996, 33.202685035753902 ], [ 130.02673482988601, 33.202458446335697 ], [ 130.026749281137, 33.202238420227403 ], [ 130.027026886353013, 33.202228706158202 ], [ 130.027175154032989, 33.2022247537369 ], [ 130.027756239855989, 33.202204125590001 ], [ 130.027695844723013, 33.201929431314802 ], [ 130.028386661193991, 33.201987885339797 ], [ 130.028781016615, 33.201985784458799 ], [ 130.028993526883994, 33.2019848517279 ], [ 130.029534025254009, 33.2019288180255 ], [ 130.031041669726989, 33.201667128119503 ], [ 130.031404359795999, 33.201869429954499 ], [ 130.031559241004004, 33.201691583055599 ], [ 130.031868880806002, 33.201872057543902 ], [ 130.031904752597001, 33.201871366152901 ], [ 130.031953388816987, 33.201875637942003 ], [ 130.032165116706011, 33.202006688331601 ], [ 130.032228869244989, 33.202000368847401 ], [ 130.032313388060004, 33.2020029804765 ], [ 130.032383934872996, 33.202011313859003 ], [ 130.032659849330003, 33.202050915695999 ], [ 130.032862400009009, 33.202064165634098 ], [ 130.033136120953998, 33.202082351898397 ], [ 130.033603582832001, 33.2020767346038 ], [ 130.033986428540004, 33.202085041185001 ], [ 130.034048911705014, 33.202087480698999 ], [ 130.034105399445991, 33.202109315786601 ], [ 130.034158559168986, 33.202121422970698 ], [ 130.034247663500992, 33.202133789080897 ], [ 130.034490154142986, 33.202149775891399 ], [ 130.034662584010988, 33.2021666808728 ], [ 130.034819846315997, 33.202191251617897 ], [ 130.034946997252007, 33.202218514464199 ], [ 130.035082612937998, 33.202260914574701 ], [ 130.035208430442992, 33.202302748819399 ], [ 130.035324665518004, 33.202316786683497 ], [ 130.035447377476004, 33.202328444276503 ], [ 130.035510780070013, 33.202331119156 ], [ 130.035583347151004, 33.2023156204286 ], [ 130.035816176742998, 33.202264888992602 ], [ 130.035864431823001, 33.202242897076097 ], [ 130.035911902363011, 33.202238844780801 ], [ 130.036217475293, 33.202462386968001 ], [ 130.036684133702011, 33.202835901453298 ], [ 130.035899739276999, 33.203562542106098 ], [ 130.036051125123009, 33.203618908753299 ], [ 130.036122804334013, 33.2036538918953 ], [ 130.036184389422999, 33.203707785054803 ], [ 130.036318071401013, 33.203819822129198 ], [ 130.036452690020013, 33.203922939124098 ], [ 130.036471142749008, 33.203913588929602 ], [ 130.036618516900006, 33.204007312058501 ], [ 130.036708018857013, 33.204067707157598 ], [ 130.036632886758014, 33.204156660729502 ], [ 130.036683403679007, 33.204195972409401 ], [ 130.036789385363988, 33.204251281523902 ], [ 130.036895580343014, 33.2042871142 ], [ 130.037034201615, 33.204323231737902 ], [ 130.037333844726987, 33.204461773682901 ], [ 130.037668197946005, 33.204606409945299 ], [ 130.038960724602987, 33.2051681224616 ], [ 130.039163277640995, 33.205074321019801 ], [ 130.040016679898997, 33.2054331667266 ], [ 130.040009429603003, 33.205629265152602 ], [ 130.040016939475009, 33.205632141439999 ], [ 130.040146694312995, 33.205697880884202 ], [ 130.040179967796007, 33.205714636556102 ], [ 130.040249052669992, 33.205626274493703 ], [ 130.041078061762988, 33.204848184322998 ], [ 130.039663793469998, 33.203821968552901 ], [ 130.038698098652986, 33.203071520093403 ], [ 130.039265843636002, 33.202547512871 ], [ 130.040207712996988, 33.201695485544803 ], [ 130.040196419023005, 33.201692096412501 ], [ 130.040061278937003, 33.201690474063703 ], [ 130.039974581323008, 33.2016573666005 ], [ 130.039924788583988, 33.201613148150003 ], [ 130.039900578556995, 33.201543398234399 ], [ 130.039907436452012, 33.201444775631401 ], [ 130.039966012826, 33.201367581074599 ], [ 130.040004960729988, 33.201330668573398 ], [ 130.040057630587, 33.2012647501667 ], [ 130.04003401693501, 33.201224926661503 ], [ 130.039796600566007, 33.2010360481557 ], [ 130.039627474673011, 33.200893396680399 ], [ 130.039462179922992, 33.200691514289197 ], [ 130.03933738290101, 33.2005716584843 ], [ 130.03912955021201, 33.200566816056899 ], [ 130.038880104420002, 33.200482382891998 ], [ 130.038799252710987, 33.200481758782502 ], [ 130.038586398547011, 33.200583651107102 ], [ 130.038527904935989, 33.200561360591799 ], [ 130.038495320706005, 33.200498942910997 ], [ 130.038489435410014, 33.200431869629 ], [ 130.03855435638701, 33.200264800792098 ], [ 130.038554814331007, 33.200222906426397 ], [ 130.038523395645996, 33.2002073080454 ], [ 130.038430578157005, 33.2001898255279 ], [ 130.038302770135999, 33.200169290139598 ], [ 130.038248297416999, 33.2001395463733 ], [ 130.038129829347014, 33.200031097342098 ], [ 130.03797631671199, 33.199932170304699 ], [ 130.037864225014005, 33.199846119858599 ], [ 130.037783369931986, 33.199723309225803 ], [ 130.037761788387002, 33.199566737144004 ], [ 130.037699380340996, 33.199496428462901 ], [ 130.037295614400989, 33.199264995803802 ], [ 130.037116999987006, 33.199178430280199 ], [ 130.037032341396014, 33.199173584664997 ], [ 130.036863168767013, 33.199142953121701 ], [ 130.036789996683012, 33.199145187802401 ], [ 130.036738469267988, 33.199144789176998 ], [ 130.036718774674995, 33.199122287764098 ], [ 130.03669503810201, 33.199017370861803 ], [ 130.036661435554009, 33.198971727055401 ], [ 130.036539513343001, 33.198873024410098 ], [ 130.035971152119004, 33.198492292696301 ], [ 130.035824866848003, 33.198345921663297 ], [ 130.035558382553006, 33.198020587563597 ], [ 130.035465034080005, 33.197891391896 ], [ 130.035393164287996, 33.197774935245299 ], [ 130.035333833148997, 33.197729779096598 ], [ 130.035067782845005, 33.197441449609698 ], [ 130.034941502242987, 33.1972896671464 ], [ 130.034869481045007, 33.197263273539399 ], [ 130.034852794203999, 33.197264534954101 ], [ 130.034585579775012, 33.197540349708802 ], [ 130.034553994943991, 33.197540104869503 ], [ 130.034415349623998, 33.197453863766398 ], [ 130.033692686199998, 33.196956432683002 ], [ 130.033701249265988, 33.196947271447101 ], [ 130.03307775622099, 33.196552980219302 ], [ 130.033648834663012, 33.195944792220303 ], [ 130.033223487822994, 33.195674082398099 ], [ 130.032947704447992, 33.195487183697402 ], [ 130.03278085482799, 33.195398360831099 ], [ 130.032596472915003, 33.195319140515402 ], [ 130.032185804823001, 33.195199857585401 ], [ 130.032583623688993, 33.1947886649167 ], [ 130.032114682881001, 33.194635379388899 ], [ 130.031723126519012, 33.1945082127476 ], [ 130.031350650444011, 33.194367967836797 ], [ 130.030613438995005, 33.193993702187903 ], [ 130.030384991792999, 33.193861283424503 ], [ 130.029989109306996, 33.194415153185197 ], [ 130.029852280574005, 33.194567603639598 ], [ 130.029477687112006, 33.194900124389299 ], [ 130.029363157480987, 33.195028638966697 ], [ 130.028922632053991, 33.195352718267699 ], [ 130.028653825296999, 33.1955634149178 ], [ 130.028540607947008, 33.1956521564422 ], [ 130.028442150160998, 33.195743829120801 ], [ 130.028375548722011, 33.195796125260401 ], [ 130.028188046149012, 33.1959769025935 ], [ 130.027973652907008, 33.196179923913697 ], [ 130.027578970533995, 33.196623196260802 ], [ 130.027196789917014, 33.197079789749999 ], [ 130.026928062209009, 33.197361599444001 ], [ 130.026168181288995, 33.198193964479103 ], [ 130.026077640989996, 33.198152910016901 ], [ 130.025998828299009, 33.198104444334902 ], [ 130.025389949109012, 33.197709490217399 ], [ 130.025566997748001, 33.197497552473997 ], [ 130.023762826924013, 33.196375263325699 ], [ 130.023362732256004, 33.196157059968399 ], [ 130.023175146926008, 33.196057670660302 ], [ 130.023043291909005, 33.196002413001203 ], [ 130.023141670895996, 33.195903223583798 ], [ 130.022901774647011, 33.1957686240603 ], [ 130.02267183989801, 33.195974243999302 ], [ 130.021942944057997, 33.195787606458197 ], [ 130.021296683749995, 33.195569331521398 ], [ 130.020756714552988, 33.195407223204398 ], [ 130.020606858760999, 33.195320773034901 ], [ 130.020411004862012, 33.195174028869999 ], [ 130.020398938043002, 33.195159104913401 ], [ 130.020586541362007, 33.1949933112395 ], [ 130.020463664022998, 33.194929667085702 ], [ 130.019023105776, 33.194133948149002 ], [ 130.018660845150009, 33.193890754557202 ], [ 130.01858523861199, 33.193826001356598 ], [ 130.01896194408701, 33.193398003785397 ], [ 130.019041231789998, 33.193313091577302 ], [ 130.019068016720013, 33.193277938071098 ], [ 130.019118678810003, 33.193303010817402 ], [ 130.019184777648007, 33.193341358994303 ], [ 130.019260787364004, 33.193369924529001 ], [ 130.019328988744007, 33.193400065842297 ], [ 130.019408972896997, 33.193425369270997 ], [ 130.019518445370011, 33.193436109662699 ], [ 130.019651680732011, 33.193427279381801 ], [ 130.019808409366988, 33.193415357017599 ], [ 130.020031907894008, 33.193389148118499 ], [ 130.020277905595009, 33.193358995291597 ], [ 130.020689436671006, 33.193316177636497 ], [ 130.020924608644009, 33.1932950076664 ], [ 130.021058026056011, 33.193269746640802 ], [ 130.021199418216014, 33.193228079470501 ], [ 130.021313305271008, 33.193196077050402 ], [ 130.021498161490001, 33.193118576519097 ], [ 130.021640113623988, 33.193034155519499 ], [ 130.021774032146993, 33.192956238609 ], [ 130.022281605184986, 33.192564780698902 ], [ 130.022445386018006, 33.192438438368399 ], [ 130.022976833765995, 33.192061520645503 ], [ 130.023190298761989, 33.191889495113003 ], [ 130.023354696756002, 33.191759986896002 ], [ 130.023485902759006, 33.191661900146897 ], [ 130.023689285101995, 33.191522499230601 ], [ 130.02383628860099, 33.1914276014232 ], [ 130.023943973618003, 33.191365098120301 ], [ 130.024082330049993, 33.191279324188301 ], [ 130.024274566483001, 33.191155156723603 ], [ 130.02459143818399, 33.191094273589798 ], [ 130.024937417735998, 33.191037722081902 ], [ 130.025242396506002, 33.190946100766801 ], [ 130.025518357197996, 33.190842012437699 ], [ 130.025773885527002, 33.190714235152903 ], [ 130.02603529145199, 33.190607972436403 ], [ 130.026337544571987, 33.190542884261198 ], [ 130.026492925528999, 33.1901525865294 ], [ 130.026744497555995, 33.189602389839301 ], [ 130.027105705546006, 33.188820178093302 ], [ 130.027514792229994, 33.1879277043843 ], [ 130.027719046839991, 33.187488246206698 ], [ 130.027782330596011, 33.187424934582197 ], [ 130.027849866755986, 33.187378546881398 ], [ 130.027998030409009, 33.187306511650199 ], [ 130.028131400579014, 33.187269089980198 ], [ 130.028266763559998, 33.187248554660599 ], [ 130.028349724332998, 33.187249202097703 ], [ 130.028424874243001, 33.187461996348802 ], [ 130.02868139843801, 33.187441455498998 ], [ 130.028869399606009, 33.187436942101897 ], [ 130.028866388119013, 33.187392402791602 ], [ 130.02902410277801, 33.187385517584403 ], [ 130.029024966061996, 33.187433207159401 ], [ 130.029276722822004, 33.187427162404603 ], [ 130.029233102223998, 33.187177212868598 ], [ 130.029242769696992, 33.186225914265798 ], [ 130.029279052845993, 33.1859218578644 ], [ 130.029460134284989, 33.185425276404999 ], [ 130.029552506589994, 33.185011024702497 ], [ 130.029620487359011, 33.184817883068 ], [ 130.029109392965012, 33.1844971074974 ], [ 130.029019633860003, 33.1844244490742 ], [ 130.02867609081099, 33.184066268270399 ], [ 130.028497331891998, 33.183844803964298 ], [ 130.028368601306994, 33.183644898009803 ], [ 130.028249081984001, 33.183521231804697 ], [ 130.028079628755989, 33.183367554583 ], [ 130.027805127736997, 33.1831453414474 ], [ 130.027620187261988, 33.183021163533702 ], [ 130.027440835931998, 33.1828462563331 ], [ 130.027376678055987, 33.182731475659502 ], [ 130.027318059642994, 33.182555345444896 ], [ 130.027283830218011, 33.182158665931802 ], [ 130.027392725598986, 33.181872014538598 ], [ 130.027873171343998, 33.181204955643999 ], [ 130.027928525790998, 33.181115799112398 ], [ 130.028038125595003, 33.180939205431599 ], [ 130.02809611382699, 33.180763351680604 ], [ 130.028000267228009, 33.180575079166601 ], [ 130.026234456026998, 33.179152583984703 ], [ 130.026003804976, 33.178067158589599 ], [ 130.025782815019994, 33.177425648511203 ], [ 130.025630208969005, 33.176691176743702 ], [ 130.025441402110005, 33.175625981038799 ], [ 130.025101372350008, 33.1756732798058 ], [ 130.024982598441994, 33.175665198271098 ], [ 130.024864144496007, 33.175635722621003 ], [ 130.024740189193011, 33.175618954788703 ], [ 130.024523879143004, 33.175576083844597 ], [ 130.024333975744014, 33.175674572881498 ], [ 130.024171459882012, 33.175826216306099 ], [ 130.024044851268002, 33.175889909085697 ], [ 130.0238205892, 33.175929324003903 ], [ 130.023568631237993, 33.1759508758173 ], [ 130.02334417269401, 33.176007916617202 ], [ 130.023188541219014, 33.176165496113803 ], [ 130.023116526727989, 33.176359023808097 ], [ 130.023031290244006, 33.176475980307501 ], [ 130.022939477107997, 33.176551708440101 ], [ 130.022728956701997, 33.176620641201801 ], [ 130.022517948812009, 33.176724845525399 ], [ 130.022298809087999, 33.176934846238801 ], [ 130.022129438456005, 33.177068787799499 ], [ 130.021953377621998, 33.177179148566402 ], [ 130.021612136881998, 33.177047077689302 ], [ 130.02077033982701, 33.176646407925404 ], [ 130.020560706806009, 33.176627130518398 ], [ 130.020066039038994, 33.176664394696601 ], [ 130.020066039038994, 33.176664394696601 ], [ 130.019945733228013, 33.176792837542997 ], [ 130.01981143910001, 33.176921170164299 ], [ 130.019522809499989, 33.1770894618749 ], [ 130.019424888639008, 33.177088690668398 ], [ 130.019150499781006, 33.176604262329697 ], [ 130.018777011177008, 33.176067292502303 ], [ 130.01876921335699, 33.176060486470099 ], [ 130.018535817469996, 33.1759112929862 ], [ 130.018138894895003, 33.175755244097203 ], [ 130.017844610899004, 33.175799979890002 ], [ 130.017591651538993, 33.1759097279744 ], [ 130.017268402756002, 33.176042447202697 ], [ 130.017045819915012, 33.176162595798502 ], [ 130.016499475160998, 33.176198963808602 ], [ 130.016315441117001, 33.176205487636302 ], [ 130.015533482937002, 33.176081661440001 ], [ 130.015196571943989, 33.1759530056869 ], [ 130.014942060966007, 33.175812319772099 ], [ 130.014832986771012, 33.175558558385298 ], [ 130.014519228991986, 33.175076041951797 ], [ 130.014411240902007, 33.174874945968099 ], [ 130.014217175762013, 33.174610736464999 ], [ 130.014205014576987, 33.174597148753797 ], [ 130.014053962599007, 33.174493878010303 ], [ 130.013847406352994, 33.1743949735352 ], [ 130.013665910459991, 33.174332266544397 ], [ 130.013201736740996, 33.174407361680899 ], [ 130.011622098883009, 33.174600458502702 ], [ 130.011502057548, 33.174630130837997 ], [ 130.011301457424992, 33.174873564761299 ], [ 130.011006077345996, 33.175216895045899 ], [ 130.010593421799996, 33.175574578263998 ], [ 130.010403056139012, 33.1758312134424 ], [ 130.009723447976995, 33.176543384163203 ], [ 130.009539487647999, 33.1766994372868 ], [ 130.009325120662993, 33.176780873515497 ], [ 130.008926879636988, 33.176779886807402 ], [ 130.008546495616997, 33.176807484607899 ], [ 130.008410343333992, 33.176876404771498 ], [ 130.008325503198989, 33.177015740117803 ], [ 130.008235237494006, 33.177168169747198 ], [ 130.008136197944992, 33.177184868667403 ], [ 130.007741465279992, 33.177102981728801 ], [ 130.007174947531013, 33.177010953376403 ], [ 130.006899556137995, 33.176969377154599 ], [ 130.006557337939, 33.176844122265699 ], [ 130.006277509139011, 33.176728136685199 ], [ 130.006095569281001, 33.176704792338299 ], [ 130.005850597263986, 33.176729095022502 ], [ 130.005501358484992, 33.176765684105398 ], [ 130.004992174757007, 33.176678470277999 ], [ 130.004349476339996, 33.176419566587597 ], [ 130.003717342749013, 33.176093663052399 ], [ 130.003522059281011, 33.176161348981303 ], [ 130.003443298261004, 33.1762219709927 ], [ 130.003390353707005, 33.176295937837402 ], [ 130.003399848041994, 33.176374770650298 ], [ 130.003486998888008, 33.176497992485402 ], [ 130.003548148601993, 33.176616602114301 ], [ 130.003368527358987, 33.1768470721046 ], [ 130.003199390481996, 33.177068871839303 ], [ 130.00299871230601, 33.1773166603422 ], [ 130.002820526746007, 33.177420249472803 ], [ 130.002634674165989, 33.177512824250002 ], [ 130.002471705162009, 33.177655914070797 ], [ 130.002181192698998, 33.178016751433901 ] ] ] ] } }
]
}
