{
"type": "FeatureCollection",
"name": "田川",
"crs": { "type": "name", "properties": { "name": "urn:ogc:def:crs:OGC:1.3:CRS84" } },
"features": [
{ "type": "Feature", "properties": { "id": "田川.1", "Name": null, "description": null, "timestamp": null, "begin": null, "end": null, "altitudeMode": null, "tessellate": -1, "extrude": 0, "visibility": -1, "drawOrder": null, "icon": null, "KEY_CODE": "402060008101", "PREF": "40", "CITY": "206", "K_AREA": "004000010", "S_AREA": "0008101", "PREF_NAME": "福岡県", "CITY_NAME": "田川市", "S_NAME": "栄町", "KIGO_E": null, "HCODE": 8101, "AREA": 2297.657, "PERIMETER": 230.925, "KIHON1": "0040", "DUMMY1": "-", "KIHON2": "00", "KIHON3": "010", "C1": 2, "C2": 8, "DUMMY2": "-", "C3": 1, "DUMMY3": "-", "C4": 1, "KIGO_A": null, "KIGO_D": null, "N_KEN": null, "N_CITY": null, "N_C1": 0, "KIGO_I": null, "KEYCODE1": "2060008-1-01", "JINKO": 15, "SETAI": 5, "KEN_OLD": "40", "CITY_OLD": "206", "X_CODE": 130.806979, "Y_CODE": 33.637736, "KCODE1": "0040-00010", "CCODE1": "8-1- 1" }, "geometry": { "type": "MultiPolygon", "coordinates": [ [ [ [ 130.797303831004001, 33.624287569436703 ], [ 130.795533325106987, 33.6232695694382 ], [ 130.794931598328986, 33.623249693332198 ], [ 130.794761609521004, 33.622282229367798 ], [ 130.793279015984012, 33.621990097039699 ], [ 130.790619120353, 33.621784435169403 ], [ 130.790321363859988, 33.622828317445901 ], [ 130.790074078666009, 33.625625119066697 ], [ 130.790559166144988, 33.625658908680201 ], [ 130.789919992466992, 33.626714258389597 ], [ 130.789863296303992, 33.627626397801599 ], [ 130.789994223395013, 33.6277455269 ], [ 130.790103175106992, 33.627898152141803 ], [ 130.789863296303992, 33.627626397801599 ], [ 130.789581497784013, 33.629598533556397 ], [ 130.788468305075014, 33.6294914628225 ], [ 130.788062219754011, 33.633328854413797 ], [ 130.790280559471, 33.633833629308398 ], [ 130.790186601821006, 33.634534588883803 ], [ 130.791365601921001, 33.634631892541499 ], [ 130.79134231394201, 33.634955892023697 ], [ 130.791585033659004, 33.635379310957198 ], [ 130.791836967767011, 33.634712499606103 ], [ 130.792867652185009, 33.633171882267199 ], [ 130.793158988013005, 33.633251123687799 ], [ 130.794429934491006, 33.638725396237398 ], [ 130.794453763477009, 33.639568848714802 ], [ 130.794239526637, 33.6404018325184 ], [ 130.794718646071004, 33.640317884532699 ], [ 130.796675511699988, 33.6393666823408 ], [ 130.79705992820999, 33.638463674115201 ], [ 130.797103585293002, 33.637785098229003 ], [ 130.797779702217014, 33.636303245408698 ], [ 130.798169351285992, 33.635673346622703 ], [ 130.798642534903991, 33.635750409139199 ], [ 130.797941766064014, 33.6368183056112 ], [ 130.799704179790012, 33.637404232963 ], [ 130.801081948128001, 33.637671324784698 ], [ 130.802470788499988, 33.639541274618097 ], [ 130.802767971316001, 33.639321122270402 ], [ 130.803198097815994, 33.639858301222297 ], [ 130.804115229164012, 33.640567147913998 ], [ 130.804318776656999, 33.641695964310898 ], [ 130.803757751861014, 33.6423651965193 ], [ 130.804499655356011, 33.642666741682703 ], [ 130.804854217489009, 33.643687244394897 ], [ 130.804722971016986, 33.643949787850197 ], [ 130.804794226143997, 33.644234701409303 ], [ 130.804453866327009, 33.644344052615601 ], [ 130.803385662029001, 33.644064247881097 ], [ 130.803275386141991, 33.645323449305799 ], [ 130.802602036541003, 33.6452793333861 ], [ 130.802331810896987, 33.647493561097001 ], [ 130.802348596221009, 33.647711045799497 ], [ 130.802592651802001, 33.647898180370198 ], [ 130.802556253624005, 33.649127565090097 ], [ 130.801971220296991, 33.649095702981803 ], [ 130.801701870771012, 33.651400728353302 ], [ 130.80219118213401, 33.6515644510025 ], [ 130.802042103947997, 33.651924879769801 ], [ 130.801583892634994, 33.651924142374803 ], [ 130.801481835097007, 33.652728788664199 ], [ 130.802377026193994, 33.653237911027702 ], [ 130.802355173474012, 33.653528174104501 ], [ 130.801751384873, 33.653361026210099 ], [ 130.801401299323004, 33.653486766513801 ], [ 130.801250378323004, 33.6528693716986 ], [ 130.800337912604988, 33.652809779419698 ], [ 130.799971838038005, 33.652559958079998 ], [ 130.799771495950012, 33.652073506189197 ], [ 130.800305739607012, 33.650940804661502 ], [ 130.799591581681, 33.650706197439298 ], [ 130.798482450627006, 33.650903952998 ], [ 130.797149696382007, 33.650649946090702 ], [ 130.796286600425987, 33.652005913765301 ], [ 130.79650169320999, 33.652179834446798 ], [ 130.796182665906997, 33.651923326555298 ], [ 130.795853422957009, 33.6516422865717 ], [ 130.79516863934299, 33.652092148446201 ], [ 130.794857867290006, 33.652776278954398 ], [ 130.794415731242992, 33.652767174639202 ], [ 130.793812457056987, 33.652506461247697 ], [ 130.79368037839501, 33.653805371944799 ], [ 130.793516598089013, 33.654018339440903 ], [ 130.793016589980994, 33.654172358755297 ], [ 130.792965508179009, 33.655079747751202 ], [ 130.792310144272989, 33.655413289249303 ], [ 130.792170193617011, 33.6557554952591 ], [ 130.793012935478998, 33.656283167243103 ], [ 130.791518201440994, 33.657957259988898 ], [ 130.792231034941011, 33.658290398548402 ], [ 130.792147289087012, 33.658784185244301 ], [ 130.791458979813001, 33.659950564126099 ], [ 130.791094123509993, 33.660141726774597 ], [ 130.790349484565013, 33.660119454671303 ], [ 130.790255335301993, 33.660259913189201 ], [ 130.790555660119992, 33.660463214529301 ], [ 130.790147390973004, 33.660936864229001 ], [ 130.790284484891998, 33.661555111463002 ], [ 130.78963985165899, 33.6619001976131 ], [ 130.789475263161989, 33.662115939386801 ], [ 130.789225393890007, 33.6624081272764 ], [ 130.790737939839005, 33.662631588945601 ], [ 130.792237585361988, 33.662862903018301 ], [ 130.789225393890007, 33.6624081272764 ], [ 130.78963985165899, 33.6619001976131 ], [ 130.789247646897991, 33.661887160915697 ], [ 130.788762448569003, 33.662193547290997 ], [ 130.788306525493994, 33.662108964598602 ], [ 130.787995066911009, 33.662584156334098 ], [ 130.787273121965001, 33.662293480056299 ], [ 130.786920090991003, 33.6631435535271 ], [ 130.786928661112995, 33.663810154697302 ], [ 130.787079037902004, 33.664041263043899 ], [ 130.786958933725998, 33.664200684593901 ], [ 130.786710104078992, 33.664095666267301 ], [ 130.786514536952012, 33.664481426792698 ], [ 130.78739741816301, 33.6660405326448 ], [ 130.788654732405007, 33.6659736153252 ], [ 130.78991734020201, 33.666404588478002 ], [ 130.790269463083007, 33.666292997875502 ], [ 130.790886382535007, 33.666565239316697 ], [ 130.791845066923003, 33.6666916267951 ], [ 130.791927121578993, 33.666579282646602 ], [ 130.791845066923003, 33.6666916267951 ], [ 130.792437505283999, 33.666919014148 ], [ 130.792631596684998, 33.667383261468302 ], [ 130.792811945837002, 33.667343955118 ], [ 130.792625637590987, 33.668542140300701 ], [ 130.792862859237005, 33.6685533684918 ], [ 130.792623027568993, 33.668718902792499 ], [ 130.792597968862992, 33.6692581121549 ], [ 130.792959737630014, 33.669489567910702 ], [ 130.793072709575995, 33.670028150647298 ], [ 130.792665781815998, 33.670407096370297 ], [ 130.792776140516992, 33.671314556989302 ], [ 130.794221722787995, 33.672833238833903 ], [ 130.794747795277999, 33.672402760187197 ], [ 130.795881133519998, 33.670915698476101 ], [ 130.797146093332003, 33.669844578935702 ], [ 130.801539862482002, 33.6708556722078 ], [ 130.802805485416997, 33.670878486434901 ], [ 130.802798503215001, 33.670672979808899 ], [ 130.802418692530011, 33.670653722588199 ], [ 130.802755599033986, 33.669906931264599 ], [ 130.804697172859989, 33.670310491797601 ], [ 130.805807076354995, 33.670366007681999 ], [ 130.805789586676013, 33.670993735706197 ], [ 130.806286069072996, 33.671049720195597 ], [ 130.806411399614007, 33.671347759686697 ], [ 130.807577802428995, 33.671511547125803 ], [ 130.807034686533001, 33.6731117005247 ], [ 130.807179828940008, 33.673463727380103 ], [ 130.806890912471005, 33.673923450768299 ], [ 130.806518303270991, 33.673944096195299 ], [ 130.806086666650998, 33.674794796601397 ], [ 130.805641449895006, 33.675183559430401 ], [ 130.805222458878006, 33.6750235752137 ], [ 130.804692894592989, 33.676104140766597 ], [ 130.804578557592009, 33.677043805341199 ], [ 130.803878607971996, 33.678079735602502 ], [ 130.804084718622988, 33.6788143569471 ], [ 130.803437356708997, 33.679053238577502 ], [ 130.80299376416599, 33.679524182085203 ], [ 130.804332364282004, 33.680506278354301 ], [ 130.806839959578014, 33.683097551044298 ], [ 130.806651542883003, 33.683627848218102 ], [ 130.806830243081009, 33.684193211064098 ], [ 130.806498082284008, 33.684847271000898 ], [ 130.806744490052012, 33.685575387952497 ], [ 130.806259374742012, 33.686371515513201 ], [ 130.806293388156007, 33.687465092506997 ], [ 130.805944500636997, 33.688222013436302 ], [ 130.806397046200004, 33.689424338361299 ], [ 130.806111167734002, 33.690411410278998 ], [ 130.808210281214002, 33.689980999303899 ], [ 130.808660571731991, 33.689323331115702 ], [ 130.809924594082986, 33.691578896750798 ], [ 130.810542322066993, 33.6931224044624 ], [ 130.810540036395992, 33.693478763109297 ], [ 130.811207032672996, 33.693913881898503 ], [ 130.811776385929988, 33.694768749993401 ], [ 130.812879171405996, 33.694705356979597 ], [ 130.814345120275988, 33.694119525173399 ], [ 130.816561423136989, 33.694503185464598 ], [ 130.81789108785199, 33.694141048049801 ], [ 130.818952550072993, 33.694197570781 ], [ 130.819315623883995, 33.694337559855597 ], [ 130.820031650029989, 33.6950944793643 ], [ 130.821654140465995, 33.695860058171803 ], [ 130.822171394458991, 33.6958793072546 ], [ 130.822878373680993, 33.696177344169797 ], [ 130.824427413656991, 33.696116741076501 ], [ 130.825689865464994, 33.695778680368598 ], [ 130.826569447905996, 33.696092225512203 ], [ 130.827217347442996, 33.696618462034699 ], [ 130.827728150896007, 33.696819633753002 ], [ 130.828627026906986, 33.6952325508569 ], [ 130.828719252273004, 33.694585463173098 ], [ 130.827637357795993, 33.691656589434601 ], [ 130.827276348313006, 33.691416806435903 ], [ 130.826280768152003, 33.691205028759001 ], [ 130.82629695127801, 33.690077354654598 ], [ 130.825866814877998, 33.689647630140001 ], [ 130.825741155292008, 33.6884402996779 ], [ 130.826892218564012, 33.6874948049145 ], [ 130.827118940839, 33.687073031359397 ], [ 130.827127532480006, 33.686527332641802 ], [ 130.826606765536013, 33.685908064156699 ], [ 130.827381364198999, 33.684532132482303 ], [ 130.827274678381997, 33.683669916899802 ], [ 130.827385198483995, 33.682431630900098 ], [ 130.827730188255003, 33.681553341101299 ], [ 130.826824385393991, 33.680130927656002 ], [ 130.827244037392006, 33.679112562987903 ], [ 130.826548041071987, 33.678627102562999 ], [ 130.826756925485995, 33.676849551251202 ], [ 130.826444166066011, 33.676372639333799 ], [ 130.82644667125399, 33.6755724070482 ], [ 130.825601672841998, 33.674439980825298 ], [ 130.825184738741001, 33.6741100051347 ], [ 130.824800287931993, 33.673334094991297 ], [ 130.824919138199988, 33.672437728227102 ], [ 130.824172831553, 33.670853247413199 ], [ 130.824389395264006, 33.669805160848398 ], [ 130.824198990811993, 33.669645034812099 ], [ 130.824544563762998, 33.669406579151897 ], [ 130.824649997758996, 33.6689946579096 ], [ 130.825094663541989, 33.668814948570798 ], [ 130.82542761632601, 33.668413267191902 ], [ 130.824788199363013, 33.666765896970503 ], [ 130.824608007697009, 33.664381341281398 ], [ 130.826240712733011, 33.663457310195099 ], [ 130.827584002556989, 33.663402766093697 ], [ 130.82893883058199, 33.661618342301601 ], [ 130.830088728968008, 33.660900353159903 ], [ 130.830865478799012, 33.6607094635267 ], [ 130.832220861482995, 33.660689125150199 ], [ 130.834080104114008, 33.660251019553499 ], [ 130.836934160809989, 33.660317526033403 ], [ 130.836691749138993, 33.659053950782599 ], [ 130.836921897265995, 33.658513253978199 ], [ 130.836857782023998, 33.658063742150702 ], [ 130.836710769246992, 33.658071717866598 ], [ 130.836218690831004, 33.657308235435899 ], [ 130.835892209088996, 33.657333090178398 ], [ 130.835164625895004, 33.656867685521398 ], [ 130.834976007051011, 33.656416737620098 ], [ 130.832828755019989, 33.656106492629 ], [ 130.831096794799009, 33.657263763482298 ], [ 130.829999725090005, 33.657593618234998 ], [ 130.829620878647006, 33.657276451175001 ], [ 130.829185708895011, 33.657335443508003 ], [ 130.828129240440006, 33.655798796925801 ], [ 130.828244551837003, 33.654473703571199 ], [ 130.828108731469996, 33.654457312116797 ], [ 130.828105996097008, 33.654274578300601 ], [ 130.829234903308986, 33.654241635294298 ], [ 130.829241512504012, 33.653738254318299 ], [ 130.829531495450993, 33.653780713699703 ], [ 130.829573434357997, 33.653014348363598 ], [ 130.828806511667011, 33.652359568612702 ], [ 130.828240434663996, 33.652370048608397 ], [ 130.827918960591006, 33.651377758492799 ], [ 130.82846659422799, 33.6511560645461 ], [ 130.828005970535003, 33.650832368514003 ], [ 130.828332511502992, 33.6506886280239 ], [ 130.828961377537013, 33.651279045053698 ], [ 130.829787744856986, 33.651557809995502 ], [ 130.83044812636399, 33.653280495912703 ], [ 130.830710479374005, 33.653371799342203 ], [ 130.83101053087799, 33.6531591221094 ], [ 130.831185867424011, 33.652637239533703 ], [ 130.831598304116, 33.652463742338199 ], [ 130.831468008706992, 33.651830701293598 ], [ 130.830954047759008, 33.651432201920002 ], [ 130.831131872327006, 33.651025074627 ], [ 130.831729593906005, 33.651492300366698 ], [ 130.831982880085008, 33.651932775024498 ], [ 130.832651360466997, 33.651504126931698 ], [ 130.832455107622991, 33.651053374743903 ], [ 130.832822997060987, 33.650856284147103 ], [ 130.833048868698, 33.650414420738898 ], [ 130.833257393851994, 33.650279312636698 ], [ 130.833505820281005, 33.650418985453499 ], [ 130.833928830025002, 33.650301003592602 ], [ 130.833886387879005, 33.649736343901097 ], [ 130.834721646562002, 33.6492580373517 ], [ 130.835109408400001, 33.648708468861102 ], [ 130.835601965942999, 33.648625936718297 ], [ 130.835822932315011, 33.648815513608497 ], [ 130.836203890326004, 33.648568485764997 ], [ 130.836718430558989, 33.6473753737694 ], [ 130.837237855445011, 33.647546607223099 ], [ 130.837521543695999, 33.6474492803627 ], [ 130.838732422922988, 33.646223761748303 ], [ 130.841625641809998, 33.6451572970605 ], [ 130.841882892709009, 33.644932706107298 ], [ 130.843283421839004, 33.644743042077003 ], [ 130.843223580624993, 33.644302975275103 ], [ 130.842589449891989, 33.643792011925001 ], [ 130.842092453275001, 33.642922594362098 ], [ 130.84258404713799, 33.642756487433203 ], [ 130.842007267014992, 33.641909508835901 ], [ 130.842254405172014, 33.6415931141307 ], [ 130.841986570832006, 33.641183987282503 ], [ 130.842745451844991, 33.6403085774228 ], [ 130.843265413327003, 33.640066143062299 ], [ 130.842881173980004, 33.639200677196499 ], [ 130.842387643905994, 33.638632236622499 ], [ 130.841189568995986, 33.638818807139799 ], [ 130.840086059117993, 33.638638263658997 ], [ 130.839355479451001, 33.638744854459901 ], [ 130.839076225765012, 33.638609926059203 ], [ 130.838512627265004, 33.639548060289101 ], [ 130.838665081704988, 33.639262331190302 ], [ 130.839421076211011, 33.638050571801202 ], [ 130.838074619400004, 33.637636357121899 ], [ 130.837473170875995, 33.6376515520762 ], [ 130.837569836061988, 33.636400606838102 ], [ 130.837351123295008, 33.636062891930301 ], [ 130.836637769647012, 33.636135628992498 ], [ 130.836311616740005, 33.6363193321883 ], [ 130.836295084407993, 33.635752170876302 ], [ 130.835641093488988, 33.634701761025397 ], [ 130.836153347884988, 33.633870226352101 ], [ 130.836350207431991, 33.632904992395197 ], [ 130.835732731131003, 33.632663532071497 ], [ 130.834937715644998, 33.634134945215798 ], [ 130.833224172855012, 33.6363855462657 ], [ 130.829569503425006, 33.633528273493702 ], [ 130.829284229053002, 33.634560012052802 ], [ 130.829106788786987, 33.634613371232902 ], [ 130.827260665508987, 33.634070979750099 ], [ 130.826956324488009, 33.633539058138297 ], [ 130.825997962987003, 33.633683941595997 ], [ 130.825887826706008, 33.634487754404198 ], [ 130.826256415424012, 33.6352734353095 ], [ 130.825851620898987, 33.636446162478002 ], [ 130.825772944710991, 33.636569960778303 ], [ 130.824734451161987, 33.636358420397301 ], [ 130.823923768008001, 33.635645009202598 ], [ 130.823166802493006, 33.635222953167698 ], [ 130.823069681101998, 33.634990913958703 ], [ 130.823203303578993, 33.634520546103403 ], [ 130.82231652019999, 33.634585201340599 ], [ 130.823015378685, 33.632472423645098 ], [ 130.821944775574991, 33.630687116958399 ], [ 130.821587680935011, 33.630618268067302 ], [ 130.820186867827999, 33.634434737068901 ], [ 130.817120918890993, 33.633540304598498 ], [ 130.816586370504012, 33.634001827977897 ], [ 130.816313713699998, 33.634485434395202 ], [ 130.816028720862988, 33.636962986358199 ], [ 130.815556712782012, 33.637650366029398 ], [ 130.814944307428988, 33.638201015833303 ], [ 130.813496250279997, 33.637070398817798 ], [ 130.812914374340011, 33.633761646600703 ], [ 130.812948781844, 33.632679481497703 ], [ 130.808930324820011, 33.631967963209 ], [ 130.808309883069001, 33.631523563823997 ], [ 130.808942623701995, 33.630538339354203 ], [ 130.810542844546006, 33.626770549645101 ], [ 130.814180262272004, 33.624916543491203 ], [ 130.814973938945997, 33.625728822745401 ], [ 130.819198944546997, 33.623042484491201 ], [ 130.819442019862009, 33.622008100072499 ], [ 130.819254927223994, 33.621441742104402 ], [ 130.817064922693987, 33.620080714581 ], [ 130.81661032840401, 33.619454150568799 ], [ 130.816629896485011, 33.618928393364698 ], [ 130.817346730959002, 33.616986075507299 ], [ 130.816743738022012, 33.617086618181098 ], [ 130.816009830551991, 33.616485137704501 ], [ 130.81555142112299, 33.616537496863501 ], [ 130.814996092429993, 33.616871761398698 ], [ 130.81434448312001, 33.616821118213601 ], [ 130.813713182193993, 33.617026988899497 ], [ 130.813136128607994, 33.617014701751401 ], [ 130.812927384071003, 33.617798203620602 ], [ 130.812468369132006, 33.618118304219202 ], [ 130.812365811332995, 33.618412950238003 ], [ 130.811440624302008, 33.619405417657703 ], [ 130.810824102439994, 33.619667294307298 ], [ 130.809581856177005, 33.619436162776303 ], [ 130.809011212695992, 33.619804967180997 ], [ 130.808380157583997, 33.620504616218 ], [ 130.808732430320987, 33.620904080605499 ], [ 130.808167415232987, 33.620881720816797 ], [ 130.808139362757004, 33.621164224921998 ], [ 130.807340728803013, 33.621135016804402 ], [ 130.807461041739003, 33.621565470855899 ], [ 130.806022612047002, 33.621524760917701 ], [ 130.805341941628996, 33.622029189953402 ], [ 130.804117427225009, 33.621694905530298 ], [ 130.803410251467994, 33.621907226759198 ], [ 130.802585097397014, 33.621568279048297 ], [ 130.801631559182994, 33.621619232870799 ], [ 130.801467833526999, 33.622990496661998 ], [ 130.801141937412012, 33.6228585951349 ], [ 130.801031312166998, 33.622585591419003 ], [ 130.800591319315004, 33.622621724901101 ], [ 130.800154083752005, 33.623009480264102 ], [ 130.800091139291993, 33.622921328621601 ], [ 130.799829225525002, 33.623508702180402 ], [ 130.799543208957999, 33.623362222621701 ], [ 130.798960308064011, 33.624071689404097 ], [ 130.797671635320995, 33.623507803578804 ], [ 130.797542022044013, 33.6241603168545 ], [ 130.797303831004001, 33.624287569436703 ] ] ] ] } }
]
}
