{
"type": "FeatureCollection",
"name": "直方",
"crs": { "type": "name", "properties": { "name": "urn:ogc:def:crs:OGC:1.3:CRS84" } },
"features": [
{ "type": "Feature", "properties": { "id": "直方.1", "Name": null, "description": null, "timestamp": null, "begin": null, "end": null, "altitudeMode": null, "tessellate": -1, "extrude": 0, "visibility": -1, "drawOrder": null, "icon": null, "KEY_CODE": "402040085101", "PREF": "40", "CITY": "204", "K_AREA": "002002010", "S_AREA": "0085101", "PREF_NAME": "福岡県", "CITY_NAME": "直方市", "S_NAME": "新町二丁目", "KIGO_E": null, "HCODE": 8101, "AREA": 7777.081, "PERIMETER": 498.721, "KIHON1": "0020", "DUMMY1": "-", "KIHON2": "02", "KIHON3": "010", "C1": 7, "C2": 85, "DUMMY2": "-", "C3": 1, "DUMMY3": "-", "C4": 1, "KIGO_A": null, "KIGO_D": null, "N_KEN": null, "N_CITY": null, "N_C1": 0, "KIGO_I": null, "KEYCODE1": "2040085-1-01", "JINKO": 20, "SETAI": 12, "KEN_OLD": "40", "CITY_OLD": "204", "X_CODE": 130.725524, "Y_CODE": 33.739265, "KCODE1": "0020-02010", "CCODE1": "85-1- 1" }, "geometry": { "type": "MultiPolygon", "coordinates": [ [ [ [ 130.723968263415003, 33.731471905504101 ], [ 130.720859719500993, 33.7300262295309 ], [ 130.719473226808987, 33.7291724332377 ], [ 130.71871318539101, 33.730084757755897 ], [ 130.717606418847993, 33.730757771516103 ], [ 130.717410038258009, 33.731099528119799 ], [ 130.717001068372014, 33.731352464295703 ], [ 130.714830923785001, 33.732336904797798 ], [ 130.714278467772004, 33.732253776660798 ], [ 130.714423723511999, 33.733113433308702 ], [ 130.714654943237008, 33.733113967089302 ], [ 130.714929884274, 33.733958002482403 ], [ 130.715237789024997, 33.7357084913669 ], [ 130.714928270369995, 33.736206506119302 ], [ 130.713954177370994, 33.736935372511901 ], [ 130.713939644666993, 33.737121232874202 ], [ 130.711337977936012, 33.737813545338199 ], [ 130.712904262642013, 33.737984626077498 ], [ 130.713341401780013, 33.737711344319401 ], [ 130.713635283195003, 33.737867910152602 ], [ 130.713664845920988, 33.738154319712102 ], [ 130.713210550069988, 33.738722925235201 ], [ 130.713252461684988, 33.7390798049842 ], [ 130.713438693900997, 33.7392180923013 ], [ 130.713240737131002, 33.739364571340801 ], [ 130.71323914042901, 33.739841243539097 ], [ 130.71552485926199, 33.740000080708498 ], [ 130.715688614590988, 33.740573777762499 ], [ 130.714694030798, 33.740769146027503 ], [ 130.714406030866996, 33.7413412350719 ], [ 130.716061701152, 33.741666259347497 ], [ 130.716904786625008, 33.742716639685398 ], [ 130.716477156536001, 33.743144011846503 ], [ 130.716106771475012, 33.744195693699901 ], [ 130.716690536697996, 33.744428289332497 ], [ 130.716536153394003, 33.7446804664973 ], [ 130.716005754488009, 33.744373745682402 ], [ 130.71579611784199, 33.744778440007501 ], [ 130.715849127198993, 33.745346247349801 ], [ 130.716221060650014, 33.7458847794015 ], [ 130.715343260737001, 33.746291106498099 ], [ 130.715253619527999, 33.746553433926998 ], [ 130.715467398121007, 33.747195222362599 ], [ 130.714681494222987, 33.747608307058101 ], [ 130.714746850983005, 33.748024836378399 ], [ 130.715282926426994, 33.748462174037002 ], [ 130.716125762264994, 33.748569141726001 ], [ 130.716337978664001, 33.748775460391002 ], [ 130.716863882929999, 33.749430640102197 ], [ 130.71690903471, 33.749968490933 ], [ 130.717127323970999, 33.750368039919003 ], [ 130.717227962711007, 33.750325019253701 ], [ 130.716108511735996, 33.7511297075458 ], [ 130.716447559610003, 33.751363363636997 ], [ 130.716686423370987, 33.751298048404998 ], [ 130.720148310159999, 33.7519409704582 ], [ 130.720473223945987, 33.751509339927097 ], [ 130.720310214584998, 33.751186632230599 ], [ 130.720697952062011, 33.751291056651098 ], [ 130.720972465706012, 33.7514834196704 ], [ 130.720943011374004, 33.751813815556801 ], [ 130.721173704633003, 33.751899868743898 ], [ 130.720943011374004, 33.751813815556801 ], [ 130.719688491546009, 33.7540478764369 ], [ 130.71971150057999, 33.7547549450153 ], [ 130.719808266769007, 33.754872378631902 ], [ 130.720246326127011, 33.754743409073399 ], [ 130.722053212052998, 33.754892035777402 ], [ 130.722502794059011, 33.755051962570199 ], [ 130.722812384433013, 33.755166068356402 ], [ 130.722909160471005, 33.755203899442598 ], [ 130.722502794059011, 33.755051962570199 ], [ 130.721885211918988, 33.756105289355702 ], [ 130.719827390336008, 33.757874197508102 ], [ 130.718095764999987, 33.760303141249103 ], [ 130.721033775443999, 33.758319652414997 ], [ 130.723342679799998, 33.760630384079903 ], [ 130.723906023209992, 33.761438685101702 ], [ 130.723876779589006, 33.761909659251103 ], [ 130.725406369880005, 33.762620501239802 ], [ 130.724959459128002, 33.764542829692303 ], [ 130.722601031553012, 33.763626906688501 ], [ 130.722437978333005, 33.764136955901201 ], [ 130.721543263213988, 33.765496525276603 ], [ 130.719509096146993, 33.7647478095613 ], [ 130.717460197715013, 33.7645142633421 ], [ 130.717053681077005, 33.7642634761552 ], [ 130.716981334498001, 33.764360447897701 ], [ 130.715810384397003, 33.766096231444102 ], [ 130.715370270404009, 33.767187257948798 ], [ 130.715599080797006, 33.767107201932603 ], [ 130.716159206067005, 33.769234821511297 ], [ 130.716750170165, 33.769790197064701 ], [ 130.717484260627003, 33.769946011431401 ], [ 130.718044269947001, 33.769888054785298 ], [ 130.719271936424008, 33.769369528085697 ], [ 130.719241246395001, 33.769785763016898 ], [ 130.717191843407988, 33.773692957191798 ], [ 130.719892893873009, 33.7743814140957 ], [ 130.719952600226009, 33.774698950994903 ], [ 130.720395440961994, 33.773919275337299 ], [ 130.720544635808011, 33.774200176970503 ], [ 130.721450699862004, 33.774507513988397 ], [ 130.723446904388993, 33.774747836559797 ], [ 130.723731657401999, 33.775104054971898 ], [ 130.724885107671014, 33.775268846352802 ], [ 130.72798890107299, 33.774150993704097 ], [ 130.72909686413999, 33.774564019273598 ], [ 130.729637256470994, 33.774524274956299 ], [ 130.729711272196994, 33.7743563639795 ], [ 130.73034765102301, 33.774215955996802 ], [ 130.730731137786989, 33.773779923561698 ], [ 130.731782899867, 33.773383684040098 ], [ 130.732674628257996, 33.7723640595975 ], [ 130.734235020130001, 33.772276350621702 ], [ 130.734678064913993, 33.771415872983098 ], [ 130.734904061578987, 33.771335573767701 ], [ 130.735801559549003, 33.771588146646003 ], [ 130.736866408308998, 33.771131481479699 ], [ 130.737814166507007, 33.771188490438902 ], [ 130.738035213399996, 33.770823344942798 ], [ 130.740002963029013, 33.770713433080701 ], [ 130.74051597330299, 33.771012952466897 ], [ 130.741275325901995, 33.771790272038999 ], [ 130.742805366084013, 33.772106145794901 ], [ 130.743169736099986, 33.772025898673697 ], [ 130.743932907975989, 33.772279229797199 ], [ 130.744707717251998, 33.772242369776102 ], [ 130.745494949957987, 33.771974697391499 ], [ 130.746289245132999, 33.771978848156898 ], [ 130.747306318741011, 33.7715977313241 ], [ 130.747498347537004, 33.771670286652103 ], [ 130.747680731394013, 33.771302726099897 ], [ 130.748421782153002, 33.770739164041998 ], [ 130.748810771589007, 33.771020592232396 ], [ 130.749267875715987, 33.770567807249201 ], [ 130.752384778226997, 33.769765782800398 ], [ 130.75304168072401, 33.768587983428098 ], [ 130.754005723856011, 33.768823419225498 ], [ 130.755070698820987, 33.768118724827403 ], [ 130.755607678708998, 33.766099114838802 ], [ 130.756293687995992, 33.765033851068701 ], [ 130.75637290416401, 33.764555990425897 ], [ 130.756343157195005, 33.764061577300602 ], [ 130.755588526847987, 33.763799950641904 ], [ 130.755678771709995, 33.763277666072298 ], [ 130.756017814431004, 33.7631587262549 ], [ 130.756339530339005, 33.762738828010903 ], [ 130.757083754358007, 33.762972040618003 ], [ 130.757506464366003, 33.761867365782201 ], [ 130.758329879066991, 33.7619189176989 ], [ 130.758795843692013, 33.761542260917999 ], [ 130.759672181686, 33.7599393035809 ], [ 130.760067043345003, 33.759672741237303 ], [ 130.760452977717989, 33.7586868152164 ], [ 130.760784003921003, 33.758431261454 ], [ 130.760870434326989, 33.757970597442998 ], [ 130.761274509012992, 33.757319299700598 ], [ 130.762220936347006, 33.756909255993897 ], [ 130.762648771647008, 33.756282867312301 ], [ 130.762530644326006, 33.7562436850884 ], [ 130.762648771647008, 33.756282867312301 ], [ 130.763218323003002, 33.755648575376902 ], [ 130.763316264173994, 33.755105588734601 ], [ 130.763090602572987, 33.7545697980783 ], [ 130.764769831991998, 33.754258488864401 ], [ 130.765772821521011, 33.753869377839401 ], [ 130.766214430739012, 33.753942981152399 ], [ 130.766981970386013, 33.754426818864097 ], [ 130.768061043242, 33.754225065523997 ], [ 130.768418807842011, 33.753976656185003 ], [ 130.768978602075009, 33.7528371817031 ], [ 130.769440685702989, 33.752671100446101 ], [ 130.765018191168991, 33.750473624652102 ], [ 130.762212671717009, 33.747397173425099 ], [ 130.760138002854006, 33.745923334326299 ], [ 130.759676719200996, 33.745318116720803 ], [ 130.759065508306008, 33.745020088201201 ], [ 130.759451438995995, 33.744458915733901 ], [ 130.757939989888996, 33.742610244815197 ], [ 130.757744828297007, 33.741837110983298 ], [ 130.75561793920599, 33.737164316790498 ], [ 130.755557510855994, 33.734448578473 ], [ 130.75485095694799, 33.731870985882203 ], [ 130.753297796693005, 33.730909866676001 ], [ 130.749864610288995, 33.7299282675407 ], [ 130.750509411664012, 33.7288363940972 ], [ 130.749226796199991, 33.728986601766699 ], [ 130.749700904814006, 33.728047315856003 ], [ 130.749532883357006, 33.727292492830898 ], [ 130.747900170950004, 33.727608642508699 ], [ 130.747502794977009, 33.7278398644386 ], [ 130.74738448987199, 33.728110959876297 ], [ 130.746208813501994, 33.727706491626499 ], [ 130.746444767660989, 33.726913253823199 ], [ 130.747018007914988, 33.7264819195371 ], [ 130.746586991366001, 33.726325651376101 ], [ 130.745029571651997, 33.724631261326003 ], [ 130.742770530001991, 33.726443750524297 ], [ 130.741566176792986, 33.724328667417701 ], [ 130.740217392038005, 33.7248030144927 ], [ 130.740352261801007, 33.724357265999402 ], [ 130.740272186495986, 33.724029198679297 ], [ 130.740652047370986, 33.724028654138898 ], [ 130.740639477704008, 33.7236576873945 ], [ 130.740423141593993, 33.723796356123799 ], [ 130.740639477704008, 33.7236576873944 ], [ 130.741036343079003, 33.723428598660803 ], [ 130.739844796802998, 33.721443058035398 ], [ 130.736108169655012, 33.721925844124499 ], [ 130.73642869078401, 33.721394626617503 ], [ 130.734584419653004, 33.720100413179303 ], [ 130.733627981874008, 33.718490671289601 ], [ 130.734020632046992, 33.717183709325397 ], [ 130.733921148838988, 33.717018801136199 ], [ 130.733272008364992, 33.716517051825903 ], [ 130.731950327016989, 33.7161165398714 ], [ 130.731326590895009, 33.7155418559704 ], [ 130.729351975463004, 33.716354084191501 ], [ 130.728173584390987, 33.716555063511102 ], [ 130.727569602498988, 33.715458640312796 ], [ 130.727032952627013, 33.715169344671899 ], [ 130.726200725442993, 33.715045771019803 ], [ 130.725763045621989, 33.714676315868203 ], [ 130.725432361564998, 33.714807654174798 ], [ 130.724454031930009, 33.715799333643403 ], [ 130.724453864047007, 33.716352725386699 ], [ 130.724887879933988, 33.7171772336442 ], [ 130.725388711026994, 33.7173471279078 ], [ 130.725617856436003, 33.718118414466602 ], [ 130.726833846964013, 33.718162255803598 ], [ 130.727006741292001, 33.719004980353297 ], [ 130.727856459542011, 33.720667804241998 ], [ 130.727619049341001, 33.721113174581703 ], [ 130.727866124693008, 33.722435838647399 ], [ 130.727448611212992, 33.723169977462099 ], [ 130.727470898537007, 33.723690096087303 ], [ 130.727197190789013, 33.723823050217497 ], [ 130.727271548327991, 33.723928383255299 ], [ 130.727678981204008, 33.723728242472497 ], [ 130.727829372893012, 33.723941376965897 ], [ 130.727416535633012, 33.7241441837038 ], [ 130.728225007723012, 33.725261900295401 ], [ 130.729655495321992, 33.725664582657501 ], [ 130.729798389579003, 33.726445879143803 ], [ 130.730359363704991, 33.726788603405801 ], [ 130.730524399952998, 33.727119895498397 ], [ 130.730644238234987, 33.727890150274398 ], [ 130.730379723443008, 33.728461207577404 ], [ 130.730462975277987, 33.728862904241097 ], [ 130.732298033825998, 33.729378149974202 ], [ 130.732670785461011, 33.729920859246398 ], [ 130.732759612764994, 33.730848820004802 ], [ 130.733241520365993, 33.730982723858901 ], [ 130.733090860260006, 33.731273956218999 ], [ 130.732410715774989, 33.7318093915651 ], [ 130.728228455323006, 33.731696174037701 ], [ 130.725973159424001, 33.7312278412222 ], [ 130.723968263415003, 33.731471905504101 ] ] ] ] } }
]
}
