{
"type": "FeatureCollection",
"name": "福津",
"crs": { "type": "name", "properties": { "name": "urn:ogc:def:crs:OGC:1.3:CRS84" } },
"features": [
{ "type": "Feature", "properties": { "id": "福津.1", "Name": null, "description": null, "timestamp": null, "begin": null, "end": null, "altitudeMode": null, "tessellate": -1, "extrude": 0, "visibility": -1, "drawOrder": null, "icon": null, "KEY_CODE": "402240185104", "PREF": "40", "CITY": "224", "K_AREA": "021003010", "S_AREA": "0185104", "PREF_NAME": "福岡県", "CITY_NAME": "福津市", "S_NAME": "花見が浜三丁目", "KIGO_E": null, "HCODE": 8101, "AREA": 5633.658, "PERIMETER": 389.955, "KIHON1": "0210", "DUMMY1": "-", "KIHON2": "03", "KIHON3": "010", "C1": 8, "C2": 185, "DUMMY2": "-", "C3": 1, "DUMMY3": "-", "C4": 4, "KIGO_A": null, "KIGO_D": null, "N_KEN": null, "N_CITY": null, "N_C1": 0, "KIGO_I": null, "KEYCODE1": "2240185-1-04", "JINKO": 14, "SETAI": 6, "KEN_OLD": "40", "CITY_OLD": "224", "X_CODE": 130.471726, "Y_CODE": 33.760495, "KCODE1": "0210-03010", "CCODE1": "185-1- 4" }, "geometry": { "type": "MultiPolygon", "coordinates": [ [ [ [ 130.479937277869993, 33.751616261859198 ], [ 130.477564455669011, 33.751471968516697 ], [ 130.476491469829, 33.7517667154397 ], [ 130.475747269441996, 33.752213173464703 ], [ 130.472759857462989, 33.752221283575601 ], [ 130.469695934796988, 33.753157276918998 ], [ 130.470545696169012, 33.7560091058767 ], [ 130.469668501262987, 33.756085853421197 ], [ 130.468865159645986, 33.755858328830598 ], [ 130.46826868635199, 33.755228210762297 ], [ 130.468012504530009, 33.754405562586001 ], [ 130.467611315994986, 33.754232169343098 ], [ 130.467642290496997, 33.754760604698198 ], [ 130.468458469295001, 33.757012855466598 ], [ 130.468314606305, 33.757059079227403 ], [ 130.468467884689005, 33.757058823035798 ], [ 130.468623565178007, 33.757550884292897 ], [ 130.469432296548007, 33.761019388974098 ], [ 130.469477032620006, 33.761821120106802 ], [ 130.468995828348, 33.761898787095397 ], [ 130.469010837761004, 33.762145533549102 ], [ 130.469391778036993, 33.762161541813498 ], [ 130.469720399431992, 33.763318877787597 ], [ 130.46803622299899, 33.763511819104203 ], [ 130.468461683969991, 33.764937669985102 ], [ 130.467402225341999, 33.765131109726099 ], [ 130.467775656382003, 33.766329990331499 ], [ 130.469992069423995, 33.766008742331501 ], [ 130.47044924699, 33.766803227459398 ], [ 130.470997939178005, 33.766761413766197 ], [ 130.470474574588991, 33.766895259341197 ], [ 130.470926163348992, 33.768950243519498 ], [ 130.471061046573993, 33.770896512593801 ], [ 130.471048396680999, 33.772076747839598 ], [ 130.470704292390991, 33.773786538028197 ], [ 130.472083667508002, 33.773858517426397 ], [ 130.472505655406991, 33.773563911202203 ], [ 130.474331921132006, 33.772976763884699 ], [ 130.476661990234987, 33.7728706461575 ], [ 130.479134102297991, 33.772055494288203 ], [ 130.479884103003002, 33.771365600264403 ], [ 130.482694306793007, 33.770240442543503 ], [ 130.483927314112009, 33.770054784040802 ], [ 130.484461252697002, 33.7697879347824 ], [ 130.489338076307007, 33.769158533571598 ], [ 130.489263199022986, 33.768849883916197 ], [ 130.489338076307007, 33.769158533571598 ], [ 130.491458247255991, 33.769194753274 ], [ 130.496696310380997, 33.769898846465601 ], [ 130.496784308754002, 33.769360340388999 ], [ 130.499651743445014, 33.769953810379398 ], [ 130.499418032209007, 33.769517546873402 ], [ 130.50003462267901, 33.768741186348599 ], [ 130.500222505081013, 33.768863101052901 ], [ 130.500353233033991, 33.768471419728499 ], [ 130.502019921666005, 33.767903561689799 ], [ 130.502154286391999, 33.767705110839103 ], [ 130.501630467946001, 33.7671027116658 ], [ 130.501899252990995, 33.766834713692397 ], [ 130.501865318093991, 33.765921183069899 ], [ 130.501343202725991, 33.765835184511801 ], [ 130.50044140472599, 33.764721906839902 ], [ 130.500727136704995, 33.7641486924554 ], [ 130.500544530731986, 33.763605638096998 ], [ 130.500925307338008, 33.761685713347099 ], [ 130.501307210779004, 33.761010258378803 ], [ 130.500657056855999, 33.760540479015702 ], [ 130.500895294797004, 33.760521532440301 ], [ 130.499506095365007, 33.759462429836503 ], [ 130.498573891538001, 33.758393290553997 ], [ 130.497703782096011, 33.757029014712103 ], [ 130.496370517174, 33.754176718301103 ], [ 130.495330970823005, 33.752739558488798 ], [ 130.490796261631004, 33.7486051207066 ], [ 130.490545812942003, 33.748314297648697 ], [ 130.490843174496007, 33.748157456897097 ], [ 130.490405095460005, 33.747968984209201 ], [ 130.489992153384009, 33.747494344251699 ], [ 130.489703198438008, 33.747648399591299 ], [ 130.489489248235003, 33.747360683195801 ], [ 130.486722845565993, 33.748724122255297 ], [ 130.487287917190002, 33.749379589652101 ], [ 130.486381568733009, 33.749803741228902 ], [ 130.485817871248003, 33.749158912415403 ], [ 130.482785773768001, 33.750562631474303 ], [ 130.483211651413995, 33.751238881128799 ], [ 130.481918365187994, 33.751817820306997 ], [ 130.481727285299996, 33.751501727792999 ], [ 130.480722445156005, 33.752007133120799 ], [ 130.480549786480992, 33.751699426946999 ], [ 130.479944822330992, 33.751777460543302 ], [ 130.479937277869993, 33.751616261859198 ] ] ], [ [ [ 130.49828825056801, 33.770378042740603 ], [ 130.497870293225986, 33.770310908080702 ], [ 130.497177862484989, 33.7704994079362 ], [ 130.497206804971, 33.770778750845103 ], [ 130.497442126403001, 33.771053296437202 ], [ 130.497687329077991, 33.7709861794565 ], [ 130.497882681374989, 33.771114750346797 ], [ 130.498095361417995, 33.771707028497197 ], [ 130.498467760170001, 33.771625489522997 ], [ 130.498451891304001, 33.771273225780199 ], [ 130.499070947948013, 33.771243542531998 ], [ 130.498853258378006, 33.771698690602598 ], [ 130.499596420063, 33.771715223692503 ], [ 130.500002772643995, 33.772067939316898 ], [ 130.499981060966007, 33.772429561542403 ], [ 130.499799719414, 33.7726247932885 ], [ 130.499948467952009, 33.772776842058803 ], [ 130.499447512432994, 33.772765375739603 ], [ 130.499307033375999, 33.773156595537301 ], [ 130.499578501320997, 33.773897033371597 ], [ 130.499399432138006, 33.773882290055198 ], [ 130.499356787403002, 33.774195012854399 ], [ 130.499746812678012, 33.7743114793291 ], [ 130.499730744564005, 33.774768430159099 ], [ 130.500405548271999, 33.775456680237497 ], [ 130.499356755377988, 33.776280744339402 ], [ 130.499325578932996, 33.7765721678715 ], [ 130.49900914830701, 33.776801859839601 ], [ 130.499005532084993, 33.777422844624802 ], [ 130.499364360295004, 33.777706411331302 ], [ 130.499355458324999, 33.777866344627803 ], [ 130.500399524068001, 33.778252069488801 ], [ 130.501936626195004, 33.778262002975097 ], [ 130.502347289210007, 33.777818758434201 ], [ 130.502247833700011, 33.777571323109498 ], [ 130.502821033077993, 33.777048216821001 ], [ 130.505265316540999, 33.776008250597997 ], [ 130.504978730020014, 33.775378495356698 ], [ 130.505043067875988, 33.774839181234299 ], [ 130.504593242366013, 33.773621019536499 ], [ 130.504666757993988, 33.773202194937198 ], [ 130.503888911068003, 33.772125359125098 ], [ 130.503880628820013, 33.7719890241667 ], [ 130.504168287059002, 33.7719753130134 ], [ 130.504041668111, 33.771772853965601 ], [ 130.503149959311003, 33.771736732214499 ], [ 130.503150487901991, 33.771462581195102 ], [ 130.502541259115986, 33.771374829134203 ], [ 130.502877745657997, 33.770953048823003 ], [ 130.50257215109599, 33.770736274011298 ], [ 130.502462526570014, 33.770870654541199 ], [ 130.501870012181001, 33.770621377293097 ], [ 130.501939428396014, 33.770300379200499 ], [ 130.498422166344994, 33.770150430808599 ], [ 130.49828825056801, 33.770378042740603 ] ] ] ] } }
]
}
