{
"type": "FeatureCollection",
"name": "筑紫野B",
"crs": { "type": "name", "properties": { "name": "urn:ogc:def:crs:EPSG::4612" } },
"features": [
{ "type": "Feature", "properties": { "KEY_CODE": "402170328102", "PREF": "40", "CITY": "217", "K_AREA": "026001150", "S_AREA": "0328102", "PREF_NAME": "福岡県", "CITY_NAME": "筑紫野市", "S_NAME": "大字筑紫", "KIGO_E": null, "HCODE": 8101, "AREA": 33021.868, "PERIMETER": 1008.061, "KIHON1": "0260", "DUMMY1": "-", "KIHON2": "01", "KIHON3": "150", "C1": 15, "C2": 328, "DUMMY2": "-", "C3": 1, "DUMMY3": "-", "C4": 2, "KIGO_A": null, "KIGO_D": null, "N_KEN": null, "N_CITY": null, "N_C1": 0, "KIGO_I": null, "KEYCODE1": "2170328-1-02", "JINKO": 0, "SETAI": 0, "KEN_OLD": "40", "CITY_OLD": "217", "X_CODE": 130.530242, "Y_CODE": 33.466604, "KCODE1": "0260-01150", "CCODE1": "328-1- 2" }, "geometry": { "type": "MultiPolygon", "coordinates": [ [ [ [ 130.544094829910733, 33.439686335764598 ], [ 130.543866298737441, 33.43930678053129 ], [ 130.54379006517371, 33.439166948591662 ], [ 130.543185847923183, 33.439408264822291 ], [ 130.542764595653921, 33.439576495691107 ], [ 130.542454189994686, 33.439700467674847 ], [ 130.542146336438805, 33.439834451071896 ], [ 130.542134335662325, 33.439839655186738 ], [ 130.541938575619952, 33.439972429618372 ], [ 130.54182826581453, 33.440073855092663 ], [ 130.541696867695066, 33.440198342217712 ], [ 130.541575662883815, 33.440333962269904 ], [ 130.541511014166502, 33.440292656099594 ], [ 130.541019695205932, 33.4408558592406 ], [ 130.540236971918091, 33.44175306173554 ], [ 130.540131203654141, 33.44151058307672 ], [ 130.539978533173894, 33.441199810201731 ], [ 130.539928113920155, 33.441112868973335 ], [ 130.539849279312193, 33.441100812099755 ], [ 130.539682449178599, 33.440812245283801 ], [ 130.539374087461141, 33.440923610612082 ], [ 130.539175414739333, 33.440994237820362 ], [ 130.539134760739898, 33.440959816150574 ], [ 130.539210561034082, 33.440862704018848 ], [ 130.539256778682557, 33.440861959497987 ], [ 130.53927636135802, 33.440845158169012 ], [ 130.539197554581932, 33.440780020906686 ], [ 130.539147440652926, 33.440889732557281 ], [ 130.539096942399595, 33.440961154181572 ], [ 130.538952429906118, 33.441340044405557 ], [ 130.538896830410295, 33.441470267391601 ], [ 130.538860777033847, 33.441360166909618 ], [ 130.538583918215494, 33.441280207603775 ], [ 130.538324937336768, 33.441758211134982 ], [ 130.538441917344727, 33.441786998221112 ], [ 130.53895326457129, 33.442047183672457 ], [ 130.539367426420085, 33.442222647205931 ], [ 130.539468562441471, 33.442308050823108 ], [ 130.539735569255782, 33.44224979160915 ], [ 130.539785089089207, 33.442363535975076 ], [ 130.53994245803429, 33.442699862543726 ], [ 130.539947701195246, 33.442820873128241 ], [ 130.539932136527199, 33.442983756409561 ], [ 130.54002383389107, 33.443193954102959 ], [ 130.540026809969504, 33.443465534871429 ], [ 130.540052644193111, 33.443601415165645 ], [ 130.540090604778158, 33.443947198641212 ], [ 130.540149289693915, 33.443996798606463 ], [ 130.540176409282282, 33.444159841129981 ], [ 130.540102265306444, 33.444253366907304 ], [ 130.53995447768753, 33.444329360242421 ], [ 130.539763989619729, 33.444400264941834 ], [ 130.539183221410411, 33.444409178052759 ], [ 130.538781471043251, 33.445157029758896 ], [ 130.538868591626397, 33.445367002156516 ], [ 130.5390267080912, 33.445602489141756 ], [ 130.538895418791896, 33.445903058828321 ], [ 130.540777019752568, 33.446780028060374 ], [ 130.540770483198884, 33.446912041047554 ], [ 130.540407794418201, 33.446737279408637 ], [ 130.539619631808648, 33.446420734795637 ], [ 130.5394253733227, 33.446342412891703 ], [ 130.53895801560148, 33.446153981105212 ], [ 130.538611252221841, 33.445981308749971 ], [ 130.538241386991956, 33.44575270464744 ], [ 130.537713318090169, 33.445339561751418 ], [ 130.537453367995283, 33.445102255604887 ], [ 130.537283713143637, 33.444935675546958 ], [ 130.536827626556345, 33.444437687830366 ], [ 130.536457375332134, 33.443984030183174 ], [ 130.53600311718597, 33.443520210251435 ], [ 130.535579842126623, 33.443139736801122 ], [ 130.535817959421877, 33.443804545362596 ], [ 130.536006171512554, 33.44439787430629 ], [ 130.536143861164049, 33.444680171735484 ], [ 130.536381581215778, 33.445050230646473 ], [ 130.536633013806636, 33.445394489302608 ], [ 130.537037840077801, 33.445969223227991 ], [ 130.537289209163731, 33.446326405469414 ], [ 130.537435024965703, 33.4465277206222 ], [ 130.537774742093603, 33.446998580984712 ], [ 130.53799725838428, 33.447323285828936 ], [ 130.538229164999706, 33.447699802339258 ], [ 130.53838781887103, 33.448040473484511 ], [ 130.538471649459183, 33.448277168387328 ], [ 130.538536040624308, 33.44852678809557 ], [ 130.538778328336633, 33.448498766889223 ], [ 130.538839165120123, 33.44864238712492 ], [ 130.538894779914699, 33.448915150006584 ], [ 130.53900828417045, 33.449595240722431 ], [ 130.539339279811259, 33.450210058043126 ], [ 130.539384319331134, 33.450401345548208 ], [ 130.539478461459879, 33.450905986716833 ], [ 130.539593430478334, 33.451739938707803 ], [ 130.539729530114329, 33.451818672568351 ], [ 130.539729098039942, 33.451820925268564 ], [ 130.539760177086322, 33.451998741424433 ], [ 130.539806085737411, 33.452407959430538 ], [ 130.540011542506505, 33.452442321565044 ], [ 130.54001363394903, 33.452882374811871 ], [ 130.539616583574684, 33.453593445585362 ], [ 130.539582445473457, 33.453747844783685 ], [ 130.539303321401604, 33.453714620095973 ], [ 130.539176922558681, 33.45427956286521 ], [ 130.539118342941549, 33.454526722474014 ], [ 130.539088307842889, 33.454699946796481 ], [ 130.53908124002561, 33.454725390716838 ], [ 130.539033010405404, 33.454898335328586 ], [ 130.538984468526735, 33.455138451506691 ], [ 130.538942305947103, 33.455332201079443 ], [ 130.538902315161067, 33.455488587964453 ], [ 130.538837665123992, 33.455739106554923 ], [ 130.538740047741186, 33.456152730476425 ], [ 130.538662695452985, 33.456524370548863 ], [ 130.538595749361832, 33.456835465947783 ], [ 130.538560112556013, 33.457121457510958 ], [ 130.538547509181399, 33.457224052812023 ], [ 130.538533622025909, 33.457569016670419 ], [ 130.53851792279292, 33.457875264602059 ], [ 130.53849754586642, 33.458311048050746 ], [ 130.538480275522488, 33.458723311328441 ], [ 130.538462828065178, 33.459169215881353 ], [ 130.538446263218475, 33.459638721911865 ], [ 130.538442799450706, 33.460109931868232 ], [ 130.538435000771329, 33.460439736166911 ], [ 130.538433422432092, 33.460737617748201 ], [ 130.534799969266572, 33.459936590843959 ], [ 130.532764722081026, 33.459294880328088 ], [ 130.532789640738912, 33.459185464284381 ], [ 130.531504352080844, 33.459025281102655 ], [ 130.531344037388834, 33.4594312302712 ], [ 130.531168443586466, 33.459826060692727 ], [ 130.531008865076785, 33.460164979581755 ], [ 130.53076975360986, 33.460617760412177 ], [ 130.530560641901616, 33.460962092665163 ], [ 130.53035786815849, 33.461283871183362 ], [ 130.530139711292065, 33.461582517884736 ], [ 130.529939656231193, 33.461836217294234 ], [ 130.529612361889832, 33.462221204477387 ], [ 130.529511444400583, 33.46234156870031 ], [ 130.529388520536372, 33.462467098784053 ], [ 130.529193031572618, 33.462676360197015 ], [ 130.528999689999665, 33.462876893335306 ], [ 130.528756142337159, 33.463098195113311 ], [ 130.528488322403462, 33.463347442594689 ], [ 130.528175528393035, 33.463620995946712 ], [ 130.527823856721625, 33.463925928738675 ], [ 130.527484859551919, 33.464202868382884 ], [ 130.527232985217552, 33.464408424925018 ], [ 130.526889793929115, 33.464690594314668 ], [ 130.526685178928403, 33.464852581547184 ], [ 130.526607541556331, 33.464910017129853 ], [ 130.526402944621594, 33.465068482052153 ], [ 130.526079158341986, 33.465328744381402 ], [ 130.525828726853916, 33.465545642659222 ], [ 130.526150560434303, 33.465714079758499 ], [ 130.526285206443617, 33.46576869767496 ], [ 130.526426134865716, 33.465749546156694 ], [ 130.526561288072969, 33.465710718231712 ], [ 130.526655437802418, 33.465661905128123 ], [ 130.526796622339219, 33.465603444108069 ], [ 130.52689027549053, 33.465638214949941 ], [ 130.526866345639263, 33.46572664041534 ], [ 130.526836717456973, 33.465780630711272 ], [ 130.526842158998051, 33.465854444819996 ], [ 130.526936082208834, 33.465854803272585 ], [ 130.527141411319292, 33.46585558665187 ], [ 130.527381760432803, 33.465900745667568 ], [ 130.527469758301436, 33.46590108113034 ], [ 130.527546244976179, 33.465862026820965 ], [ 130.527669555664772, 33.465852669885905 ], [ 130.527768932079908, 33.46591697874743 ], [ 130.527826823577982, 33.466059819583307 ], [ 130.527802146900598, 33.466285967791322 ], [ 130.527801938676561, 33.466324355204549 ], [ 130.527801853434511, 33.466340070103371 ], [ 130.527901433285621, 33.466374862875419 ], [ 130.528545750982374, 33.466578969984511 ], [ 130.528959028237921, 33.466656767511168 ], [ 130.529140829916145, 33.46667221430021 ], [ 130.52923154906054, 33.46667255892968 ], [ 130.529326609581346, 33.467089607454874 ], [ 130.529342195386278, 33.467166459151613 ], [ 130.52943192293813, 33.467608912279978 ], [ 130.529445127032261, 33.467674018301174 ], [ 130.529573521345384, 33.467605974950402 ], [ 130.529654618538586, 33.467530537666249 ], [ 130.529694799764968, 33.467461257207241 ], [ 130.529761906078505, 33.467386668778765 ], [ 130.529847736127977, 33.467332981189934 ], [ 130.529921645909383, 33.467291692171457 ], [ 130.529994982731978, 33.467258606392583 ], [ 130.530038659895411, 33.467339025888137 ], [ 130.530275089182169, 33.467187530422642 ], [ 130.530418564109738, 33.467115936092192 ], [ 130.53049644579616, 33.46706557787504 ], [ 130.530575966530876, 33.466992536244554 ], [ 130.530650995976686, 33.466907615958185 ], [ 130.530670575956606, 33.466868014466577 ], [ 130.530676309519691, 33.466802276833022 ], [ 130.530672503393248, 33.46673116117725 ], [ 130.530670354420067, 33.466709309391142 ], [ 130.53083938111439, 33.466687406196193 ], [ 130.530972896465443, 33.466667171940671 ], [ 130.531091465769805, 33.466625239315157 ], [ 130.531155132736615, 33.466589411088499 ], [ 130.531229504622274, 33.466535954762243 ], [ 130.531253490293437, 33.4665050210819 ], [ 130.531448118737188, 33.466527596829707 ], [ 130.531734165253226, 33.466547415818162 ], [ 130.531833063895732, 33.466562216862435 ], [ 130.531959928539862, 33.466568941627045 ], [ 130.532036529259813, 33.466577679625026 ], [ 130.532111432856055, 33.466574507190394 ], [ 130.532168731745742, 33.466561680790861 ], [ 130.532204301708589, 33.466549191184292 ], [ 130.532237046540928, 33.466536744290202 ], [ 130.532329209181654, 33.466519910593234 ], [ 130.532544597983247, 33.466488255624519 ], [ 130.532636130296169, 33.466472369802567 ], [ 130.532706078334712, 33.466469026408113 ], [ 130.532772783195412, 33.466468376375111 ], [ 130.53282340034653, 33.466458647827217 ], [ 130.532874094854549, 33.466434492654336 ], [ 130.532942123152395, 33.466387858998381 ], [ 130.532970182674887, 33.466371733715256 ], [ 130.533012630692866, 33.466357424376532 ], [ 130.533085815549896, 33.466328049354246 ], [ 130.533099452325018, 33.466314895650456 ], [ 130.533129810617396, 33.466340563221252 ], [ 130.533288015314042, 33.466375606811795 ], [ 130.533458135110067, 33.466391007151749 ], [ 130.533581641035283, 33.466337368188782 ], [ 130.53381091001404, 33.466254609349924 ], [ 130.53416904243619, 33.466216609665459 ], [ 130.534315670478719, 33.466231920524962 ], [ 130.53459684475223, 33.466321494143571 ], [ 130.534921901615377, 33.466433387116957 ], [ 130.53527945627846, 33.466503551268673 ], [ 130.535432111074755, 33.46648446339718 ], [ 130.535649857215844, 33.466372167339891 ], [ 130.535985741622852, 33.466155940704475 ], [ 130.536296843433462, 33.466079461253678 ], [ 130.536525498762359, 33.466119650798966 ], [ 130.536894547464186, 33.46623412007883 ], [ 130.537046861786962, 33.466278960216286 ], [ 130.537205555351278, 33.466230374023013 ], [ 130.537381935397946, 33.466167095369322 ], [ 130.53749996410815, 33.466044564330623 ], [ 130.537518574349633, 33.465847908577963 ], [ 130.53756595854631, 33.465764498848337 ], [ 130.537683567007264, 33.465720657092497 ], [ 130.537818377013366, 33.465745741111832 ], [ 130.537935908381797, 33.465716658137595 ], [ 130.538041854599072, 33.46565311655867 ], [ 130.538241578245646, 33.46560957905055 ], [ 130.538318689076561, 33.465618527441684 ], [ 130.538328768764018, 33.465619727554333 ], [ 130.538525998537295, 33.465642610594287 ], [ 130.538701881784533, 33.465672775822078 ], [ 130.538795582187333, 33.465707534620456 ], [ 130.538847506760163, 33.465870036449097 ], [ 130.538775997292618, 33.46608125626755 ], [ 130.538734298010496, 33.466194206295498 ], [ 130.538792094931949, 33.466366556582223 ], [ 130.538885484490862, 33.466460348282951 ], [ 130.538973068187403, 33.466539360355341 ], [ 130.539213581679064, 33.466555005406377 ], [ 130.539894709987493, 33.466464060679478 ], [ 130.540449680420977, 33.466380012871937 ], [ 130.540954806493914, 33.466288418324524 ], [ 130.541142856861882, 33.466235039020773 ], [ 130.541436386494297, 33.466206598781298 ], [ 130.541606777227798, 33.466162944639059 ], [ 130.541765416976006, 33.466124181866654 ], [ 130.542264088613138, 33.466140763473518 ], [ 130.542833398775116, 33.46611825703873 ], [ 130.543080166940712, 33.466055228006987 ], [ 130.543403285983004, 33.465977717344643 ], [ 130.543758219496482, 33.465996236020992 ], [ 130.5441275079977, 33.466066407466109 ], [ 130.544315094024768, 33.46610153921786 ], [ 130.544467643484808, 33.466102094311864 ], [ 130.54457936542056, 33.466058225111297 ], [ 130.544662140467409, 33.465940493105016 ], [ 130.544773836351169, 33.465901553836304 ], [ 130.544967023645597, 33.465990772067975 ], [ 130.545376499516124, 33.466228326456928 ], [ 130.545761730179805, 33.465771787621946 ], [ 130.54637056261663, 33.465050231048551 ], [ 130.546849399913327, 33.464482760674095 ], [ 130.546855489219496, 33.464475491549727 ], [ 130.546881341747877, 33.46449037833424 ], [ 130.548298765673337, 33.465307541669553 ], [ 130.548435067172306, 33.465386122586402 ], [ 130.548664190896488, 33.465515762373613 ], [ 130.549486243283155, 33.465980717960903 ], [ 130.549612392246701, 33.46587722929268 ], [ 130.549973337241283, 33.46553760667981 ], [ 130.550897604506474, 33.464729431637352 ], [ 130.551668770376125, 33.464033375622527 ], [ 130.551700864424191, 33.464084915523884 ], [ 130.551833840974069, 33.464066830187249 ], [ 130.552269000596738, 33.463871597550018 ], [ 130.552655240768047, 33.463709582371585 ], [ 130.552751416922604, 33.463573860221942 ], [ 130.552536060349297, 33.463250549206442 ], [ 130.553457310374682, 33.462432089242192 ], [ 130.553785343034292, 33.462143009897957 ], [ 130.554017409156671, 33.461938498662612 ], [ 130.554028554706036, 33.461928606596977 ], [ 130.554375434527117, 33.46162132278149 ], [ 130.555095484965676, 33.460983881815949 ], [ 130.555068726539844, 33.460920461045923 ], [ 130.554712259166251, 33.460634769403192 ], [ 130.554549946719845, 33.460512641173032 ], [ 130.554322752818194, 33.460391713351918 ], [ 130.554199203034301, 33.460325952005881 ], [ 130.554179572600475, 33.460315503185399 ], [ 130.553980006855852, 33.460197591321965 ], [ 130.553543585168342, 33.459943378289495 ], [ 130.553623384219804, 33.459888433207219 ], [ 130.554046629390371, 33.459643557891297 ], [ 130.554125523273115, 33.459574448380359 ], [ 130.554164361154335, 33.459482301814056 ], [ 130.554176831441993, 33.459418593158894 ], [ 130.554195507204639, 33.459382379754402 ], [ 130.554249032560989, 33.459343647288655 ], [ 130.554357005640185, 33.459298946593485 ], [ 130.554698911155498, 33.459157265151681 ], [ 130.554737229384813, 33.45912545415144 ], [ 130.554790534132565, 33.459014761586744 ], [ 130.554781736456079, 33.458984648950327 ], [ 130.554768362785694, 33.458962024228398 ], [ 130.55473694983877, 33.458958142827676 ], [ 130.554886892047989, 33.458825215891927 ], [ 130.555037735584335, 33.458746147381547 ], [ 130.555360615123163, 33.45857688698392 ], [ 130.55505608093091, 33.458436705762082 ], [ 130.554939757517189, 33.457919354690524 ], [ 130.554713092328114, 33.457474910501638 ], [ 130.554499358415768, 33.456259821547874 ], [ 130.553499267607975, 33.454664787469113 ], [ 130.554799245852195, 33.455300137300895 ], [ 130.554770750551853, 33.455474003915938 ], [ 130.554947460552796, 33.455512709607881 ], [ 130.555144570880685, 33.455687380521162 ], [ 130.555390730496924, 33.45579427875046 ], [ 130.55558671668453, 33.455868383345873 ], [ 130.555643800388026, 33.455765662699946 ], [ 130.556008187066254, 33.455571433678358 ], [ 130.556079168136364, 33.455495604637669 ], [ 130.556179187427489, 33.455485429397548 ], [ 130.556510306438099, 33.455238420724406 ], [ 130.557026902859462, 33.454801229074889 ], [ 130.557272084179203, 33.454968353684869 ], [ 130.557428792302801, 33.454932593245431 ], [ 130.557586090358228, 33.454921456915223 ], [ 130.557665943841869, 33.454893631516015 ], [ 130.557732522067141, 33.454832155444983 ], [ 130.557765067482933, 33.454778201757968 ], [ 130.557808335027573, 33.454648311484092 ], [ 130.557783010909674, 33.454546356477316 ], [ 130.557946381547197, 33.454439257059924 ], [ 130.55780192503471, 33.454429129722776 ], [ 130.557753135983546, 33.454371824166152 ], [ 130.557755447534674, 33.454056937878363 ], [ 130.557813766741958, 33.453991591530894 ], [ 130.557686265382785, 33.454052005979982 ], [ 130.557497024159318, 33.453742216096437 ], [ 130.557628114954412, 33.453703089461506 ], [ 130.55756784957083, 33.453282450295347 ], [ 130.557576396478424, 33.453254372554454 ], [ 130.557756456202071, 33.453303019365237 ], [ 130.558138613866447, 33.45270772787709 ], [ 130.557991493279332, 33.452568673752907 ], [ 130.558071262423397, 33.452465858137991 ], [ 130.558133649246486, 33.452493130236469 ], [ 130.558274635352547, 33.452532480093737 ], [ 130.558303162559071, 33.45247513327265 ], [ 130.558696574411783, 33.452586316169388 ], [ 130.558849953716731, 33.452451634027923 ], [ 130.558999965003579, 33.452393131152121 ], [ 130.55906459724946, 33.452383532159303 ], [ 130.559117381474152, 33.452398475895272 ], [ 130.559275259755452, 33.452529359610281 ], [ 130.559513619039478, 33.45242446048838 ], [ 130.559569787204936, 33.452343504704672 ], [ 130.559561986712851, 33.45214922152676 ], [ 130.559723481147785, 33.45214609428124 ], [ 130.560256392608068, 33.452141807639457 ], [ 130.560021416408205, 33.451725524615064 ], [ 130.560662567161728, 33.451195912250761 ], [ 130.56124055924252, 33.451209143182588 ], [ 130.561529166190695, 33.451247105826049 ], [ 130.561858786500665, 33.451318246817785 ], [ 130.56241099469645, 33.452209067800688 ], [ 130.56326497869594, 33.451827630843631 ], [ 130.56344004440399, 33.451724298841398 ], [ 130.563768108766823, 33.451476664543662 ], [ 130.563768108766851, 33.451476664543641 ], [ 130.564620575067693, 33.451042907727803 ], [ 130.565535580933044, 33.450578579069486 ], [ 130.565617709015925, 33.450311983366461 ], [ 130.564688226202946, 33.450747517853209 ], [ 130.565617709015925, 33.450311983366454 ], [ 130.565714114379716, 33.449962271773785 ], [ 130.565801289711771, 33.449525248137952 ], [ 130.565847152213877, 33.449182759887179 ], [ 130.564524784938811, 33.449370720498443 ], [ 130.564441942929335, 33.449063640442169 ], [ 130.564344941904579, 33.448731326512146 ], [ 130.564235995245184, 33.448662615187089 ], [ 130.564047802689942, 33.448526740002499 ], [ 130.563928402729175, 33.448481693857545 ], [ 130.563808767112562, 33.448467044683674 ], [ 130.563703996776553, 33.448454210665005 ], [ 130.563560683897407, 33.448452373699396 ], [ 130.563428200835205, 33.44846092748584 ], [ 130.563383857437742, 33.448463764504062 ], [ 130.563132851251964, 33.448504272377853 ], [ 130.562774081644562, 33.448273505331933 ], [ 130.561801958241233, 33.44824875476651 ], [ 130.561805127595363, 33.448178559307266 ], [ 130.561581631050871, 33.448170595465093 ], [ 130.561586325094282, 33.447878458048393 ], [ 130.561593794323556, 33.447824190763647 ], [ 130.561580763936973, 33.447807657071216 ], [ 130.561513593786032, 33.447796149854518 ], [ 130.561432865103257, 33.447807137706135 ], [ 130.561384085340762, 33.447815135908641 ], [ 130.561364061020981, 33.448015546964179 ], [ 130.561341464888983, 33.448015559515063 ], [ 130.56123070677873, 33.448008858328784 ], [ 130.561167173822298, 33.44800985963218 ], [ 130.561084438094809, 33.44800473945368 ], [ 130.56105326400143, 33.448001021169965 ], [ 130.560917933015475, 33.447960871333926 ], [ 130.560895174247833, 33.447950434085179 ], [ 130.560706931985862, 33.448057202551659 ], [ 130.560694206392782, 33.448064414006268 ], [ 130.560623308256339, 33.448109037904167 ], [ 130.560559618804291, 33.448149073741909 ], [ 130.560551735798526, 33.448154051251983 ], [ 130.560425975717862, 33.448246243064929 ], [ 130.560346751226177, 33.448292035108558 ], [ 130.560282930082991, 33.448299632684474 ], [ 130.560172934450577, 33.448290085977433 ], [ 130.559980206921864, 33.448272252417553 ], [ 130.559825462008405, 33.448254413811291 ], [ 130.559700223537305, 33.448251223495667 ], [ 130.559620469025504, 33.448260767932801 ], [ 130.559434716795749, 33.448351023038306 ], [ 130.559215999178008, 33.448504280653879 ], [ 130.559042188694093, 33.448633957619947 ], [ 130.558892749734753, 33.448747165935892 ], [ 130.558857138142741, 33.448792968483062 ], [ 130.558803300257523, 33.448862241662503 ], [ 130.558763609903423, 33.4489007036412 ], [ 130.558691109699026, 33.448970963636455 ], [ 130.558636201884525, 33.449018848979797 ], [ 130.55862472251377, 33.44902884586164 ], [ 130.558512692335142, 33.449105765939748 ], [ 130.558222888082383, 33.449190403008316 ], [ 130.558148786200007, 33.449228567982942 ], [ 130.558121275950185, 33.449242736489744 ], [ 130.558091659740938, 33.449257990550919 ], [ 130.557863432844414, 33.449271904409528 ], [ 130.556050399756742, 33.449346941705834 ], [ 130.556002404596683, 33.449348916280584 ], [ 130.555862892703317, 33.449368005051703 ], [ 130.555686671775987, 33.449433492207675 ], [ 130.555592741657705, 33.449239533958306 ], [ 130.555188727255512, 33.449373987497232 ], [ 130.554764948919427, 33.449486387270113 ], [ 130.554551683872091, 33.449548709864331 ], [ 130.554529296901336, 33.449555254942474 ], [ 130.554385910664195, 33.449542729497054 ], [ 130.553530242834057, 33.449931566747907 ], [ 130.553257543258184, 33.450071622949537 ], [ 130.553171937008329, 33.450115626732057 ], [ 130.552922226476539, 33.450287185280459 ], [ 130.552762862641231, 33.450334238872003 ], [ 130.552531383838414, 33.450415900322767 ], [ 130.552437885567429, 33.450450118511888 ], [ 130.55236817366108, 33.450475616138647 ], [ 130.552184022973194, 33.450554279355913 ], [ 130.552257385887771, 33.450652886814886 ], [ 130.551755980862026, 33.45091444955785 ], [ 130.55166088161846, 33.450990261163909 ], [ 130.551456557114022, 33.450938769935014 ], [ 130.551342865506967, 33.45094470208457 ], [ 130.551077333083782, 33.451013559848214 ], [ 130.551157598726775, 33.450880562161004 ], [ 130.550608733917642, 33.45041850203485 ], [ 130.550521714250777, 33.450402338239407 ], [ 130.550411820525966, 33.4504051130899 ], [ 130.550297966795171, 33.450442778707298 ], [ 130.550221833787106, 33.450515487491828 ], [ 130.550156718695462, 33.450651673004757 ], [ 130.549656893287874, 33.450605454131413 ], [ 130.549840414681768, 33.450282483265582 ], [ 130.549848370330807, 33.450206360390261 ], [ 130.54980365909239, 33.45006023286237 ], [ 130.549407050822509, 33.449465431628717 ], [ 130.549320258857961, 33.44903039210616 ], [ 130.548680227971289, 33.448993173197103 ], [ 130.548445564774966, 33.449048681506426 ], [ 130.548389627918823, 33.447319930712752 ], [ 130.548389627918851, 33.447319930712737 ], [ 130.54853606802655, 33.447251991618536 ], [ 130.548756053531548, 33.447149930572877 ], [ 130.54909022737894, 33.446992494325215 ], [ 130.549413252827065, 33.446796937846656 ], [ 130.549527806587434, 33.446622820782871 ], [ 130.549588864119073, 33.446466438572038 ], [ 130.549810581098114, 33.446427280361448 ], [ 130.550277385102078, 33.446344832355443 ], [ 130.550327370757799, 33.446500832575204 ], [ 130.550357057199477, 33.446533526058936 ], [ 130.550389885581865, 33.446551705666529 ], [ 130.550424035898942, 33.446551828751709 ], [ 130.550478677457107, 33.446552025672219 ], [ 130.550560706567552, 33.446538961176628 ], [ 130.550642787374898, 33.446516353513054 ], [ 130.550708801439129, 33.446518499410061 ], [ 130.550792940351016, 33.44653788958415 ], [ 130.550857942820727, 33.446571047482678 ], [ 130.550893932811078, 33.446546886227026 ], [ 130.550946649272987, 33.446511496124359 ], [ 130.55101852485538, 33.446548725500172 ], [ 130.551093594745254, 33.446592277892037 ], [ 130.551158644888517, 33.446603667830558 ], [ 130.551164380831182, 33.446606474958053 ], [ 130.55120555336029, 33.446626626594224 ], [ 130.551264556680337, 33.446569473952913 ], [ 130.551281001129297, 33.446544259328988 ], [ 130.551317603497722, 33.446526492077311 ], [ 130.551366139582541, 33.44651210403724 ], [ 130.551415650849691, 33.446505969979803 ], [ 130.551634279761572, 33.446453221081804 ], [ 130.551706593134355, 33.44643577139918 ], [ 130.551932634775682, 33.446372570820699 ], [ 130.551969319850855, 33.446350159720282 ], [ 130.551924549909103, 33.446106380720636 ], [ 130.55216265695222, 33.446067926702092 ], [ 130.552167102748371, 33.446166018442952 ], [ 130.55222894933749, 33.446348295022396 ], [ 130.552305135575978, 33.446501895726669 ], [ 130.552319052205803, 33.446529954739027 ], [ 130.552665422493675, 33.446487392287118 ], [ 130.552691021918235, 33.4464845374427 ], [ 130.552705962089931, 33.446482870580752 ], [ 130.552706619172397, 33.44645814568856 ], [ 130.55271452607596, 33.446161134998675 ], [ 130.552554419850395, 33.446042739106929 ], [ 130.55254135010162, 33.44602698431671 ], [ 130.552494539569835, 33.44597042427948 ], [ 130.552453745007114, 33.445904056876174 ], [ 130.55244144036314, 33.445861990867904 ], [ 130.552437555695775, 33.445808334983795 ], [ 130.55246723198286, 33.445592628763777 ], [ 130.552452111967824, 33.445517826695628 ], [ 130.552452370031602, 33.44546746253485 ], [ 130.552471929929965, 33.445430157299562 ], [ 130.552528612982627, 33.44534748345216 ], [ 130.552538017708969, 33.445020889733279 ], [ 130.552793206192405, 33.444990915941609 ], [ 130.552813120488736, 33.444966681198636 ], [ 130.552528900497776, 33.44498778241018 ], [ 130.55226748780882, 33.445018755891233 ], [ 130.552233461740343, 33.44502870207198 ], [ 130.552144347008067, 33.445054750680484 ], [ 130.552233461740315, 33.44502870207198 ], [ 130.552208765658207, 33.444963281010835 ], [ 130.552159194785389, 33.444771941059699 ], [ 130.552149357124108, 33.444745130256038 ], [ 130.552119456957485, 33.444663654619077 ], [ 130.552006839090325, 33.444427058913277 ], [ 130.55186145150094, 33.444198694785399 ], [ 130.551821991496183, 33.44412459526302 ], [ 130.551793919719898, 33.444049342380914 ], [ 130.551729013751839, 33.443942942177991 ], [ 130.551678071186529, 33.443887886642287 ], [ 130.551553126316264, 33.443834950756418 ], [ 130.551445017050355, 33.44382859600541 ], [ 130.551309762877622, 33.443843618471774 ], [ 130.551069243908017, 33.443852294852697 ], [ 130.550885696710935, 33.443850441793224 ], [ 130.550777527938664, 33.443856015820039 ], [ 130.550716195401236, 33.443884424499643 ], [ 130.550678309562642, 33.443906166943691 ], [ 130.550637701069974, 33.443929470289007 ], [ 130.550599026242423, 33.443979433365982 ], [ 130.5505287320359, 33.444090116918602 ], [ 130.550454230094175, 33.44418885954461 ], [ 130.550399833559283, 33.444251885893095 ], [ 130.55031276487037, 33.44430405855227 ], [ 130.550078892358556, 33.444403418228248 ], [ 130.549889207743689, 33.444487427329797 ], [ 130.549666691581933, 33.444591598880706 ], [ 130.549425443256041, 33.444741031605311 ], [ 130.549208296408125, 33.444907250573635 ], [ 130.549052619341978, 33.445018818856035 ], [ 130.549004030905849, 33.445059202777628 ], [ 130.548974076406324, 33.44498732147418 ], [ 130.549029462631466, 33.444943265629291 ], [ 130.550222044492841, 33.444055584996299 ], [ 130.550051048471914, 33.443631520231541 ], [ 130.549622540177268, 33.442509351547343 ], [ 130.549524548788042, 33.442284380443247 ], [ 130.549781095503931, 33.44181976558918 ], [ 130.549356320159148, 33.441602982235054 ], [ 130.549407645126877, 33.441394964635712 ], [ 130.549433558828042, 33.441226129353687 ], [ 130.549433049029716, 33.441219223251814 ], [ 130.549456629643458, 33.441079049403825 ], [ 130.549462879448612, 33.44075600771162 ], [ 130.549397992768291, 33.440759296236742 ], [ 130.549010276003827, 33.440794807714589 ], [ 130.548751695228788, 33.44082458586103 ], [ 130.54867006895077, 33.440863917541428 ], [ 130.548580019873981, 33.440907230509275 ], [ 130.548274394251422, 33.441024225875992 ], [ 130.547560973625878, 33.441321068723127 ], [ 130.547497069473735, 33.441345739247964 ], [ 130.547483642733766, 33.441334279299731 ], [ 130.54720579181847, 33.441071736707123 ], [ 130.547152259943232, 33.441016700343553 ], [ 130.546837920769747, 33.44073440717775 ], [ 130.5466994965808, 33.440838023024277 ], [ 130.546317425531299, 33.441146276220202 ], [ 130.546021392523301, 33.44138232012682 ], [ 130.545716071095313, 33.441594377506277 ], [ 130.54565418528793, 33.441651036699923 ], [ 130.545159282221192, 33.441199007589177 ], [ 130.544517089220136, 33.440618334313314 ], [ 130.544133088425212, 33.44026674190588 ], [ 130.544136847094848, 33.440263126313461 ], [ 130.544203857840813, 33.440198667652773 ], [ 130.544410873049998, 33.440001754162552 ], [ 130.544384593303135, 33.439974006817323 ], [ 130.544277225079128, 33.439850685478461 ], [ 130.544162354119464, 33.439732374027223 ], [ 130.544094829910733, 33.439686335764598 ] ] ], [ [ [ 130.564999279902025, 33.448884642512766 ], [ 130.564908845930233, 33.448895458545607 ], [ 130.564829153186395, 33.448892221135274 ], [ 130.564766895598183, 33.448889715855579 ], [ 130.564578192652618, 33.448830551959055 ], [ 130.564519468786102, 33.448810482650551 ], [ 130.564440315475821, 33.448783473066918 ], [ 130.564344941904579, 33.448731326512132 ], [ 130.564441942929335, 33.449063640442162 ], [ 130.564524784938811, 33.449370720498443 ], [ 130.565847152213877, 33.449182759887158 ], [ 130.565881175364638, 33.448872071376293 ], [ 130.56590686784196, 33.448351920648989 ], [ 130.565813303749735, 33.447825577128697 ], [ 130.565786064655612, 33.447844995318569 ], [ 130.565517823858812, 33.448149655178085 ], [ 130.565323821743476, 33.448573277310359 ], [ 130.565182671582221, 33.448778273958716 ], [ 130.565013031771485, 33.448882368717044 ], [ 130.565009876064124, 33.448883375614102 ], [ 130.564999279902025, 33.448884642512766 ] ] ] ] } }
]
}
