{
"type": "FeatureCollection",
"name": "筑紫野A",
"crs": { "type": "name", "properties": { "name": "urn:ogc:def:crs:EPSG::4612" } },
"features": [
{ "type": "Feature", "properties": { "KEY_CODE": "402170145101", "PREF": "40", "CITY": "217", "K_AREA": "037002010", "S_AREA": "0145101", "PREF_NAME": "福岡県", "CITY_NAME": "筑紫野市", "S_NAME": "むさしが丘二丁目", "KIGO_E": null, "HCODE": 8101, "AREA": 8011.164, "PERIMETER": 468.73, "KIHON1": "0370", "DUMMY1": "-", "KIHON2": "02", "KIHON3": "010", "C1": 6, "C2": 145, "DUMMY2": "-", "C3": 1, "DUMMY3": "-", "C4": 1, "KIGO_A": null, "KIGO_D": null, "N_KEN": null, "N_CITY": null, "N_C1": 0, "KIGO_I": null, "KEYCODE1": "2170145-1-01", "JINKO": 0, "SETAI": 0, "KEN_OLD": "40", "CITY_OLD": "217", "X_CODE": 130.529166, "Y_CODE": 33.473648, "KCODE1": "0370-02010", "CCODE1": "145-1- 1" }, "geometry": { "type": "MultiPolygon", "coordinates": [ [ [ [ 130.518408668438099, 33.480720711228152 ], [ 130.517968783059274, 33.480859375093317 ], [ 130.517799526314548, 33.48091056896849 ], [ 130.517792775938858, 33.480892298758192 ], [ 130.517688750916193, 33.480609843920206 ], [ 130.517657645414005, 33.480503531149878 ], [ 130.517625076734419, 33.480395910087438 ], [ 130.517595499225877, 33.480287067247254 ], [ 130.517568746576472, 33.480214900338517 ], [ 130.517490761487181, 33.480126088536167 ], [ 130.517431584338937, 33.480049360310858 ], [ 130.517380048321343, 33.479958816176563 ], [ 130.517237758069314, 33.480135220161941 ], [ 130.517489385405526, 33.480321738178851 ], [ 130.517504473026293, 33.480671474966904 ], [ 130.517455693577858, 33.480766456468906 ], [ 130.517428542100589, 33.480819289126671 ], [ 130.517446611456023, 33.480873459053441 ], [ 130.517500289399578, 33.480918855813833 ], [ 130.517578931229309, 33.480964594261891 ], [ 130.5175497971764, 33.481026295120934 ], [ 130.517459151357514, 33.481220228479778 ], [ 130.517403896940209, 33.481383828920123 ], [ 130.517390195480687, 33.481429143013692 ], [ 130.517363259800078, 33.481435343202179 ], [ 130.517021183816837, 33.481414193909096 ], [ 130.516985608517956, 33.481432089968315 ], [ 130.516948822745576, 33.481463506396288 ], [ 130.516927062298208, 33.481506709588459 ], [ 130.516866625822502, 33.481490168654375 ], [ 130.516820746868234, 33.481471112198058 ], [ 130.516707310190668, 33.481355288980495 ], [ 130.516643058412484, 33.481299108481075 ], [ 130.516514073641332, 33.481228096109056 ], [ 130.51645638104398, 33.481201915455387 ], [ 130.51644725723034, 33.481096392393688 ], [ 130.516458262436117, 33.481052267185241 ], [ 130.51647589014155, 33.480981081695759 ], [ 130.51646951275319, 33.480963939956638 ], [ 130.516233029473767, 33.480820871878464 ], [ 130.51619700095975, 33.480867435700446 ], [ 130.516027894772634, 33.481133620131068 ], [ 130.51589197217146, 33.481350834498492 ], [ 130.515800552564912, 33.481494111657689 ], [ 130.515792962616899, 33.481505989338899 ], [ 130.51562741827945, 33.481274470667785 ], [ 130.51526505218456, 33.481803219995918 ], [ 130.515173778682652, 33.481965166743343 ], [ 130.51466470378864, 33.481981226005658 ], [ 130.514637772623928, 33.481986546164656 ], [ 130.514622654690754, 33.481999096230204 ], [ 130.514611663267118, 33.482040544989324 ], [ 130.514599403249861, 33.482113546685113 ], [ 130.514640615610631, 33.482155373019339 ], [ 130.514719384937735, 33.482208687458765 ], [ 130.514759001334227, 33.482250296237844 ], [ 130.514777119314971, 33.482280129192532 ], [ 130.51479402029878, 33.482332498598275 ], [ 130.51482123339602, 33.482367049629232 ], [ 130.514879501595999, 33.482441030438551 ], [ 130.514845636961979, 33.48253645431987 ], [ 130.514798331471354, 33.482524577854356 ], [ 130.514713851623867, 33.482704160134752 ], [ 130.513822170058461, 33.48230724148916 ], [ 130.513119678596553, 33.4820329502584 ], [ 130.512157362370914, 33.48167955748707 ], [ 130.510410538448781, 33.48021266523655 ], [ 130.507938435023959, 33.481195136991388 ], [ 130.506701679903614, 33.481554619839812 ], [ 130.506412864645085, 33.481681499983615 ], [ 130.506083402751926, 33.481719601123537 ], [ 130.504942322143364, 33.481757066584215 ], [ 130.505127001745905, 33.482218291660814 ], [ 130.505794999237253, 33.48356592849256 ], [ 130.506007294879936, 33.48451789872491 ], [ 130.506177376021668, 33.48629511721623 ], [ 130.506111211613103, 33.486487622205395 ], [ 130.505883037320672, 33.487014647643491 ], [ 130.505897521838563, 33.48710688149071 ], [ 130.506136754936421, 33.487283799137515 ], [ 130.506206192594732, 33.487388824475843 ], [ 130.506180634931098, 33.487485087634269 ], [ 130.506085241731824, 33.487539195787669 ], [ 130.505750449855498, 33.487445689530489 ], [ 130.505445386596364, 33.487402561806789 ], [ 130.50507517425126, 33.487380129871845 ], [ 130.504454825498499, 33.487495013385782 ], [ 130.504211307451129, 33.487184936132977 ], [ 130.504155370634209, 33.487131036369412 ], [ 130.504092536685221, 33.487077601583529 ], [ 130.503856652247322, 33.486992513530765 ], [ 130.503741721879834, 33.486985856347978 ], [ 130.503596950400464, 33.487000564290113 ], [ 130.503869646285665, 33.487139404227555 ], [ 130.504003190464914, 33.487258177284993 ], [ 130.504040489645121, 33.487322323104365 ], [ 130.504038951835156, 33.487407975524718 ], [ 130.504029456476047, 33.487436783961144 ], [ 130.503873795510117, 33.487916688251957 ], [ 130.504269184947418, 33.48798416688588 ], [ 130.50438681142964, 33.487923315941224 ], [ 130.504471832051621, 33.488008080552547 ], [ 130.504546372205596, 33.488065543535484 ], [ 130.504635699088851, 33.488095345091388 ], [ 130.504769882471578, 33.488116907034225 ], [ 130.50479777181701, 33.488328030511248 ], [ 130.505001283136068, 33.488303588270476 ], [ 130.505253808879161, 33.4880647004072 ], [ 130.505267974889136, 33.488072153909627 ], [ 130.505317449333432, 33.488109615332831 ], [ 130.505348533671452, 33.48815792267073 ], [ 130.505356146714604, 33.488201803155022 ], [ 130.505353315455636, 33.488241205227041 ], [ 130.505313432779332, 33.488350619153174 ], [ 130.505308046842657, 33.488381276125175 ], [ 130.505315745295292, 33.488409765178041 ], [ 130.505346879331483, 33.488449337243715 ], [ 130.505591076153848, 33.488737365251957 ], [ 130.505776840098889, 33.488951722927133 ], [ 130.505865299444906, 33.489030971062846 ], [ 130.505943489063299, 33.489097428656464 ], [ 130.506028750859286, 33.489102945465007 ], [ 130.506283436894535, 33.489083423854865 ], [ 130.506492790468684, 33.489066927789011 ], [ 130.506577767656893, 33.489070857573047 ], [ 130.506647608347038, 33.48909008480517 ], [ 130.506746525466809, 33.489148662561533 ], [ 130.506836374134025, 33.48920533968333 ], [ 130.506880395314823, 33.489226259967516 ], [ 130.50702241052258, 33.489231332286131 ], [ 130.507116194595312, 33.489223778706794 ], [ 130.507176209880413, 33.489226307441022 ], [ 130.507223705683174, 33.489234700908817 ], [ 130.507285964324382, 33.489249495558752 ], [ 130.507324439405949, 33.489292019647067 ], [ 130.507500093785183, 33.489444204016657 ], [ 130.507533113802282, 33.489477478931676 ], [ 130.507634895857223, 33.489579989048011 ], [ 130.507658522746425, 33.489594524088766 ], [ 130.507687504236912, 33.489606367755869 ], [ 130.507812126206147, 33.489639300264592 ], [ 130.507920826337255, 33.489640647446642 ], [ 130.508253212401371, 33.489663589814022 ], [ 130.50836277232645, 33.489706395113359 ], [ 130.508399312714431, 33.489711964457506 ], [ 130.508646785323293, 33.489690016033904 ], [ 130.508757459279508, 33.489691720307547 ], [ 130.508757796025691, 33.489691757411755 ], [ 130.508756558140419, 33.489702318399651 ], [ 130.508697989742529, 33.490211248511265 ], [ 130.508658222274107, 33.49065139392394 ], [ 130.508709786779548, 33.490780861249206 ], [ 130.508735760818865, 33.490811640811074 ], [ 130.508772287768011, 33.490827142443997 ], [ 130.50927941701886, 33.490859790624832 ], [ 130.509706933043532, 33.49086915796773 ], [ 130.509871754784399, 33.49086325757569 ], [ 130.50988874947501, 33.490861000050863 ], [ 130.510128209272921, 33.490829189182222 ], [ 130.51024858109443, 33.49081870879121 ], [ 130.510332184550379, 33.490827806237739 ], [ 130.510369667587554, 33.490837956105132 ], [ 130.510447110124119, 33.49085893527441 ], [ 130.510577452808747, 33.490929570474862 ], [ 130.510623792819842, 33.490957156038924 ], [ 130.510901955693441, 33.491122553462972 ], [ 130.511092380323447, 33.491206564411009 ], [ 130.511321822685517, 33.491293065625392 ], [ 130.511327256485743, 33.491295113777525 ], [ 130.511413437233585, 33.491317358237787 ], [ 130.511615981895005, 33.491338966512565 ], [ 130.512051244646472, 33.491369620814893 ], [ 130.511624620540573, 33.492213127830695 ], [ 130.511460066785702, 33.492478334099587 ], [ 130.51138634645551, 33.492602730162019 ], [ 130.511162769388335, 33.492979923212324 ], [ 130.510953435968702, 33.493320785532461 ], [ 130.51081468803261, 33.493518609046838 ], [ 130.510645197615872, 33.493785873626003 ], [ 130.510554117229589, 33.493917385547604 ], [ 130.51028875331005, 33.49430050636979 ], [ 130.510639537799733, 33.494307200424011 ], [ 130.5109112544597, 33.494312386077532 ], [ 130.510978544341896, 33.494322723690061 ], [ 130.511007938307586, 33.494343760977685 ], [ 130.511009910274367, 33.494397024651278 ], [ 130.510984490716936, 33.494476840320239 ], [ 130.510969270783363, 33.494559515872666 ], [ 130.510978083571331, 33.494607135149785 ], [ 130.511050502428077, 33.494654967372774 ], [ 130.511166043497468, 33.494697263183895 ], [ 130.511324642070576, 33.494760683761285 ], [ 130.511324642070576, 33.494760683761271 ], [ 130.511329163249229, 33.494771480337903 ], [ 130.51134928276656, 33.494819742651345 ], [ 130.511318907261114, 33.494973717074018 ], [ 130.511300117470881, 33.495085895334611 ], [ 130.511349878441422, 33.495118424401092 ], [ 130.511420103868176, 33.49514532546204 ], [ 130.511508488461288, 33.495179908800807 ], [ 130.511639718560076, 33.49526604566752 ], [ 130.511661760877303, 33.495384089223734 ], [ 130.511652317027483, 33.495448721138644 ], [ 130.51168711598973, 33.495518313104725 ], [ 130.511709444748874, 33.495584969716937 ], [ 130.511722884599493, 33.495617356490541 ], [ 130.511736017372158, 33.49565203092839 ], [ 130.511745255790913, 33.495676441127834 ], [ 130.511744989668102, 33.495723988972941 ], [ 130.511744702245238, 33.495775342340224 ], [ 130.511707804893035, 33.495877938262325 ], [ 130.511684826626947, 33.49592730027134 ], [ 130.511684645442983, 33.495959667847615 ], [ 130.511682182994605, 33.495993894899421 ], [ 130.511684176987842, 33.49604335466514 ], [ 130.51170435218026, 33.496089080001539 ], [ 130.511701795042654, 33.496140458599264 ], [ 130.511686448172725, 33.496245957703657 ], [ 130.511735996851741, 33.496316560061182 ], [ 130.511815175072456, 33.496373930419828 ], [ 130.5118352450869, 33.496438711429398 ], [ 130.511875713551689, 33.496509241884027 ], [ 130.511891456348138, 33.496535932282441 ], [ 130.511891264592293, 33.496570202348501 ], [ 130.51188422062657, 33.496612018284395 ], [ 130.511827264386255, 33.496700343517652 ], [ 130.511808376383897, 33.496739893008076 ], [ 130.511794479875988, 33.496826625125983 ], [ 130.511805468820967, 33.496891336471059 ], [ 130.511832392043146, 33.49694853585406 ], [ 130.511857065948732, 33.497001887802867 ], [ 130.51187957614016, 33.497036210405604 ], [ 130.51192023625768, 33.49707254344527 ], [ 130.511965554811013, 33.497095543990596 ], [ 130.512028948900877, 33.497126223714744 ], [ 130.512042047030803, 33.49712969203425 ], [ 130.512094688340738, 33.497143598192451 ], [ 130.512171864156755, 33.497153411116862 ], [ 130.512453642078356, 33.497112669587523 ], [ 130.512639763703362, 33.497126711525311 ], [ 130.512712547091837, 33.497109876495571 ], [ 130.512778467240139, 33.497094919336533 ], [ 130.512842107233155, 33.497081853561092 ], [ 130.512896729772535, 33.497064949671362 ], [ 130.512967285319661, 33.497032856926872 ], [ 130.51304697505509, 33.496991326230692 ], [ 130.513101660553019, 33.496963007309105 ], [ 130.513181254644564, 33.496938592308268 ], [ 130.513243611104002, 33.49692925591809 ], [ 130.51331834474928, 33.496916972840381 ], [ 130.513376250876547, 33.496899131097273 ], [ 130.513420417826637, 33.496880036526129 ], [ 130.513450857112161, 33.496864692891897 ], [ 130.513496303627591, 33.496841833993898 ], [ 130.513548614335093, 33.496824920774927 ], [ 130.51358955099488, 33.496811766031456 ], [ 130.513639578541074, 33.496804354869546 ], [ 130.513732676745832, 33.49680091283939 ], [ 130.513800898763321, 33.496787864407089 ], [ 130.513934998418904, 33.496759857957677 ], [ 130.513979493540717, 33.496726746694748 ], [ 130.514082043301102, 33.496656737757768 ], [ 130.514111926228566, 33.496590285381735 ], [ 130.514191069345259, 33.496533499013715 ], [ 130.514229215486665, 33.496508041833266 ], [ 130.51433514281976, 33.496465588216317 ], [ 130.514398771877893, 33.496462032551356 ], [ 130.514489387829059, 33.496496620449093 ], [ 130.514562032742731, 33.496504511690837 ], [ 130.514623389321656, 33.496493338587527 ], [ 130.514782501436684, 33.496465426845063 ], [ 130.514830492350256, 33.496408519379436 ], [ 130.514837620137769, 33.496351488721743 ], [ 130.514830492350256, 33.496408519379443 ], [ 130.514782501436684, 33.49646542684507 ], [ 130.514811645554289, 33.496524149466126 ], [ 130.514809194649757, 33.496564434337998 ], [ 130.514826900943802, 33.496646323695948 ], [ 130.514839483874141, 33.496832802170694 ], [ 130.514845537483751, 33.496938773199076 ], [ 130.514845691296898, 33.496941275102735 ], [ 130.51487259560048, 33.497002243209685 ], [ 130.514940361376404, 33.497071012856551 ], [ 130.515017178019406, 33.497137881019285 ], [ 130.515200498908712, 33.497308116881783 ], [ 130.515201126377661, 33.49730868397247 ], [ 130.515262894131155, 33.497261549518406 ], [ 130.515201126377661, 33.497308683972477 ], [ 130.515328739650386, 33.497464402455869 ], [ 130.515514165888391, 33.497604003615599 ], [ 130.515854768493654, 33.497811727054213 ], [ 130.515672748014083, 33.497967088493326 ], [ 130.515513625884836, 33.498110140477344 ], [ 130.515363476181363, 33.498234453811214 ], [ 130.515230137070347, 33.498337100378109 ], [ 130.515186328263439, 33.498367573079335 ], [ 130.515113567597155, 33.49841814998058 ], [ 130.514915600638915, 33.498552736479546 ], [ 130.514474779156416, 33.498834276382283 ], [ 130.514263370833334, 33.498958665416815 ], [ 130.514207566922096, 33.498991487159707 ], [ 130.513171306083933, 33.499579874329434 ], [ 130.51306287101437, 33.499641476899036 ], [ 130.512953171471736, 33.499703741982543 ], [ 130.512781170272234, 33.499794999709763 ], [ 130.51301800976907, 33.499792544127068 ], [ 130.512992242473217, 33.500055234004641 ], [ 130.512649919260895, 33.500109862604262 ], [ 130.512691073546279, 33.500554839792727 ], [ 130.51269285956991, 33.500573796111205 ], [ 130.51292089593727, 33.500695076471793 ], [ 130.512973651660985, 33.500666436028666 ], [ 130.512985953258578, 33.500639361661669 ], [ 130.513010528088131, 33.500590289155689 ], [ 130.513095528314892, 33.50059231144354 ], [ 130.513142580656222, 33.500500919111964 ], [ 130.51309828461919, 33.500460063719373 ], [ 130.513143138987544, 33.500400890760872 ], [ 130.513228174794307, 33.500396151591659 ], [ 130.51324434766218, 33.50036845941905 ], [ 130.51329150755322, 33.500287880527075 ], [ 130.513244405742142, 33.500026561346509 ], [ 130.513457546497733, 33.500006754253626 ], [ 130.51354209665908, 33.499998912867362 ], [ 130.513532541512717, 33.499895429572156 ], [ 130.51319433627981, 33.499928026416036 ], [ 130.513202999139736, 33.499829721456969 ], [ 130.513328728852684, 33.499810875180088 ], [ 130.513338272374568, 33.499810665345521 ], [ 130.513435864820536, 33.499808581435303 ], [ 130.513557494126502, 33.499778520015575 ], [ 130.513632464112305, 33.499761869813995 ], [ 130.513737873989555, 33.499730053707452 ], [ 130.513835175227626, 33.499705003690906 ], [ 130.513934491785477, 33.499679960352651 ], [ 130.513960205163301, 33.499788579724253 ], [ 130.514136473955148, 33.499753657753082 ], [ 130.514213434871976, 33.499742088 ], [ 130.514281346418215, 33.499724564554462 ], [ 130.514272972393343, 33.499778773040795 ], [ 130.514278558361951, 33.499855297255209 ], [ 130.514284221166463, 33.499933124977751 ], [ 130.514289783854764, 33.500210377406638 ], [ 130.514283347237324, 33.500271392358094 ], [ 130.51428106484903, 33.500318861983004 ], [ 130.514282705118887, 33.500386705684932 ], [ 130.514257073800138, 33.500451872981955 ], [ 130.514196843904386, 33.500728022450353 ], [ 130.514160193336409, 33.50086204069585 ], [ 130.514132554438589, 33.500963020190554 ], [ 130.514095891329475, 33.501046423443711 ], [ 130.514083017680235, 33.501130835235912 ], [ 130.514071716731223, 33.501204862161444 ], [ 130.514071272876748, 33.501284532807581 ], [ 130.514073007378585, 33.501335434046673 ], [ 130.514080630427031, 33.501423624623158 ], [ 130.514088258326467, 33.501503360873393 ], [ 130.514099498124267, 33.502029020918428 ], [ 130.514092112038384, 33.502268077449443 ], [ 130.514091751033902, 33.502272620759847 ], [ 130.51408640079805, 33.502342339140945 ], [ 130.514081186168795, 33.502410473066391 ], [ 130.51399527832487, 33.50257124091641 ], [ 130.51395607128444, 33.502703346466774 ], [ 130.513933206888737, 33.502815157008207 ], [ 130.513897984068223, 33.502964218671856 ], [ 130.513885389324116, 33.503043878170793 ], [ 130.513878943423578, 33.503106582544348 ], [ 130.513876688990109, 33.503148979730845 ], [ 130.513892630070387, 33.503193105577139 ], [ 130.513910602829583, 33.503242345969106 ], [ 130.513930419446837, 33.503315331015422 ], [ 130.513938005287457, 33.503410321428817 ], [ 130.513937433458153, 33.503694351305001 ], [ 130.513836032202562, 33.503722766108531 ], [ 130.513771152941217, 33.503746252552602 ], [ 130.51365594648081, 33.50371699192511 ], [ 130.513584800316721, 33.503770955692538 ], [ 130.513460619813458, 33.503895967857922 ], [ 130.513442169235105, 33.503939993436909 ], [ 130.513575330147233, 33.504021877079353 ], [ 130.513632161795812, 33.50398652354103 ], [ 130.513711109754723, 33.503988523676348 ], [ 130.513729479530582, 33.50401184264328 ], [ 130.513735241162379, 33.504019120374338 ], [ 130.513798140181052, 33.503988863555485 ], [ 130.51382373011279, 33.503976494809905 ], [ 130.513895568082972, 33.50394176439746 ], [ 130.514311615912192, 33.503749771911373 ], [ 130.514441288088165, 33.503695471300055 ], [ 130.514540485814734, 33.503647426412329 ], [ 130.514683993459073, 33.503562538326563 ], [ 130.514800115424208, 33.503480147049316 ], [ 130.514858130647326, 33.503443389742202 ], [ 130.514933752274686, 33.503393317640558 ], [ 130.515052915012575, 33.5033160110602 ], [ 130.515076303676437, 33.503298667177333 ], [ 130.515506339591752, 33.502979399569838 ], [ 130.515551288017178, 33.503047059302808 ], [ 130.515716520979112, 33.503296932119959 ], [ 130.515814881134929, 33.503248143751087 ], [ 130.515898865172403, 33.503206486325588 ], [ 130.516068127701516, 33.503147231224773 ], [ 130.516148168861662, 33.503126480653457 ], [ 130.516241007846759, 33.503117929102778 ], [ 130.516278992694708, 33.503129558452905 ], [ 130.516357694644853, 33.503206366695444 ], [ 130.516397030948497, 33.50325495015398 ], [ 130.516427265639123, 33.503284406878045 ], [ 130.516456057369112, 33.503308716201694 ], [ 130.516487953120787, 33.503319054514762 ], [ 130.516533598196787, 33.503321768850128 ], [ 130.516606663064465, 33.503323354635747 ], [ 130.516655362897353, 33.503320971904813 ], [ 130.516704198020847, 33.503294394263264 ], [ 130.516760712395694, 33.503255094590095 ], [ 130.516871333938496, 33.503208995932965 ], [ 130.516961196023487, 33.503191486748278 ], [ 130.517055625684691, 33.503176566136041 ], [ 130.517184012621755, 33.502807338137565 ], [ 130.517194851046668, 33.502809071910377 ], [ 130.517611266242085, 33.502875282086954 ], [ 130.517989096952704, 33.502932183867237 ], [ 130.518083385482328, 33.502942764798227 ], [ 130.51818795710787, 33.502903156702374 ], [ 130.51818795710787, 33.502903156702381 ], [ 130.518291437854913, 33.502946985714949 ], [ 130.518554449722814, 33.503056556405603 ], [ 130.518643550496733, 33.503093108499208 ], [ 130.518668188954877, 33.503131103147879 ], [ 130.518697419023084, 33.503144530588457 ], [ 130.51875764224323, 33.503172131376125 ], [ 130.518788299635474, 33.503186197208613 ], [ 130.519084025518396, 33.503257360422509 ], [ 130.519196511245781, 33.503284495272027 ], [ 130.519268634097585, 33.503312069758273 ], [ 130.519306658314719, 33.503354940650858 ], [ 130.519348896177149, 33.503403780366448 ], [ 130.519363855041149, 33.503435822709399 ], [ 130.519389971912716, 33.503556663919191 ], [ 130.519431557934183, 33.503685737500497 ], [ 130.519504171346142, 33.50377703215424 ], [ 130.519563706257628, 33.503838160687664 ], [ 130.519574826588467, 33.503849580947929 ], [ 130.519688426928298, 33.503949874431875 ], [ 130.519893814987626, 33.504117868465592 ], [ 130.520084228544221, 33.504325425156381 ], [ 130.52010897035737, 33.50435246668318 ], [ 130.520145171661767, 33.504383038276956 ], [ 130.520292192254459, 33.504407696295772 ], [ 130.520614831186123, 33.504471281844943 ], [ 130.520779994479312, 33.504507530692713 ], [ 130.520790758326797, 33.504507464251589 ], [ 130.520859019977536, 33.504526395328703 ], [ 130.520870731986236, 33.504529646729161 ], [ 130.521054796274257, 33.504577093247171 ], [ 130.521140872929863, 33.50460577883576 ], [ 130.521199884420156, 33.5046399942119 ], [ 130.521253530132981, 33.504725192500118 ], [ 130.521313957884416, 33.504807597404749 ], [ 130.521330505858145, 33.504879938875447 ], [ 130.521325555486641, 33.505008127986009 ], [ 130.521289491941445, 33.50510573401786 ], [ 130.521258694449415, 33.50517077358684 ], [ 130.521258601112464, 33.505187786707914 ], [ 130.521258453483398, 33.505214695990581 ], [ 130.521263542386265, 33.505222217911722 ], [ 130.52127859759986, 33.505244536854882 ], [ 130.5213240090699, 33.505290040926027 ], [ 130.521345579279455, 33.505366627278427 ], [ 130.521345584116801, 33.505518928044964 ], [ 130.521299100166573, 33.505668902606736 ], [ 130.521226343380363, 33.505909791116814 ], [ 130.521196727542076, 33.505989418884361 ], [ 130.521160585773885, 33.506101181713255 ], [ 130.521146767511709, 33.506152129919172 ], [ 130.521147540153095, 33.506203752835134 ], [ 130.521147997712148, 33.506234309401449 ], [ 130.521048101427539, 33.506417397571909 ], [ 130.520986651846982, 33.506513212923309 ], [ 130.520961078662708, 33.506553091837084 ], [ 130.520857551372927, 33.506777236155322 ], [ 130.520688079915004, 33.50719537579937 ], [ 130.520676657024666, 33.507223509654303 ], [ 130.520806854918533, 33.507226829806271 ], [ 130.520972348781726, 33.50727283254195 ], [ 130.521030138226877, 33.507223461911302 ], [ 130.52107003043713, 33.507194558374117 ], [ 130.521139495200316, 33.507170731629571 ], [ 130.521219049893546, 33.507162549060375 ], [ 130.521301975252726, 33.507152971885162 ], [ 130.521344285155067, 33.507143201064302 ], [ 130.521504058215157, 33.506997888733302 ], [ 130.5216161306017, 33.506917589378766 ], [ 130.521739102986629, 33.506850752594445 ], [ 130.521741350596159, 33.506847134431816 ], [ 130.52175068352588, 33.506832023591343 ], [ 130.521752423467774, 33.506829213591338 ], [ 130.521784607300589, 33.506794995472525 ], [ 130.521808387325706, 33.506775256657214 ], [ 130.521841042784189, 33.506754951497449 ], [ 130.521846608359283, 33.506752119867137 ], [ 130.521857360132316, 33.506746632360887 ], [ 130.521878567749695, 33.506735830119084 ], [ 130.521891668914691, 33.506731406651454 ], [ 130.521893775217393, 33.506730675072205 ], [ 130.521926042085141, 33.506719774956373 ], [ 130.52194514876561, 33.506716396543347 ], [ 130.521990687250309, 33.506708329937624 ], [ 130.522052766276602, 33.507004153431716 ], [ 130.522079082674594, 33.506997280999208 ], [ 130.522535955714829, 33.506950849481576 ], [ 130.522568900684007, 33.50694300303492 ], [ 130.522535955714829, 33.506950849481584 ], [ 130.522550617849674, 33.507052909014021 ], [ 130.52257232902673, 33.50710399530702 ], [ 130.522614405500775, 33.507136736771244 ], [ 130.522722303918499, 33.507196675872898 ], [ 130.522810176642025, 33.507220329957299 ], [ 130.522855729447286, 33.507232585555215 ], [ 130.522960252178621, 33.507256407819369 ], [ 130.52302630799926, 33.50727148969365 ], [ 130.523123027960764, 33.507299649538638 ], [ 130.523176791388948, 33.507309788412357 ], [ 130.523221964571462, 33.507314469624824 ], [ 130.52322341203498, 33.507211166427894 ], [ 130.523223711166224, 33.507187323157787 ], [ 130.52326792668606, 33.507174883190444 ], [ 130.523359966484833, 33.50715948960864 ], [ 130.523447360440287, 33.507132140032915 ], [ 130.523513433959522, 33.507105482706486 ], [ 130.52365428571261, 33.507020993119241 ], [ 130.523863521674684, 33.506948847446957 ], [ 130.524175205367584, 33.506856522592251 ], [ 130.524452985271211, 33.506782487816999 ], [ 130.524758534729159, 33.50672771921316 ], [ 130.525104419758605, 33.506670464564408 ], [ 130.525324392048702, 33.506641608120013 ], [ 130.525474814538825, 33.506629113204404 ], [ 130.525634186446268, 33.506641097009116 ], [ 130.525698442743135, 33.506647011704366 ], [ 130.525791576026222, 33.50662327441875 ], [ 130.525822315154215, 33.506607223718717 ], [ 130.525988319189764, 33.506520609179681 ], [ 130.526105423480857, 33.506441698374381 ], [ 130.526149848987671, 33.506359694035204 ], [ 130.526182224164472, 33.506313077015591 ], [ 130.52622057135008, 33.506258663318349 ], [ 130.526251218594012, 33.506220527748404 ], [ 130.526288612507528, 33.506186679706325 ], [ 130.526356454456845, 33.506151504852127 ], [ 130.526498457757583, 33.506156305543804 ], [ 130.52663702436999, 33.506182333202652 ], [ 130.526763693126441, 33.506208313900238 ], [ 130.526843106509943, 33.506225628222055 ], [ 130.526919284107919, 33.506211723215024 ], [ 130.527169115681374, 33.506142542599832 ], [ 130.527390907675425, 33.506095234498837 ], [ 130.527527828142695, 33.506107059215381 ], [ 130.527591948750825, 33.506129984808268 ], [ 130.527727508518012, 33.506082349917392 ], [ 130.527837040057932, 33.506004113759168 ], [ 130.527909980080295, 33.505959058215808 ], [ 130.527977919925632, 33.505905496763347 ], [ 130.528042332974508, 33.505874567697248 ], [ 130.528110135013861, 33.505846471412426 ], [ 130.528181274158015, 33.505831173432824 ], [ 130.52828622163122, 33.505807477302142 ], [ 130.528382483345666, 33.505834749655349 ], [ 130.528424061995736, 33.505851074521928 ], [ 130.528500857296592, 33.505839460874483 ], [ 130.528604259946093, 33.505790258744405 ], [ 130.528635869766788, 33.505737262920725 ], [ 130.528675166835711, 33.505662316841637 ], [ 130.528852964527232, 33.505617657034286 ], [ 130.529252502652071, 33.505542663037403 ], [ 130.529338865252981, 33.505518897494809 ], [ 130.52941184979656, 33.505465352627716 ], [ 130.529500849462949, 33.505428143629672 ], [ 130.529575467488598, 33.505391580356395 ], [ 130.52962448274036, 33.5053931736038 ], [ 130.529616959620938, 33.505416041414591 ], [ 130.529586654746339, 33.505507785924642 ], [ 130.529578082964264, 33.505530436240775 ], [ 130.529659117169928, 33.505559062353562 ], [ 130.529757667845388, 33.505582926806056 ], [ 130.529777536539029, 33.505555282279374 ], [ 130.529797124399408, 33.505524887694591 ], [ 130.529815925433269, 33.505492378448601 ], [ 130.529841469552338, 33.505457039961037 ], [ 130.529860235432238, 33.505423122781025 ], [ 130.52989449354061, 33.505346748404271 ], [ 130.529979501152184, 33.505262077275177 ], [ 130.530059426708192, 33.505184430856097 ], [ 130.530158744931668, 33.505104779882672 ], [ 130.530277697366643, 33.505001780459814 ], [ 130.530347965614652, 33.504944949662722 ], [ 130.530410168338051, 33.50489460459076 ], [ 130.530508591797428, 33.504832666259929 ], [ 130.530601049257314, 33.504785535112184 ], [ 130.530653701800048, 33.504736140191049 ], [ 130.530669172874298, 33.504689457776728 ], [ 130.530679636721089, 33.504635677367837 ], [ 130.530686855149895, 33.504552086612861 ], [ 130.530685550723575, 33.504474170356389 ], [ 130.530657351958183, 33.504377731026196 ], [ 130.530626161820464, 33.504243593035433 ], [ 130.530778875709672, 33.503975843656569 ], [ 130.530837985069297, 33.503820241135877 ], [ 130.530984650693341, 33.503457262610411 ], [ 130.530985283801698, 33.503339375670279 ], [ 130.530987454872275, 33.503287502357558 ], [ 130.530993909657411, 33.503134696647038 ], [ 130.530938596578835, 33.502936186523087 ], [ 130.531049215766672, 33.502841818471175 ], [ 130.531072217256792, 33.502794214370205 ], [ 130.531095799333798, 33.502646509821361 ], [ 130.531113269484422, 33.502571868224784 ], [ 130.531149395315509, 33.502554533158914 ], [ 130.531202708038791, 33.50252296293047 ], [ 130.531274990756174, 33.502481882916499 ], [ 130.531301706854151, 33.502454968817496 ], [ 130.531315153816621, 33.502424834286742 ], [ 130.531317284670649, 33.502380356385075 ], [ 130.531321393606135, 33.502319965384018 ], [ 130.531336903281698, 33.502258032207187 ], [ 130.53136751397443, 33.502210491556717 ], [ 130.531411504091153, 33.50214549451232 ], [ 130.53141113090723, 33.502035035606859 ], [ 130.531371547570757, 33.501984059865443 ], [ 130.531328325216606, 33.501913945772088 ], [ 130.531286884303512, 33.501856590527098 ], [ 130.531282500220186, 33.501850797579394 ], [ 130.531234160320224, 33.501786474833409 ], [ 130.531211561894679, 33.501751415162424 ], [ 130.531196545458556, 33.501721172026564 ], [ 130.531196733354136, 33.501686197426473 ], [ 130.531198914803667, 33.501640134706513 ], [ 130.531201398618208, 33.501350087454512 ], [ 130.531196157662492, 33.501269021534448 ], [ 130.531165242466585, 33.501193422636881 ], [ 130.531051174763036, 33.501014451571145 ], [ 130.530871108451834, 33.500966930009362 ], [ 130.530793899348851, 33.500579403481225 ], [ 130.530754478304146, 33.500506133542103 ], [ 130.530701790422, 33.500421719198634 ], [ 130.530643349525292, 33.50035950798943 ], [ 130.530631250603903, 33.500310996460009 ], [ 130.530633534992745, 33.50024584305573 ], [ 130.530635887688732, 33.500160050129203 ], [ 130.530672421574252, 33.500066426027765 ], [ 130.530712440037092, 33.500028431190643 ], [ 130.530768384615811, 33.500031000332825 ], [ 130.531139152354257, 33.500047504133875 ], [ 130.531139617300113, 33.499960964942197 ], [ 130.53113971589093, 33.499942614431014 ], [ 130.531170940635377, 33.499780637582695 ], [ 130.531173080182896, 33.499734540016924 ], [ 130.53116390243855, 33.499682094027875 ], [ 130.531139429099909, 33.499643856767875 ], [ 130.531111274634213, 33.499586515123731 ], [ 130.531090720977147, 33.499530821159262 ], [ 130.531068454910866, 33.499441729353848 ], [ 130.531051744162909, 33.499374921738877 ], [ 130.531043675681246, 33.499288314164801 ], [ 130.531030937949993, 33.499186544508561 ], [ 130.531012447092678, 33.499091127946961 ], [ 130.530976861517729, 33.499008327233341 ], [ 130.530939333993871, 33.498935098615334 ], [ 130.530903603901208, 33.498871387347641 ], [ 130.530865991092071, 33.498814046457838 ], [ 130.530782984122965, 33.498731101627584 ], [ 130.530718937912098, 33.498648195001792 ], [ 130.530692854406027, 33.498557540131642 ], [ 130.530693247616028, 33.498484419326189 ], [ 130.530726039658276, 33.498382855463234 ], [ 130.530783433453394, 33.498295649665735 ], [ 130.530970846325999, 33.498124959820352 ], [ 130.53104881528057, 33.498112890689889 ], [ 130.53108848909153, 33.498083945402627 ], [ 130.531216709470442, 33.497928392543322 ], [ 130.531233359105869, 33.497873366604928 ], [ 130.531245044253666, 33.497834664687403 ], [ 130.531375392506703, 33.497760553327119 ], [ 130.531382227639682, 33.497756000058892 ], [ 130.531442984612596, 33.497715476769052 ], [ 130.53151419588562, 33.497677421911199 ], [ 130.531585328379322, 33.497646445323198 ], [ 130.531666086154985, 33.497623572378771 ], [ 130.531804672888228, 33.497580733172697 ], [ 130.531956047345659, 33.49751324967886 ], [ 130.531992612234205, 33.497483800387698 ], [ 130.531995906384168, 33.497481136375093 ], [ 130.532008162210531, 33.497437857569508 ], [ 130.531994049778973, 33.497380357949169 ], [ 130.531969173528864, 33.497307671232498 ], [ 130.531950242773803, 33.497247123321365 ], [ 130.531906865691326, 33.497143617505351 ], [ 130.531876068343536, 33.497053791022147 ], [ 130.531867898832871, 33.497009414773764 ], [ 130.53189461595062, 33.496966156052338 ], [ 130.53192108065889, 33.49696224096985 ], [ 130.5320739023106, 33.496961791012609 ], [ 130.53220388580101, 33.496955233944576 ], [ 130.532298948405156, 33.496953582800771 ], [ 130.532350619899887, 33.496960820212919 ], [ 130.532409581025632, 33.496965090982357 ], [ 130.53248288692609, 33.496975439561403 ], [ 130.532516023090864, 33.496965983617685 ], [ 130.532533393888883, 33.496948929401128 ], [ 130.532629752021279, 33.496854507369051 ], [ 130.532698702421811, 33.496783192134949 ], [ 130.532790290320975, 33.496755322614341 ], [ 130.532848146314109, 33.496738385089863 ], [ 130.53289629258586, 33.496728491501194 ], [ 130.5329709780911, 33.496716689436532 ], [ 130.533058278373375, 33.496704406692928 ], [ 130.533278657048697, 33.49666489885206 ], [ 130.533452114862001, 33.49662624012808 ], [ 130.533614137885365, 33.496587008469199 ], [ 130.533731049469822, 33.496556200863708 ], [ 130.533779522170818, 33.496540497517316 ], [ 130.533854442333279, 33.496516191774582 ], [ 130.533941945522542, 33.496489467349789 ], [ 130.534025146393219, 33.496457512775159 ], [ 130.534100107001535, 33.496386221257211 ], [ 130.53420577032901, 33.496202155358432 ], [ 130.534226205676021, 33.49616207674481 ], [ 130.534242279928065, 33.496112155878926 ], [ 130.534260074494114, 33.496062735087939 ], [ 130.534271160283737, 33.496010364162544 ], [ 130.534282765133554, 33.495962399638849 ], [ 130.534297507443199, 33.495901837134774 ], [ 130.534366742972992, 33.495682095122518 ], [ 130.534387217079512, 33.495571783938324 ], [ 130.534395184408851, 33.495449485698288 ], [ 130.534392530802336, 33.495410906563997 ], [ 130.534381867456005, 33.495345072201729 ], [ 130.534359890039497, 33.495280356374479 ], [ 130.534292770061569, 33.495229703333486 ], [ 130.534255087398435, 33.495185076814948 ], [ 130.534244935586827, 33.495173098534664 ], [ 130.534209059752129, 33.495136649820822 ], [ 130.534165986356413, 33.495086086350881 ], [ 130.534099038491206, 33.495011235426496 ], [ 130.533995075677694, 33.494908490571291 ], [ 130.533948893372525, 33.494834102741748 ], [ 130.533926090355664, 33.494727327738367 ], [ 130.534017934599035, 33.494651095708228 ], [ 130.534324464590384, 33.494474785744579 ], [ 130.534568190426143, 33.494344664742691 ], [ 130.534679266902629, 33.494272483777529 ], [ 130.534865481831872, 33.49414232292893 ], [ 130.535095955139184, 33.493974638207824 ], [ 130.535338477358238, 33.493832365604788 ], [ 130.535956039493271, 33.493433879284076 ], [ 130.536321288158774, 33.49317692420712 ], [ 130.536427594680106, 33.493107687422714 ], [ 130.536587019883939, 33.492993351259052 ], [ 130.536556097373477, 33.492926734647796 ], [ 130.53651483324947, 33.49272595055232 ], [ 130.536739301827225, 33.492728342202795 ], [ 130.536880617557415, 33.492715345711552 ], [ 130.536910927968222, 33.492699291882019 ], [ 130.537074326428751, 33.492612621746666 ], [ 130.537297577841599, 33.492519587560125 ], [ 130.537528286547399, 33.492423447190205 ], [ 130.537593342710409, 33.492387093891068 ], [ 130.537789984401002, 33.49227018300315 ], [ 130.537866508840068, 33.492171987082877 ], [ 130.537960682973988, 33.492051100946838 ], [ 130.538194174620799, 33.491976527461226 ], [ 130.538523135289495, 33.491877863076844 ], [ 130.538811108017711, 33.491771295516159 ], [ 130.538824386931708, 33.491764266916974 ], [ 130.539052782802941, 33.491643459145095 ], [ 130.539249514376877, 33.491508830864582 ], [ 130.53946232211689, 33.491338721971808 ], [ 130.539497908487704, 33.491310361000195 ], [ 130.539722997101961, 33.491131069744647 ], [ 130.539833184441591, 33.491081534712315 ], [ 130.540197918119446, 33.49098190679144 ], [ 130.540445775483732, 33.490948452254663 ], [ 130.540509417083541, 33.490933156194252 ], [ 130.540882866138787, 33.490726624594167 ], [ 130.541304843002052, 33.490524394383428 ], [ 130.541588667192457, 33.490405794095643 ], [ 130.541587500829223, 33.490403641741374 ], [ 130.541561299376838, 33.490350218090356 ], [ 130.5414435295543, 33.490155140499169 ], [ 130.541427800452936, 33.490076641939289 ], [ 130.541412050411992, 33.490018113411452 ], [ 130.541401947510508, 33.489957000465651 ], [ 130.54141383915902, 33.489861978236895 ], [ 130.541465716163088, 33.489717300204703 ], [ 130.541515575031951, 33.489548557645385 ], [ 130.541503307744875, 33.489499340812124 ], [ 130.541448479282394, 33.489413970139829 ], [ 130.541415652638563, 33.489333257848422 ], [ 130.54139551069531, 33.489206664000903 ], [ 130.541365105414201, 33.489049492920934 ], [ 130.541346242417262, 33.488807655938693 ], [ 130.54136595468222, 33.488536303116973 ], [ 130.541366523840878, 33.488428101350848 ], [ 130.541334758110054, 33.488329712796428 ], [ 130.541260407738491, 33.488167940287809 ], [ 130.54119867882298, 33.488028124174697 ], [ 130.541183432316728, 33.487953888650111 ], [ 130.541173559281731, 33.487849169742034 ], [ 130.541152432290147, 33.487806049703963 ], [ 130.541103327924532, 33.487727426350638 ], [ 130.541067024524352, 33.487676782113873 ], [ 130.541047226306944, 33.487612954419497 ], [ 130.541051477693429, 33.48761159599438 ], [ 130.541054945096391, 33.487575753890184 ], [ 130.541066854081436, 33.487541456097624 ], [ 130.541173166383203, 33.487372535603775 ], [ 130.541255998111438, 33.487208424286429 ], [ 130.541374528138675, 33.486946314856084 ], [ 130.541387396168432, 33.486913324412455 ], [ 130.541385418423175, 33.486881757589479 ], [ 130.541283784784696, 33.486768667366533 ], [ 130.541274208470014, 33.486743377134971 ], [ 130.541321127246221, 33.486621822864343 ], [ 130.541346377155833, 33.486528158775471 ], [ 130.541347926005756, 33.48643338351328 ], [ 130.541325774342369, 33.486192846901254 ], [ 130.541325493147525, 33.486182350526107 ], [ 130.541674971032222, 33.486181712040434 ], [ 130.541675609169431, 33.486060024328268 ], [ 130.542113401562887, 33.486019277818336 ], [ 130.542113118702304, 33.486008958063344 ], [ 130.542168857533596, 33.485021844295368 ], [ 130.54250542965454, 33.485036861126872 ], [ 130.542644345834844, 33.48502184329142 ], [ 130.542720808577599, 33.485021280382043 ], [ 130.542719380983442, 33.484980947295803 ], [ 130.542734124148467, 33.484862517485055 ], [ 130.54277713487491, 33.4847481364461 ], [ 130.542881781454668, 33.484566852575981 ], [ 130.543048370531551, 33.484259423279489 ], [ 130.543237218794218, 33.484196933774136 ], [ 130.543487700938897, 33.484067502554268 ], [ 130.543719433524245, 33.483922224439816 ], [ 130.543942256366051, 33.483776809330955 ], [ 130.543984264665994, 33.4837494182268 ], [ 130.544209026729476, 33.483578471161955 ], [ 130.544318110052188, 33.483456444025371 ], [ 130.544199156266046, 33.483407892967499 ], [ 130.544075834205586, 33.483342772764814 ], [ 130.544018015137596, 33.483290748501332 ], [ 130.543917331855056, 33.483197006139484 ], [ 130.543829533727035, 33.48311461621379 ], [ 130.543764095019355, 33.48307292005844 ], [ 130.54374390819018, 33.483026845957951 ], [ 130.543736601365367, 33.482977227280152 ], [ 130.543697975081329, 33.4829608478952 ], [ 130.543647475440906, 33.482948053107698 ], [ 130.543627318179887, 33.482928394628985 ], [ 130.543573542853125, 33.482882867623246 ], [ 130.543442412870689, 33.482856214282947 ], [ 130.543400502894457, 33.482848875180672 ], [ 130.543380084444323, 33.482838867481121 ], [ 130.543373739028823, 33.48282260648616 ], [ 130.543373828484533, 33.48280548978029 ], [ 130.543391141596544, 33.482782095618909 ], [ 130.543438762308767, 33.482734475739896 ], [ 130.543416040189896, 33.48257825727822 ], [ 130.543384716772721, 33.482362796708642 ], [ 130.543187668956136, 33.482394545122801 ], [ 130.543172216968003, 33.482262830217799 ], [ 130.54296451221515, 33.482290769812188 ], [ 130.542942614199688, 33.48229068905448 ], [ 130.542915961038403, 33.482291647944749 ], [ 130.542884327741376, 33.482272123779772 ], [ 130.542819373963738, 33.482242615839013 ], [ 130.542684810641191, 33.482285651791685 ], [ 130.542631229164357, 33.482307892764823 ], [ 130.542582234709414, 33.48232105859681 ], [ 130.542526472211392, 33.482333990294158 ], [ 130.542500250298559, 33.482356822530356 ], [ 130.54247868269826, 33.482365759545758 ], [ 130.542477208802779, 33.48236628407389 ], [ 130.542336344051364, 33.482416868826419 ], [ 130.542192601924484, 33.482463180966143 ], [ 130.542158288314909, 33.482514019822602 ], [ 130.542126562823682, 33.482536304924693 ], [ 130.542087598300355, 33.482544330041975 ], [ 130.542041384262888, 33.482548245992511 ], [ 130.541974256558746, 33.482524399111433 ], [ 130.541927291923372, 33.482502986018574 ], [ 130.541884132598938, 33.482477187089927 ], [ 130.541798969562109, 33.482510226082169 ], [ 130.54172279163069, 33.482545024615135 ], [ 130.541666761398346, 33.482561124747519 ], [ 130.541613147113907, 33.482581284216678 ], [ 130.541525488560893, 33.482601355097536 ], [ 130.541415907382913, 33.482625390231604 ], [ 130.541351725323153, 33.482641108349327 ], [ 130.541346535676752, 33.482644717459898 ], [ 130.541331611460663, 33.482677241170563 ], [ 130.541320019926275, 33.482747640992692 ], [ 130.541331611460663, 33.482677241170556 ], [ 130.541346535676695, 33.482644717459898 ], [ 130.54127416113036, 33.482651669817216 ], [ 130.541086065494142, 33.482611278504066 ], [ 130.541063915484784, 33.482731124715905 ], [ 130.540833946688281, 33.482676173012941 ], [ 130.540587007460573, 33.482683321457927 ], [ 130.540417960722181, 33.482697560992243 ], [ 130.540151849143797, 33.482122222308057 ], [ 130.540407845675361, 33.481854928793489 ], [ 130.54050175727636, 33.48175690629089 ], [ 130.540768353634661, 33.481512052793526 ], [ 130.54094688915788, 33.481323434115133 ], [ 130.540941673120585, 33.48131619449817 ], [ 130.540801107270994, 33.481149817875313 ], [ 130.540813627921295, 33.481110874525868 ], [ 130.540865800709042, 33.480948628136709 ], [ 130.540888105636412, 33.480743336177987 ], [ 130.540889320730685, 33.480711923497417 ], [ 130.540894917390119, 33.480566622147663 ], [ 130.540919191516736, 33.480434422183023 ], [ 130.54096476467987, 33.480280568971672 ], [ 130.541073928698353, 33.480134840727935 ], [ 130.541121511926576, 33.480046152637314 ], [ 130.541039026979547, 33.480049793213837 ], [ 130.540949344077092, 33.480071195419477 ], [ 130.540904509844523, 33.480084834175138 ], [ 130.540845519268828, 33.480104375139625 ], [ 130.540781853827951, 33.480110056365902 ], [ 130.540706512257884, 33.480097944635979 ], [ 130.540638212050823, 33.480089766789249 ], [ 130.540591021280818, 33.48009554461288 ], [ 130.540538906633998, 33.480150612508368 ], [ 130.540489259008837, 33.480183996104444 ], [ 130.540366728769044, 33.480177623942581 ], [ 130.540283112162484, 33.480172384642138 ], [ 130.540262935762939, 33.480172591178565 ], [ 130.540146416044962, 33.480173850984052 ], [ 130.540059264979675, 33.480169582987443 ], [ 130.539972020009003, 33.480175178095337 ], [ 130.539912997548186, 33.480192745485802 ], [ 130.53979058088467, 33.48017253302104 ], [ 130.539628139296781, 33.480138366072261 ], [ 130.53953865465698, 33.480130144893444 ], [ 130.539458439414688, 33.480149606398889 ], [ 130.539429187423167, 33.480165276875574 ], [ 130.539404223096255, 33.480267319973443 ], [ 130.539429187423139, 33.480165276875574 ], [ 130.539418270219443, 33.480171152945239 ], [ 130.539366288757208, 33.4801926936358 ], [ 130.539302529516533, 33.480216158022174 ], [ 130.53923664524217, 33.480204044745605 ], [ 130.539140514450139, 33.480108907759508 ], [ 130.539048346684098, 33.480083559536602 ], [ 130.538833426741576, 33.480021866179072 ], [ 130.538800711628994, 33.480175942906527 ], [ 130.538791730810516, 33.480181507458902 ], [ 130.53870742149914, 33.480196056968111 ], [ 130.538600199403049, 33.480203654346951 ], [ 130.538534443880962, 33.480199148889589 ], [ 130.538428098931348, 33.480183889474212 ], [ 130.53818417371545, 33.480186680906357 ], [ 130.537940228776932, 33.480193205169186 ], [ 130.537745018826882, 33.4802036448217 ], [ 130.537261485301656, 33.480235267990011 ], [ 130.536871009552698, 33.480274705717264 ], [ 130.536578891732148, 33.480289674343318 ], [ 130.536574687312452, 33.48028990574764 ], [ 130.536445178169146, 33.480291676507768 ], [ 130.536347545226732, 33.480306175061386 ], [ 130.535949670297384, 33.480258690572462 ], [ 130.53595361884345, 33.480156073119247 ], [ 130.53596333439674, 33.479996316714555 ], [ 130.535950859601343, 33.479843903414505 ], [ 130.53594750729934, 33.479635810488858 ], [ 130.535957026515206, 33.479513208083915 ], [ 130.535968392537058, 33.479367051218652 ], [ 130.535957294585273, 33.479232679212913 ], [ 130.535955601283433, 33.479139796716673 ], [ 130.535888835854394, 33.479151275902552 ], [ 130.535790416015573, 33.479155838782262 ], [ 130.535610097714112, 33.479164639683979 ], [ 130.535467955965601, 33.479186649697141 ], [ 130.535439765073278, 33.479192390936888 ], [ 130.535581916415424, 33.47894571538064 ], [ 130.535683647155906, 33.478769178991413 ], [ 130.535763523117254, 33.478637258224509 ], [ 130.535927758465249, 33.478366006457357 ], [ 130.536074510353643, 33.478110090403355 ], [ 130.536406890191984, 33.477530453426411 ], [ 130.536419038615037, 33.477508864262113 ], [ 130.536601475832612, 33.477184639773483 ], [ 130.536711657107958, 33.476990840115661 ], [ 130.536653331008438, 33.476956811213036 ], [ 130.536207273992432, 33.476994036564328 ], [ 130.535908568162313, 33.476985419001757 ], [ 130.535136499286324, 33.47696313766366 ], [ 130.535085875585594, 33.476958721887151 ], [ 130.53499715948729, 33.476925284173674 ], [ 130.534930377132866, 33.476963917637512 ], [ 130.534591236476388, 33.476978396995065 ], [ 130.534011801972071, 33.477080452907522 ], [ 130.533908191505503, 33.47721524156826 ], [ 130.533835716502011, 33.477186265713712 ], [ 130.533666221598565, 33.477449488548828 ], [ 130.533525434461041, 33.477668123510774 ], [ 130.533335319547206, 33.477953150945638 ], [ 130.533139308380697, 33.478247015594228 ], [ 130.533100688572091, 33.478304914704367 ], [ 130.533042991177354, 33.47839141514968 ], [ 130.532954931747497, 33.478523435177607 ], [ 130.532940889171584, 33.478544486356029 ], [ 130.532599163265758, 33.479018261627857 ], [ 130.532495850181533, 33.47897078568662 ], [ 130.532655242281095, 33.478662427928526 ], [ 130.532746063910309, 33.478373113967507 ], [ 130.532785236047175, 33.478239387017283 ], [ 130.532830852967095, 33.478009036525442 ], [ 130.532861195644131, 33.477860410877796 ], [ 130.532899128487969, 33.477668105010402 ], [ 130.532978576509436, 33.47721017898759 ], [ 130.533045810801127, 33.476803910093707 ], [ 130.53310508728029, 33.476510390614038 ], [ 130.533197620184581, 33.476057478603849 ], [ 130.5332493077496, 33.47581559944657 ], [ 130.53332262418661, 33.47537962797653 ], [ 130.533194240890424, 33.475396110460125 ], [ 130.533041418706858, 33.475415731031646 ], [ 130.532834407054253, 33.47540259236191 ], [ 130.532648248657523, 33.475364700257998 ], [ 130.532530148794706, 33.475324596303672 ], [ 130.532403313595779, 33.475259665979152 ], [ 130.532244012908876, 33.475174784000544 ], [ 130.532074367100051, 33.475098526103103 ], [ 130.53189144396768, 33.475006122987544 ], [ 130.531811908422128, 33.474946335857254 ], [ 130.531649998493123, 33.474799487837764 ], [ 130.531532524803339, 33.474642873863218 ], [ 130.531444785965959, 33.474459113228626 ], [ 130.531473408436256, 33.474380677314976 ], [ 130.531309377039037, 33.474331771530849 ], [ 130.531050077862233, 33.474304236618963 ], [ 130.530902971815436, 33.474320587964208 ], [ 130.530732807178509, 33.4742163244361 ], [ 130.530718986964246, 33.47408207981406 ], [ 130.530749126383824, 33.473979558825135 ], [ 130.53082705310706, 33.473962946759357 ], [ 130.531070919253125, 33.474046848668848 ], [ 130.531279362958259, 33.474082186721951 ], [ 130.531287517365797, 33.473917557304333 ], [ 130.531271279020984, 33.473779253444029 ], [ 130.53121960814812, 33.473688574752202 ], [ 130.531142712365124, 33.473552086450013 ], [ 130.531095052272406, 33.473395345544326 ], [ 130.530332253929345, 33.473593719944958 ], [ 130.530056452548507, 33.473672981346731 ], [ 130.529942202282911, 33.473270039439839 ], [ 130.529804455918537, 33.472945269469029 ], [ 130.529730113698577, 33.472780293243666 ], [ 130.529587151577232, 33.472753336172261 ], [ 130.529366510889474, 33.472728092099878 ], [ 130.52918521800558, 33.472615576016608 ], [ 130.528905814901549, 33.472467148696282 ], [ 130.528552406934097, 33.472325519410248 ], [ 130.528167470623316, 33.472177674971029 ], [ 130.527982223894412, 33.472112939165463 ], [ 130.52770854004109, 33.472002865189616 ], [ 130.527604622430857, 33.471961070315395 ], [ 130.527540309119274, 33.471520659879275 ], [ 130.527596107731597, 33.471290133513577 ], [ 130.527584598179146, 33.471180305293004 ], [ 130.527527084875373, 33.471052021101343 ], [ 130.52743315471136, 33.470927645166697 ], [ 130.527317435660478, 33.470791001993945 ], [ 130.52720438090563, 33.470620342901015 ], [ 130.527078689465696, 33.470649167702057 ], [ 130.526973859003874, 33.470310710560248 ], [ 130.526646902716237, 33.469209551674744 ], [ 130.526355419713241, 33.468218409870751 ], [ 130.526449917038832, 33.468151520632667 ], [ 130.526582631913612, 33.468087610653221 ], [ 130.526676605112755, 33.468080813303537 ], [ 130.526753461383521, 33.468081106925744 ], [ 130.527345597055245, 33.46796810393495 ], [ 130.527719711243606, 33.467848600450637 ], [ 130.527886007648164, 33.467709566709161 ], [ 130.52791317115873, 33.467605982438897 ], [ 130.527815547658776, 33.467498249511486 ], [ 130.527675131359871, 33.46740824534178 ], [ 130.527620129935798, 33.467314988746871 ], [ 130.527349613727836, 33.467183405446811 ], [ 130.52689586265177, 33.467290466766734 ], [ 130.526199989658807, 33.467532115501243 ], [ 130.526189021121411, 33.467511331860763 ], [ 130.525982479816037, 33.467110130394545 ], [ 130.526279996400717, 33.467083307776427 ], [ 130.526282386877739, 33.467054303189954 ], [ 130.52630067092457, 33.467027224003104 ], [ 130.526359983997679, 33.467001300550251 ], [ 130.526477012111314, 33.466962784501803 ], [ 130.526769564902054, 33.466862196787062 ], [ 130.526891334521963, 33.466825690747051 ], [ 130.526967689417688, 33.466831392879143 ], [ 130.527025925920924, 33.466805464964409 ], [ 130.527116712240741, 33.466729164951232 ], [ 130.527301662457148, 33.466637696496633 ], [ 130.527386442874359, 33.466587721666201 ], [ 130.527454361775369, 33.46656183044135 ], [ 130.527520095904123, 33.466542243021124 ], [ 130.527529973052452, 33.466506211733005 ], [ 130.527537792708074, 33.466453040183083 ], [ 130.527572444344969, 33.466411692652009 ], [ 130.527623116523415, 33.466392048302737 ], [ 130.527730835911399, 33.466367210084613 ], [ 130.527783711640325, 33.466337654767223 ], [ 130.527801938676561, 33.466324355204549 ], [ 130.527802146900598, 33.466285967791322 ], [ 130.527826823577982, 33.466059819583307 ], [ 130.527768932079908, 33.46591697874743 ], [ 130.527669555664772, 33.465852669885905 ], [ 130.527546244976179, 33.465862026820965 ], [ 130.527469758301436, 33.46590108113034 ], [ 130.527381760432803, 33.465900745667568 ], [ 130.527141411319292, 33.46585558665187 ], [ 130.526936082208834, 33.465854803272585 ], [ 130.526842158998051, 33.465854444819996 ], [ 130.526836717456973, 33.465780630711272 ], [ 130.526866345639263, 33.46572664041534 ], [ 130.52689027549053, 33.465638214949941 ], [ 130.526796622339219, 33.465603444108069 ], [ 130.526655437802418, 33.465661905128123 ], [ 130.526561288072969, 33.465710718231712 ], [ 130.526426134865716, 33.465749546156694 ], [ 130.526285206443617, 33.46576869767496 ], [ 130.526150560434303, 33.465714079758499 ], [ 130.525828726853916, 33.465545642659222 ], [ 130.524736088581591, 33.466845080395352 ], [ 130.524612870444514, 33.467010253800005 ], [ 130.523978063001522, 33.467861184823079 ], [ 130.523609690124943, 33.467871498300632 ], [ 130.523152425150357, 33.468542753008776 ], [ 130.522802718063843, 33.469156652321253 ], [ 130.522488783699487, 33.469798765428621 ], [ 130.522377476677235, 33.470062474081843 ], [ 130.52219925053447, 33.470535602606603 ], [ 130.522077988959694, 33.470859781427578 ], [ 130.521985679719791, 33.471169243371925 ], [ 130.521927814229599, 33.471336399256153 ], [ 130.52192051396284, 33.471364866166503 ], [ 130.521813103773383, 33.471783564884788 ], [ 130.521742831780756, 33.4720212215462 ], [ 130.521640092643281, 33.472331312955873 ], [ 130.521494630432443, 33.472821404920353 ], [ 130.521360460254726, 33.473306149710126 ], [ 130.521171299072989, 33.473869969424584 ], [ 130.521029803154306, 33.474371487054256 ], [ 130.520788578005465, 33.474916967294995 ], [ 130.520506575141013, 33.475448202758422 ], [ 130.520257876375553, 33.475899541140748 ], [ 130.520080410379819, 33.476230233523133 ], [ 130.519957995190964, 33.476424755563826 ], [ 130.51984414525873, 33.476605678814821 ], [ 130.519558005957521, 33.477015909107671 ], [ 130.519548258109353, 33.477030419694159 ], [ 130.519284655076007, 33.477423512128865 ], [ 130.519502319014805, 33.477449320149518 ], [ 130.519654289061322, 33.477452087600597 ], [ 130.519814187018852, 33.477435125979405 ], [ 130.519963694845188, 33.477411571796914 ], [ 130.52008424458333, 33.477403230366718 ], [ 130.520259745155727, 33.477414891898185 ], [ 130.520327046104313, 33.477420925933615 ], [ 130.520512419211514, 33.477441115223904 ], [ 130.520740295865352, 33.477459529823946 ], [ 130.521038879691787, 33.477476065597216 ], [ 130.521045037659235, 33.47778565882134 ], [ 130.521040741789193, 33.47809306619498 ], [ 130.521023273562975, 33.478411370903849 ], [ 130.521013822276473, 33.478701138017477 ], [ 130.521013822276473, 33.478701138017485 ], [ 130.520636141088318, 33.479011474163286 ], [ 130.520409160317115, 33.479196291682264 ], [ 130.520135038926014, 33.479438481138743 ], [ 130.520208589133489, 33.479699508978612 ], [ 130.520189289230473, 33.479784846742774 ], [ 130.520143120272081, 33.47984923140659 ], [ 130.520092837499732, 33.479904864223492 ], [ 130.520227594289452, 33.480011821616351 ], [ 130.520362750102748, 33.480023327744469 ], [ 130.520305962501908, 33.48015343043965 ], [ 130.520224340606347, 33.48022130538547 ], [ 130.520264220771338, 33.480322297633855 ], [ 130.519855822640352, 33.480384589596227 ], [ 130.519763704107788, 33.480411955460099 ], [ 130.519589583458071, 33.48046922654386 ], [ 130.51949555345368, 33.480477177234846 ], [ 130.519419543548679, 33.480472166191284 ], [ 130.519358279088777, 33.480461117863726 ], [ 130.519235555902753, 33.480382523911359 ], [ 130.519071031712883, 33.480254426015016 ], [ 130.518955383579254, 33.480348656989015 ], [ 130.518792350167786, 33.480445417678034 ], [ 130.518728569048761, 33.480501984715623 ], [ 130.518620740716358, 33.480603393735223 ], [ 130.518554646695236, 33.48065238024332 ], [ 130.518408668438099, 33.480720711228152 ] ] ] ] } }
]
}
