{
"type": "FeatureCollection",
"name": "糸島(¥8200)",
"crs": { "type": "name", "properties": { "name": "urn:ogc:def:crs:EPSG::4612" } },
"features": [
{ "type": "Feature", "properties": { "KEY_CODE": "4023001591", "PREF": "40", "CITY": "230", "K_AREA": "053002010", "S_AREA": "01591", "PREF_NAME": "福岡県", "CITY_NAME": "糸島市", "S_NAME": "篠原西二丁目", "KIGO_E": null, "HCODE": 8101, "AREA": 6582.027, "PERIMETER": 370.407, "KIHON1": "0530", "DUMMY1": "-", "KIHON2": "02", "KIHON3": "010", "C1": 9, "C2": 159, "DUMMY2": "-", "C3": 1, "DUMMY3": null, "C4": 0, "KIGO_A": null, "KIGO_D": null, "N_KEN": null, "N_CITY": null, "N_C1": 0, "KIGO_I": null, "KEYCODE1": "2300159-1-00", "JINKO": 120, "SETAI": 54, "KEN_OLD": "40", "CITY_OLD": "230", "X_CODE": 130.206724, "Y_CODE": 33.552148, "KCODE1": "0530-02010", "CCODE1": "159-1" }, "geometry": { "type": "MultiPolygon", "coordinates": [ [ [ [ 130.184263743404927, 33.54668465536917 ], [ 130.184400452023397, 33.546777493942152 ], [ 130.184030948832515, 33.547073354252994 ], [ 130.183995487232153, 33.547101748153509 ], [ 130.183984144384198, 33.54709498470411 ], [ 130.183927062172359, 33.547060951488042 ], [ 130.183902920112132, 33.547083294264525 ], [ 130.183659477820925, 33.547278252683043 ], [ 130.183587867131166, 33.547229219244961 ], [ 130.183220414641852, 33.547486249148704 ], [ 130.182635604433045, 33.547973834780237 ], [ 130.182514175724435, 33.548075075829701 ], [ 130.182455904780255, 33.54812365794303 ], [ 130.182374490986518, 33.548192606390678 ], [ 130.183086249932018, 33.54852852674663 ], [ 130.182662106907372, 33.549232258216072 ], [ 130.182484201213981, 33.549527434317895 ], [ 130.182394398285595, 33.549676430648809 ], [ 130.183430012836027, 33.549871365109915 ], [ 130.184596134012054, 33.550090853025708 ], [ 130.18493661740311, 33.550194201970172 ], [ 130.18498057075044, 33.551695709027001 ], [ 130.185124848820436, 33.551670066547999 ], [ 130.185374129325851, 33.551618609904047 ], [ 130.18544592252519, 33.551603788257829 ], [ 130.186044942313345, 33.552049670630794 ], [ 130.186114537253957, 33.552002794300911 ], [ 130.186838190057074, 33.552576838855209 ], [ 130.18759590696061, 33.553177886996771 ], [ 130.186471294378009, 33.554170779608654 ], [ 130.18897183185544, 33.555198714164526 ], [ 130.189009683069258, 33.555193684710588 ], [ 130.188971773652639, 33.555228305055778 ], [ 130.189384964186701, 33.555388873270125 ], [ 130.189988253788414, 33.555653177083855 ], [ 130.189994339362414, 33.555665581927222 ], [ 130.190214551953659, 33.55611445561847 ], [ 130.190231685666987, 33.556171625275518 ], [ 130.190399106404527, 33.556730465051324 ], [ 130.190532503185835, 33.557175920169726 ], [ 130.190535919608976, 33.557179464555929 ], [ 130.191033995485242, 33.557189032806043 ], [ 130.191055614968917, 33.55718945621625 ], [ 130.191518726935044, 33.55735731987582 ], [ 130.192171567236699, 33.557444007776013 ], [ 130.192255241160751, 33.55748449352793 ], [ 130.192343206066965, 33.557561145143644 ], [ 130.192475736095759, 33.557676652376919 ], [ 130.192763674404489, 33.557917678761925 ], [ 130.193546734661879, 33.55818817885153 ], [ 130.194145442522256, 33.558351669657341 ], [ 130.194374096088609, 33.558336821101975 ], [ 130.194524792086582, 33.558462622417437 ], [ 130.194264121570939, 33.558654280042532 ], [ 130.193981656397511, 33.558782784560499 ], [ 130.193957484327541, 33.558785374983216 ], [ 130.193544719042563, 33.558829415920194 ], [ 130.193499072014816, 33.558834295027367 ], [ 130.192735305825295, 33.558867164044116 ], [ 130.192413726580924, 33.558886086344764 ], [ 130.192207654060411, 33.558897346717089 ], [ 130.191790707774459, 33.558911416328804 ], [ 130.191921438937527, 33.560238901359895 ], [ 130.192090933580147, 33.560225676479405 ], [ 130.192145073309291, 33.560221452825878 ], [ 130.19219412492231, 33.560347931586406 ], [ 130.192213409330066, 33.560436354109115 ], [ 130.192267940121354, 33.560516588105422 ], [ 130.192357201028983, 33.560634912417818 ], [ 130.192376524739558, 33.560719145115499 ], [ 130.192450335287504, 33.560879420293197 ], [ 130.192499543369792, 33.560989064881888 ], [ 130.192574652993642, 33.561018999616046 ], [ 130.192745243493619, 33.561032725995368 ], [ 130.192790092987224, 33.561041471040653 ], [ 130.192734116629396, 33.561080059218376 ], [ 130.192588191450454, 33.561137182209777 ], [ 130.192525013982191, 33.561145009754746 ], [ 130.192430564455663, 33.561140833959513 ], [ 130.192226003563064, 33.561115792717111 ], [ 130.192121195177094, 33.561139654363593 ], [ 130.191997049363522, 33.561180120409489 ], [ 130.192146324387664, 33.561395268795145 ], [ 130.192199287160719, 33.561499338654407 ], [ 130.192250169455178, 33.561619067735222 ], [ 130.192281029684409, 33.561720315895123 ], [ 130.1922929028471, 33.561791574174464 ], [ 130.192290492310974, 33.561878586393988 ], [ 130.192284004449363, 33.561960854067976 ], [ 130.192281254820017, 33.561984962451838 ], [ 130.192278323795676, 33.562010547795545 ], [ 130.192267020940449, 33.562067706070053 ], [ 130.192234869219845, 33.562195133022797 ], [ 130.192135449033117, 33.562588596590651 ], [ 130.192104773278544, 33.562674931185569 ], [ 130.192107348358633, 33.562840907205626 ], [ 130.191667398796852, 33.563126971489844 ], [ 130.191264518974378, 33.563380522277718 ], [ 130.191195154588797, 33.563410885220307 ], [ 130.191123537207091, 33.56343929679192 ], [ 130.190315826205904, 33.563938175553353 ], [ 130.189691417784985, 33.564323820230626 ], [ 130.190405676152466, 33.564812963647057 ], [ 130.190308093678198, 33.564873465343197 ], [ 130.190389711400684, 33.564918590262138 ], [ 130.190412284934723, 33.564925042813726 ], [ 130.190922613583211, 33.564979037520075 ], [ 130.19135723674222, 33.565030595153083 ], [ 130.191696896717502, 33.565060469069444 ], [ 130.192107297509665, 33.565102005399098 ], [ 130.192612996615253, 33.565156421344838 ], [ 130.193044034927681, 33.565195588509447 ], [ 130.193300811616979, 33.565216711207739 ], [ 130.193535043003322, 33.565237436692804 ], [ 130.193653587942748, 33.565247897215059 ], [ 130.194033980547886, 33.565286166935728 ], [ 130.194318953338239, 33.565315606545305 ], [ 130.194745824462188, 33.565359706704562 ], [ 130.195006504329314, 33.565386626963083 ], [ 130.195257105089865, 33.565411472271435 ], [ 130.195444264130458, 33.565427061365043 ], [ 130.195784986766455, 33.565451579330897 ], [ 130.19597340695222, 33.565458231562147 ], [ 130.196166683197276, 33.565458434625313 ], [ 130.196359107100704, 33.565450812934245 ], [ 130.196566374970985, 33.565439377627783 ], [ 130.196727272945793, 33.565428590409795 ], [ 130.196872130746812, 33.565414496250625 ], [ 130.197021576321958, 33.565404727008051 ], [ 130.197237908434715, 33.565404935945161 ], [ 130.197368632078224, 33.56540871156043 ], [ 130.19755160093672, 33.565422510859015 ], [ 130.197711159288247, 33.565447356991051 ], [ 130.197897906917262, 33.565479776130616 ], [ 130.197988703536794, 33.565497165519389 ], [ 130.198245137231908, 33.565546026276927 ], [ 130.198421474894047, 33.565585033123014 ], [ 130.198653429367738, 33.56565148569824 ], [ 130.198898696994604, 33.565706858847136 ], [ 130.199057901624769, 33.565742476490009 ], [ 130.199201577410349, 33.565774051833401 ], [ 130.199232992063457, 33.565780031728679 ], [ 130.19960113768218, 33.565850463580269 ], [ 130.199664536209838, 33.565864365071711 ], [ 130.199917809997004, 33.565918520207013 ], [ 130.200119581320621, 33.565955258198962 ], [ 130.200520612414294, 33.566027415995769 ], [ 130.200721625065825, 33.56604618738946 ], [ 130.201002839571771, 33.56607245117312 ], [ 130.201294872843931, 33.566084412216519 ], [ 130.201536527691047, 33.566084743775754 ], [ 130.201620024419952, 33.566081796409392 ], [ 130.201818749772002, 33.566074804066488 ], [ 130.202276598212904, 33.56604441024686 ], [ 130.202307507884257, 33.566361206811095 ], [ 130.202404497394838, 33.566903838342597 ], [ 130.202437372064139, 33.567089451755145 ], [ 130.202379237854245, 33.567390314127508 ], [ 130.202168253776364, 33.567759716361948 ], [ 130.204920300040868, 33.568547142857888 ], [ 130.205063139729134, 33.5682118133698 ], [ 130.207073030337028, 33.568027401739094 ], [ 130.209845548972254, 33.568947879927627 ], [ 130.21052912867566, 33.5691532535999 ], [ 130.211068209100972, 33.569397917977135 ], [ 130.211244611729029, 33.569208994840864 ], [ 130.214391964321152, 33.570204853018758 ], [ 130.214445178376764, 33.570117456721846 ], [ 130.215526433300198, 33.570538907714962 ], [ 130.215939979215932, 33.56983478762546 ], [ 130.216199988347995, 33.569285340011142 ], [ 130.217365256896954, 33.569665072845261 ], [ 130.217643406478459, 33.569081008798186 ], [ 130.217945259785608, 33.569162340801874 ], [ 130.218205322985568, 33.569268273676137 ], [ 130.21844116917643, 33.569428609780722 ], [ 130.218665911238389, 33.569504520729119 ], [ 130.21879226676927, 33.569311677517014 ], [ 130.218905952745928, 33.569208141421178 ], [ 130.219090201406203, 33.569164646435041 ], [ 130.219252082059455, 33.569128861393295 ], [ 130.219172528000058, 33.568740191918543 ], [ 130.219066440002052, 33.568223928079263 ], [ 130.21895988252129, 33.567759820308581 ], [ 130.218893535785128, 33.567446572290599 ], [ 130.218988380646607, 33.566902588983055 ], [ 130.218865147791206, 33.566767654638873 ], [ 130.219060611179856, 33.56637494543903 ], [ 130.220185768079801, 33.566711533754301 ], [ 130.220334659488117, 33.566360264527368 ], [ 130.220601345571396, 33.565774921692345 ], [ 130.220605303503277, 33.565765260925644 ], [ 130.22077805972944, 33.565342044918189 ], [ 130.220868558729222, 33.565130516104567 ], [ 130.220967323508262, 33.56491678455771 ], [ 130.221387870756558, 33.565037597085556 ], [ 130.221388289517165, 33.565037740604104 ], [ 130.221500078630186, 33.565069790587323 ], [ 130.22145323386124, 33.565198614030841 ], [ 130.221927259352384, 33.565342339018748 ], [ 130.221979459658257, 33.565207349078683 ], [ 130.221995153058288, 33.565211851470259 ], [ 130.222666603437915, 33.565418202769514 ], [ 130.222676253626531, 33.565421188383574 ], [ 130.222643518301027, 33.565628292303003 ], [ 130.222566523490485, 33.565807363513116 ], [ 130.221838214629457, 33.565579555503689 ], [ 130.221761174607394, 33.565763485185634 ], [ 130.222868370562821, 33.566114165898973 ], [ 130.222810824161314, 33.566263738456378 ], [ 130.222753405512435, 33.566417892642889 ], [ 130.222708850213735, 33.56654486444895 ], [ 130.222504552037776, 33.566620080634394 ], [ 130.222268100278313, 33.566686957114037 ], [ 130.221470816550209, 33.566465334326971 ], [ 130.221215196652395, 33.567036872479896 ], [ 130.221040850260636, 33.567224522553794 ], [ 130.220899330560258, 33.567495394397469 ], [ 130.221697917201112, 33.567685226328464 ], [ 130.221525543168298, 33.56804694987261 ], [ 130.22150307473143, 33.568037862365529 ], [ 130.221384907765469, 33.568294299805089 ], [ 130.221332435653125, 33.568327957993567 ], [ 130.221278966455543, 33.568463504040331 ], [ 130.221573675998258, 33.568572113053371 ], [ 130.221614883647391, 33.568499571145608 ], [ 130.221806046851299, 33.568491651532817 ], [ 130.221847842787753, 33.568325462333277 ], [ 130.22218525813085, 33.5684290555117 ], [ 130.222397315929726, 33.568493257654211 ], [ 130.222374861264456, 33.568576448804833 ], [ 130.222561592974728, 33.568632620141813 ], [ 130.222624025093978, 33.568651400627715 ], [ 130.2234730185979, 33.56890678461415 ], [ 130.223688396784269, 33.568345975193388 ], [ 130.223850015540052, 33.567925221139213 ], [ 130.223779855774694, 33.567876316870148 ], [ 130.223579951991667, 33.567770525987861 ], [ 130.223411435413936, 33.567702054752075 ], [ 130.223439436785611, 33.567600760357017 ], [ 130.223482115078554, 33.567485890725393 ], [ 130.223551659052305, 33.567293176539806 ], [ 130.223579760691081, 33.567236999507386 ], [ 130.224209964158433, 33.567419134648894 ], [ 130.224109397477292, 33.567646595750588 ], [ 130.22469331758316, 33.567820091680524 ], [ 130.225002601993992, 33.567135783230206 ], [ 130.225094794709833, 33.566931727633076 ], [ 130.226290857339535, 33.567236865444094 ], [ 130.226140844236426, 33.567423763099036 ], [ 130.227280389649991, 33.567877808958578 ], [ 130.227392684188231, 33.567608222078597 ], [ 130.22758218798549, 33.567153570814398 ], [ 130.227638335533669, 33.567018742085004 ], [ 130.227660260246694, 33.566966119120849 ], [ 130.227692761855906, 33.56688812964596 ], [ 130.227925848678979, 33.566971861280209 ], [ 130.228137970516997, 33.567038310105701 ], [ 130.22826020018104, 33.567079505036887 ], [ 130.228351390246246, 33.567110223848793 ], [ 130.228581686560545, 33.567176783780717 ], [ 130.228771813171761, 33.567237670511844 ], [ 130.228736009354208, 33.567327577730644 ], [ 130.228720308588862, 33.567342660808762 ], [ 130.228923689712815, 33.567966044864484 ], [ 130.228945394556064, 33.568032712869567 ], [ 130.22904818152216, 33.568244823602434 ], [ 130.229304903354034, 33.568774780114559 ], [ 130.229434547703988, 33.5686826047382 ], [ 130.229652568064807, 33.568578262135503 ], [ 130.229936206689729, 33.56849447716462 ], [ 130.229907379135057, 33.568206643109278 ], [ 130.22990674776662, 33.568022184195996 ], [ 130.22990664319417, 33.567996013421556 ], [ 130.229939764835422, 33.567725085645137 ], [ 130.229940827066372, 33.567719105153444 ], [ 130.229961865599364, 33.567605223574276 ], [ 130.229978696199765, 33.56752928511731 ], [ 130.229992635621755, 33.567466218624716 ], [ 130.2300090303263, 33.567410988784907 ], [ 130.230018798272766, 33.567362761442574 ], [ 130.230024147619844, 33.567347859716449 ], [ 130.230066164982048, 33.567230904025976 ], [ 130.230106198536305, 33.56711939638307 ], [ 130.230264132115053, 33.566797818592683 ], [ 130.230265589721199, 33.566794834379579 ], [ 130.230576328559181, 33.566349699613198 ], [ 130.231023078418104, 33.56565385654504 ], [ 130.231436106963429, 33.564993021333912 ], [ 130.231443362355435, 33.564981301225473 ], [ 130.231448312970883, 33.564973442296449 ], [ 130.231771179484042, 33.564298272660849 ], [ 130.231846184953525, 33.564123509785198 ], [ 130.232044395687666, 33.563661574518683 ], [ 130.232153643647763, 33.563373080476957 ], [ 130.232247876586086, 33.563069910783419 ], [ 130.232349895222825, 33.562666797208891 ], [ 130.232375850280135, 33.562443933119667 ], [ 130.232399140519732, 33.562246483710538 ], [ 130.23243043494216, 33.561981351777362 ], [ 130.232050472867911, 33.561866289716889 ], [ 130.232108740418283, 33.561700191988706 ], [ 130.232257680161268, 33.561412697556023 ], [ 130.231939891424474, 33.561317010490747 ], [ 130.231825364163399, 33.561604712756036 ], [ 130.232031571819448, 33.561663647100104 ], [ 130.231968153714064, 33.561841405930934 ], [ 130.231322773422846, 33.561645978068057 ], [ 130.23120313427134, 33.561920141018547 ], [ 130.231134683071247, 33.562076980761212 ], [ 130.230694154895218, 33.561950973934344 ], [ 130.230518281169793, 33.562360847155773 ], [ 130.230329257797791, 33.56230920191291 ], [ 130.230382134075398, 33.562172553428475 ], [ 130.230150309763815, 33.562099016334159 ], [ 130.230074240615096, 33.562279792461226 ], [ 130.22986183912974, 33.562217224755805 ], [ 130.230058522199442, 33.561766764577193 ], [ 130.229715101273428, 33.561649281565423 ], [ 130.229517100453108, 33.562115405113197 ], [ 130.229244950519615, 33.562035064775792 ], [ 130.22877450291611, 33.56189611406689 ], [ 130.227997621766974, 33.561672097736697 ], [ 130.228185903223789, 33.561228830476594 ], [ 130.227920691414312, 33.561134833196952 ], [ 130.228626595785926, 33.559760484813886 ], [ 130.229246927797249, 33.56001802856963 ], [ 130.229553110823929, 33.560131119799081 ], [ 130.229971329151226, 33.560248429050873 ], [ 130.230364614966248, 33.560369031853952 ], [ 130.230617271854271, 33.560436600114777 ], [ 130.231412203985229, 33.558549293676158 ], [ 130.231739350035127, 33.558641660435342 ], [ 130.231743717590462, 33.558613899341282 ], [ 130.231905140526834, 33.558197865528825 ], [ 130.232097614368314, 33.557790724401933 ], [ 130.232272923741903, 33.557851014523045 ], [ 130.232664588092206, 33.557963677174037 ], [ 130.233066007607277, 33.558057872864239 ], [ 130.233516240253408, 33.558131379392428 ], [ 130.234238756063746, 33.55834610427614 ], [ 130.234368137805887, 33.558252444783946 ], [ 130.2346057434861, 33.557973849400938 ], [ 130.234972036842066, 33.557450074942054 ], [ 130.235151195590447, 33.557129523013216 ], [ 130.235361904731576, 33.556828053557119 ], [ 130.235595060121085, 33.556538135396792 ], [ 130.23578719686131, 33.556281982573665 ], [ 130.236060835298389, 33.556018764388568 ], [ 130.236229377514178, 33.555872208880928 ], [ 130.236442325887253, 33.555650663930017 ], [ 130.236710323022407, 33.555358880473264 ], [ 130.23676154501095, 33.555303058781156 ], [ 130.236814294447214, 33.555245591496437 ], [ 130.236921068138201, 33.55512932528017 ], [ 130.236957848671665, 33.555089333258408 ], [ 130.23710344098248, 33.554930798379218 ], [ 130.237126855393029, 33.554909350296711 ], [ 130.237204258717327, 33.554862204838876 ], [ 130.237733601453158, 33.554539783941962 ], [ 130.237630653200853, 33.554458305995759 ], [ 130.237624531402844, 33.554453460741179 ], [ 130.237625072822169, 33.554452976201347 ], [ 130.238061918418396, 33.554061254904646 ], [ 130.238179512615545, 33.553919519625666 ], [ 130.238926010182297, 33.552533844185007 ], [ 130.238932360112642, 33.552519620021442 ], [ 130.238895437368086, 33.552508753583389 ], [ 130.238165307539532, 33.552291965192047 ], [ 130.236933341340347, 33.551892618716934 ], [ 130.236307956478015, 33.55164758902631 ], [ 130.236206646354361, 33.551668761165722 ], [ 130.234982551559625, 33.551352606727306 ], [ 130.234431209279137, 33.551176868265379 ], [ 130.2340992337366, 33.551072502774993 ], [ 130.233438428035612, 33.550841389050305 ], [ 130.233015963640781, 33.550695604128919 ], [ 130.232442439179522, 33.550517819432379 ], [ 130.231930627018187, 33.55038274885657 ], [ 130.230875804705676, 33.550054400086836 ], [ 130.230082885982085, 33.549848614622114 ], [ 130.229734115392489, 33.549742405892374 ], [ 130.226493136165288, 33.54860183622737 ], [ 130.225581310838152, 33.550389192816127 ], [ 130.225892667391264, 33.550483097316871 ], [ 130.225473560460358, 33.551455633218538 ], [ 130.223590865800645, 33.550796542583399 ], [ 130.223233586619301, 33.550673322900067 ], [ 130.223101460024623, 33.550904800438232 ], [ 130.222908370256022, 33.550850337457405 ], [ 130.222727023042182, 33.550771752184588 ], [ 130.221915060545115, 33.550430304837811 ], [ 130.221702200543717, 33.550705157086597 ], [ 130.221592850888271, 33.550637800309339 ], [ 130.221453103544633, 33.550573455016796 ], [ 130.220692784245358, 33.550355980812803 ], [ 130.220159211219766, 33.551702543400957 ], [ 130.218260355178671, 33.550965119034565 ], [ 130.217073498613843, 33.550460390957568 ], [ 130.217132020761994, 33.550332879567677 ], [ 130.217165230169826, 33.550260466155713 ], [ 130.216486980494324, 33.549973928084853 ], [ 130.21579979238922, 33.549683618464996 ], [ 130.215503909839157, 33.549558616780175 ], [ 130.215443677745611, 33.549533170417398 ], [ 130.215191133312118, 33.549421402833488 ], [ 130.214630243308761, 33.549173071532117 ], [ 130.214494692704278, 33.549110717356328 ], [ 130.214495116501723, 33.549110438840955 ], [ 130.2137585269368, 33.548774806814748 ], [ 130.213654305170479, 33.548727301961151 ], [ 130.212346019799213, 33.548131208595343 ], [ 130.211738733198928, 33.547852563300509 ], [ 130.211556678184451, 33.547779732511216 ], [ 130.211321888617164, 33.547649967988427 ], [ 130.211148036248801, 33.547553907216333 ], [ 130.209868455660768, 33.546987233944321 ], [ 130.209216528008312, 33.546632838663712 ], [ 130.208309695007358, 33.546123567736778 ], [ 130.207701908063285, 33.545782302831114 ], [ 130.20762644268595, 33.545940095388133 ], [ 130.207516478200773, 33.546347969169481 ], [ 130.207461075156317, 33.546335039728092 ], [ 130.207400812580659, 33.546329264913304 ], [ 130.207355414763214, 33.5463630652593 ], [ 130.207283745841124, 33.546408742492687 ], [ 130.207164101406136, 33.546512717155252 ], [ 130.207070057830521, 33.54658589775979 ], [ 130.20703439309915, 33.546594684873646 ], [ 130.206941962058494, 33.546583278915918 ], [ 130.206872124093792, 33.546566594238037 ], [ 130.206807425010567, 33.546558323630805 ], [ 130.206727835399107, 33.546559363087511 ], [ 130.206652852250357, 33.546581138298748 ], [ 130.20654946288775, 33.54663665043708 ], [ 130.206431534771241, 33.546699921303784 ], [ 130.206349481630326, 33.546721934292663 ], [ 130.206239510952173, 33.546742852060319 ], [ 130.206101459901902, 33.546761792451854 ], [ 130.205920457942909, 33.546776865206986 ], [ 130.205820291575719, 33.546783440951167 ], [ 130.20591055089406, 33.546885276421044 ], [ 130.205960926855425, 33.546942127930663 ], [ 130.205819538043983, 33.547096289228492 ], [ 130.205870907998474, 33.547136276018421 ], [ 130.205906093009901, 33.54717077069526 ], [ 130.205960709987863, 33.547251387296271 ], [ 130.206002823595526, 33.547310263046612 ], [ 130.206017542827425, 33.547347302203427 ], [ 130.206027659464382, 33.547418616469841 ], [ 130.206024838567913, 33.54748801558766 ], [ 130.205990819778123, 33.547565313974239 ], [ 130.20595587828862, 33.547614678054941 ], [ 130.20575896462654, 33.547870371586875 ], [ 130.205648561559968, 33.548012053537299 ], [ 130.205643102974051, 33.548020224515938 ], [ 130.205620402682513, 33.548037195048089 ], [ 130.205560098274731, 33.548035890791624 ], [ 130.205490317077846, 33.548012901424336 ], [ 130.205309964631056, 33.54818667554337 ], [ 130.205536726684443, 33.548356446246103 ], [ 130.205431862348462, 33.548453470318563 ], [ 130.205224249301239, 33.548848633403153 ], [ 130.205159359484696, 33.548861070712093 ], [ 130.205014999673381, 33.548888774546427 ], [ 130.20500286450968, 33.548891091319135 ], [ 130.205002848732761, 33.548892816962741 ], [ 130.204775689988281, 33.548968766598065 ], [ 130.204607584128723, 33.549044990049794 ], [ 130.204436536446252, 33.549148489251529 ], [ 130.204360587360128, 33.549211112781983 ], [ 130.204222519440549, 33.549351027966985 ], [ 130.203989792455218, 33.549603213234526 ], [ 130.203852306637771, 33.54949557710038 ], [ 130.203736208641857, 33.54939505217925 ], [ 130.203653579972695, 33.549323481416749 ], [ 130.203350639859536, 33.549039350802161 ], [ 130.203105967273302, 33.548813953360394 ], [ 130.20292206485172, 33.548649278953924 ], [ 130.202784918625099, 33.548514208077435 ], [ 130.202632491863909, 33.548449158833918 ], [ 130.202482108879963, 33.548427442855349 ], [ 130.202485955469257, 33.548374921659338 ], [ 130.202581542672647, 33.548289885791093 ], [ 130.202700267470163, 33.548176998836958 ], [ 130.20281989533143, 33.548066584589037 ], [ 130.202982251307532, 33.547920099749085 ], [ 130.203052833074963, 33.547855646221521 ], [ 130.202914994746351, 33.547777695593531 ], [ 130.202876090890726, 33.547754447904765 ], [ 130.202845105518946, 33.547729875574795 ], [ 130.202823794154767, 33.547705401466018 ], [ 130.202813258398095, 33.547680081225003 ], [ 130.20281511766882, 33.547660793067969 ], [ 130.202834129556663, 33.547633339124218 ], [ 130.202861245735107, 33.547611890106182 ], [ 130.202732085759351, 33.547486626492848 ], [ 130.20257479393004, 33.547622154218359 ], [ 130.202481471207363, 33.547689666641396 ], [ 130.202336164012422, 33.547765823528216 ], [ 130.202270593526947, 33.547797484657352 ], [ 130.202085562577679, 33.547884583758382 ], [ 130.202185810783277, 33.548006877244049 ], [ 130.202214515790644, 33.548032351252559 ], [ 130.202255219019804, 33.548052020608907 ], [ 130.202289479026149, 33.548068020189788 ], [ 130.20235083183411, 33.548101839092809 ], [ 130.202412758994882, 33.5481373175325 ], [ 130.202267174013713, 33.548252847652989 ], [ 130.202150993896623, 33.548344970151312 ], [ 130.202122910355683, 33.548370954933162 ], [ 130.201874111643491, 33.548329867207315 ], [ 130.201807609216473, 33.548270445047564 ], [ 130.201662447740546, 33.548183923740609 ], [ 130.201585137309337, 33.548092312171896 ], [ 130.201545070489743, 33.54805824258893 ], [ 130.20145147789458, 33.547990016340854 ], [ 130.200654745214109, 33.548227450520614 ], [ 130.20071517188714, 33.548398619832184 ], [ 130.200306785555512, 33.54863236752707 ], [ 130.200303252500021, 33.549016656973727 ], [ 130.200124693874841, 33.549030749681471 ], [ 130.199940164049991, 33.548889240081309 ], [ 130.199569981656566, 33.548746562553468 ], [ 130.199449677697373, 33.54855514197984 ], [ 130.199250147739463, 33.54847150553978 ], [ 130.198835175602142, 33.548241578578633 ], [ 130.19831313832907, 33.547963690418982 ], [ 130.198047380129225, 33.547855252023922 ], [ 130.197872932463412, 33.547797768122415 ], [ 130.197541197243851, 33.547737535995374 ], [ 130.196879662306543, 33.547498286800561 ], [ 130.196778804302198, 33.547461142406895 ], [ 130.196673088196349, 33.547266748172454 ], [ 130.196442176159309, 33.546774149818873 ], [ 130.196323440847436, 33.546514163165874 ], [ 130.196157878940255, 33.546214636616789 ], [ 130.196055865321654, 33.546120676982973 ], [ 130.195992709004202, 33.546100330980195 ], [ 130.195554224417663, 33.545740701801179 ], [ 130.195159926574348, 33.545569784359763 ], [ 130.194690263056827, 33.545398337005295 ], [ 130.194283046495713, 33.545269419362363 ], [ 130.19339965694536, 33.545000596448538 ], [ 130.193041538962518, 33.544992972132455 ], [ 130.192198382409941, 33.545129531554068 ], [ 130.19139555776394, 33.545261630208621 ], [ 130.191323553874014, 33.545748947329528 ], [ 130.191471600028706, 33.54574991715463 ], [ 130.191592728706638, 33.545750710516117 ], [ 130.192036238216104, 33.54582123553616 ], [ 130.192170720979618, 33.545833385928617 ], [ 130.192601296600145, 33.545847473281817 ], [ 130.19256987477317, 33.546331885872014 ], [ 130.192528974401569, 33.546387969280602 ], [ 130.192528345844039, 33.546455586301079 ], [ 130.192554635075425, 33.546523379392561 ], [ 130.192594697514835, 33.546557451997693 ], [ 130.192675241458005, 33.546580519154752 ], [ 130.192099835582042, 33.547846939250995 ], [ 130.190508761308422, 33.547569624332908 ], [ 130.190050603290217, 33.547481212943609 ], [ 130.189817565203441, 33.54747359089761 ], [ 130.189465930054411, 33.547491111317619 ], [ 130.189372522526355, 33.54735018447154 ], [ 130.189127271538695, 33.547083229718929 ], [ 130.187823703277843, 33.546057453683211 ], [ 130.187527241383862, 33.545825449821578 ], [ 130.187613401257948, 33.545275676042635 ], [ 130.187295398456996, 33.545349868537514 ], [ 130.186715326364549, 33.545561767683211 ], [ 130.186267526934245, 33.545742942781224 ], [ 130.185542871576814, 33.545969661839521 ], [ 130.18501906037875, 33.546208232662273 ], [ 130.184618151058231, 33.54641866033824 ], [ 130.184263743404927, 33.54668465536917 ] ], [ [ 130.210763604175554, 33.559480107040187 ], [ 130.211107958863238, 33.559601734201685 ], [ 130.211113640654588, 33.559590591941962 ], [ 130.211567989774039, 33.558699614582942 ], [ 130.211830951288704, 33.558782355182977 ], [ 130.211847905988293, 33.558751695786654 ], [ 130.21200617128008, 33.558546913419022 ], [ 130.212053576457777, 33.558485266103808 ], [ 130.212185984716939, 33.558313069570495 ], [ 130.212204374546218, 33.558289167175936 ], [ 130.212349759667234, 33.557992201139463 ], [ 130.212468597555556, 33.557774241524243 ], [ 130.212122579649872, 33.557651165175955 ], [ 130.212139110129613, 33.557526098744241 ], [ 130.212143526285303, 33.557419622864806 ], [ 130.21222777855067, 33.557230217998608 ], [ 130.212307930179691, 33.557112704988263 ], [ 130.212371199769223, 33.556954829755952 ], [ 130.212418799699805, 33.556827072390085 ], [ 130.212450248180431, 33.55676394703918 ], [ 130.212446270019058, 33.556636777736664 ], [ 130.212446278327974, 33.556635861520739 ], [ 130.212495860025882, 33.556475010531265 ], [ 130.212483917241229, 33.556357655986126 ], [ 130.212481646217157, 33.556335344010364 ], [ 130.212545025148358, 33.556174580776997 ], [ 130.212601118945599, 33.556010002627744 ], [ 130.212615317754995, 33.555808071890127 ], [ 130.212678435145648, 33.555676081606848 ], [ 130.212818741141604, 33.555548913166014 ], [ 130.212919917617114, 33.555385503159044 ], [ 130.213086928388662, 33.55517070197962 ], [ 130.213115046625688, 33.555123678851416 ], [ 130.21318807172014, 33.55500155012755 ], [ 130.213245635094125, 33.554915977695181 ], [ 130.213278723139382, 33.5548668817246 ], [ 130.213366244593715, 33.55491608444126 ], [ 130.213416385159491, 33.554967321786698 ], [ 130.213538656277848, 33.555069856895699 ], [ 130.21365969686255, 33.555232843515284 ], [ 130.213774954627468, 33.55540533623688 ], [ 130.213923732507936, 33.555651995372806 ], [ 130.213982659437505, 33.555742410495107 ], [ 130.214050193050753, 33.555846028837031 ], [ 130.21418822471054, 33.556021053572337 ], [ 130.214263015937973, 33.556081865651116 ], [ 130.214389013328201, 33.556187885575149 ], [ 130.214502143243095, 33.556272485926783 ], [ 130.21453944218942, 33.556300377439321 ], [ 130.214580040105403, 33.556314525479003 ], [ 130.215276125680106, 33.556557082991816 ], [ 130.215802010951592, 33.55674033099649 ], [ 130.216269423536374, 33.556903201057899 ], [ 130.216482330004453, 33.556977386030795 ], [ 130.215998213301646, 33.55793518272953 ], [ 130.21602318471156, 33.55794660577714 ], [ 130.216787537725651, 33.558213819580637 ], [ 130.216499064179857, 33.558785190614429 ], [ 130.216347838080168, 33.559084715961873 ], [ 130.216332237153551, 33.559115440680799 ], [ 130.216221789818348, 33.559080443173869 ], [ 130.216044011321031, 33.559490983807876 ], [ 130.2157874179901, 33.56001998177269 ], [ 130.215568534130171, 33.559940452184975 ], [ 130.215200679786989, 33.559806792886597 ], [ 130.21484893503964, 33.5596789848912 ], [ 130.214778255289474, 33.559837906687378 ], [ 130.214684173003661, 33.560035280444133 ], [ 130.21462748706071, 33.560135297556357 ], [ 130.214566951323633, 33.56024219331595 ], [ 130.214419561155609, 33.560435777011165 ], [ 130.214405765840326, 33.560453969142287 ], [ 130.214376688224604, 33.560481428918195 ], [ 130.214263877456034, 33.560587961335891 ], [ 130.21413587067849, 33.560712708222582 ], [ 130.213986688455066, 33.560945973404678 ], [ 130.213983501347172, 33.560944930686595 ], [ 130.212867994344577, 33.560572660009456 ], [ 130.212765853367529, 33.560538572385802 ], [ 130.212459849600265, 33.560436461911493 ], [ 130.212086831961585, 33.560309953091476 ], [ 130.211960103369449, 33.560266972088783 ], [ 130.210988364521228, 33.559937373877396 ], [ 130.210754866754883, 33.559858173522755 ], [ 130.210057194102859, 33.559638350412236 ], [ 130.210218246804089, 33.559312820502512 ], [ 130.210763604175554, 33.559480107040187 ] ] ] ] } }
]
}
