{
"type": "FeatureCollection",
"name": "西区A2",
"crs": { "type": "name", "properties": { "name": "urn:ogc:def:crs:EPSG::4612" } },
"features": [
{ "type": "Feature", "properties": { "KEY_CODE": "401350784101", "PREF": "40", "CITY": "135", "K_AREA": "026001470", "S_AREA": "0784101", "PREF_NAME": "福岡県", "CITY_NAME": "福岡市西区", "S_NAME": "壱岐団地", "KIGO_E": null, "HCODE": 8101, "AREA": 3754.982, "PERIMETER": 243.31, "KIHON1": "0260", "DUMMY1": "-", "KIHON2": "01", "KIHON3": "470", "C1": 14, "C2": 784, "DUMMY2": "-", "C3": 1, "DUMMY3": "-", "C4": 1, "KIGO_A": null, "KIGO_D": null, "N_KEN": null, "N_CITY": null, "N_C1": 0, "KIGO_I": null, "KEYCODE1": "1350784-1-01", "JINKO": 38, "SETAI": 24, "KEN_OLD": "40", "CITY_OLD": "135", "X_CODE": 130.313392, "Y_CODE": 33.563781, "KCODE1": "0260-01470", "CCODE1": "784-1- 1" }, "geometry": { "type": "MultiPolygon", "coordinates": [ [ [ [ 130.315478736797758, 33.554593283975038 ], [ 130.315486522678498, 33.554560887705023 ], [ 130.315800557189561, 33.554614888162604 ], [ 130.31579169579723, 33.554662315127132 ], [ 130.315987226269925, 33.554690588679186 ], [ 130.316033329963631, 33.554461091524544 ], [ 130.316038353938296, 33.554435403078053 ], [ 130.315847379815096, 33.554408302134185 ], [ 130.315923844612513, 33.554003332501516 ], [ 130.31596867017592, 33.554010974856531 ], [ 130.316060465867963, 33.554026626845712 ], [ 130.316082750220858, 33.553932072075121 ], [ 130.316117647339752, 33.553780033553771 ], [ 130.316054856364275, 33.553777716582289 ], [ 130.315425687067659, 33.553671471930215 ], [ 130.315392615347179, 33.553672205486528 ], [ 130.315358574531501, 33.553891732829577 ], [ 130.315355295480117, 33.553912850328778 ], [ 130.315322611083161, 33.553907139228656 ], [ 130.31522834534411, 33.554513534818085 ], [ 130.315222760796985, 33.554549501759425 ], [ 130.315478736797758, 33.554593283975038 ] ] ], [ [ [ 130.2991372631069, 33.563080512478898 ], [ 130.299223757337558, 33.563029228611263 ], [ 130.299336064859887, 33.562917718682939 ], [ 130.299674855072112, 33.562487397449893 ], [ 130.299728425870342, 33.562418843410462 ], [ 130.29987610276774, 33.562229867868588 ], [ 130.300186553468052, 33.561828161664941 ], [ 130.30049731448554, 33.561444873622754 ], [ 130.300792400294, 33.560996406057207 ], [ 130.300600308536616, 33.560953968660897 ], [ 130.300147199420252, 33.560808438207339 ], [ 130.300092019753237, 33.560774875848033 ], [ 130.299971119879501, 33.560548878885712 ], [ 130.299960800238068, 33.560524408353707 ], [ 130.299952378713556, 33.56050446082849 ], [ 130.29988882233684, 33.560466448244277 ], [ 130.299521707538986, 33.560242965528808 ], [ 130.299204595835022, 33.56004762521443 ], [ 130.2991406803242, 33.560012567814724 ], [ 130.299018537292824, 33.559909697403938 ], [ 130.298806191811479, 33.559651303381905 ], [ 130.298738147117717, 33.55962203677818 ], [ 130.298296523664561, 33.559493120456835 ], [ 130.297954725508191, 33.559359981266674 ], [ 130.29768903563496, 33.559231886293084 ], [ 130.297325779355532, 33.559042332133217 ], [ 130.297068436407073, 33.558917660702917 ], [ 130.296895128197463, 33.558847780910838 ], [ 130.296725525366782, 33.558803247604679 ], [ 130.296552125916691, 33.558780845347634 ], [ 130.296263975158752, 33.558829043470539 ], [ 130.296171495218147, 33.558809602978478 ], [ 130.296040118422411, 33.558678990887366 ], [ 130.295926998600379, 33.558548517417314 ], [ 130.295810819544556, 33.558530737365487 ], [ 130.295632388171185, 33.558490942488113 ], [ 130.295383800585171, 33.558329933096942 ], [ 130.29513172405035, 33.558204938023508 ], [ 130.294857068755277, 33.55820787896333 ], [ 130.294641432164383, 33.558237326632586 ], [ 130.29428220633676, 33.558179376373374 ], [ 130.293970923575245, 33.558185698724095 ], [ 130.293655196309004, 33.558071184242948 ], [ 130.29341892175654, 33.558077722750888 ], [ 130.293160923931055, 33.558065644547753 ], [ 130.292964827373623, 33.55794279606922 ], [ 130.292791748533205, 33.557773199507842 ], [ 130.292616010500524, 33.557661279618188 ], [ 130.29244606582742, 33.557638682513016 ], [ 130.292257247681931, 33.557413061991063 ], [ 130.292140248636031, 33.557243432048132 ], [ 130.292085801603434, 33.557177644032066 ], [ 130.292001200453655, 33.557059234779906 ], [ 130.291820635505189, 33.556858423008542 ], [ 130.291720808069556, 33.55666754848739 ], [ 130.291669996521193, 33.556450115405873 ], [ 130.291654998445779, 33.556257049151242 ], [ 130.291406644261201, 33.556337023179871 ], [ 130.291244746744354, 33.556380262710654 ], [ 130.29116250812595, 33.556425790520997 ], [ 130.291168221016932, 33.556519583432802 ], [ 130.291176213305562, 33.556591763301611 ], [ 130.291160636964634, 33.556654791216822 ], [ 130.291115781997746, 33.55673839838547 ], [ 130.290676477618604, 33.557255220331839 ], [ 130.290808789303185, 33.557527641885542 ], [ 130.290898052129791, 33.557682989825636 ], [ 130.290985494877418, 33.557793490631362 ], [ 130.291136274844206, 33.557926929172858 ], [ 130.291342586479715, 33.558112040444385 ], [ 130.291441979993749, 33.558201863425822 ], [ 130.291586327913535, 33.558329840484944 ], [ 130.291648126565207, 33.558386583693327 ], [ 130.291690050094786, 33.558425111166528 ], [ 130.291907425577023, 33.558708590523096 ], [ 130.291960492747393, 33.558804450639826 ], [ 130.292027934468848, 33.558989680699653 ], [ 130.292051541798457, 33.559133204112022 ], [ 130.292049623287596, 33.559234172087578 ], [ 130.292026325994073, 33.559253691162326 ], [ 130.292034469375523, 33.559328093603341 ], [ 130.292012423351025, 33.559451947623202 ], [ 130.291947375887105, 33.55961278170399 ], [ 130.291951032403858, 33.559669757801814 ], [ 130.292056490719887, 33.55977437091245 ], [ 130.292244853182723, 33.559875940204883 ], [ 130.292546124666217, 33.560107415358019 ], [ 130.292640166479856, 33.560265817763458 ], [ 130.292651405038299, 33.56033227396825 ], [ 130.292624780076864, 33.560481004749974 ], [ 130.29266991602222, 33.560569705011538 ], [ 130.292820432304666, 33.56077245739263 ], [ 130.292846559790206, 33.560952909744941 ], [ 130.2928084960989, 33.561065046282025 ], [ 130.292642539440465, 33.561243797980538 ], [ 130.292544381410551, 33.561332276103791 ], [ 130.292402956707605, 33.561556777851465 ], [ 130.292375853294885, 33.561614739428087 ], [ 130.292241188500469, 33.56165517564132 ], [ 130.292371600786339, 33.561661628996255 ], [ 130.292508908100189, 33.56172514468706 ], [ 130.292664276656183, 33.561879991118801 ], [ 130.292750791994308, 33.56202253209625 ], [ 130.293206326668638, 33.562520109197315 ], [ 130.293518804719923, 33.562833891401972 ], [ 130.293793829765349, 33.563014704568033 ], [ 130.294005566649417, 33.563191988623927 ], [ 130.294104077704162, 33.56326197528346 ], [ 130.294250046819542, 33.563321418604012 ], [ 130.294320472367502, 33.563502716200716 ], [ 130.294273246819131, 33.563608850891988 ], [ 130.294281564916304, 33.563806562648914 ], [ 130.294296115615936, 33.564107439160615 ], [ 130.294280336634017, 33.564247070427918 ], [ 130.294256517125092, 33.564516659909238 ], [ 130.294258379530959, 33.564618672576167 ], [ 130.29431745322151, 33.564680224858662 ], [ 130.294400832117816, 33.564748714965852 ], [ 130.294527649474901, 33.564799279103589 ], [ 130.294605994619729, 33.56482466330759 ], [ 130.295205966943684, 33.564626377042963 ], [ 130.295364518730509, 33.564572021069644 ], [ 130.295854134894796, 33.565067812929648 ], [ 130.295951254974483, 33.564983025312472 ], [ 130.296322217506486, 33.564702734355969 ], [ 130.296969247591761, 33.564299050004259 ], [ 130.297083951359866, 33.564230249711095 ], [ 130.297876197820074, 33.563755035292317 ], [ 130.298052554484855, 33.563668264346298 ], [ 130.298104742454683, 33.563646787207965 ], [ 130.298242975931828, 33.56358988858544 ], [ 130.29869287235104, 33.563374701030689 ], [ 130.298869971786047, 33.563304980172092 ], [ 130.298972941327833, 33.563224624211827 ], [ 130.2991372631069, 33.563080512478898 ] ] ], [ [ [ 130.296116151908961, 33.568288207213257 ], [ 130.296114026375221, 33.56828044578495 ], [ 130.296067436940064, 33.56818370849664 ], [ 130.295775347050949, 33.567852930382912 ], [ 130.295679954774357, 33.56771949354853 ], [ 130.295508222278357, 33.567479394595722 ], [ 130.295477481074869, 33.567441285372766 ], [ 130.295339967223867, 33.567308525677113 ], [ 130.295213250304101, 33.567576364565717 ], [ 130.294712235832861, 33.568340978167932 ], [ 130.294656463116127, 33.568705835572786 ], [ 130.293952393706718, 33.569985766028346 ], [ 130.293997758898087, 33.570765083434317 ], [ 130.293965162481811, 33.570830652948331 ], [ 130.293866349086613, 33.571029404973288 ], [ 130.2936581098038, 33.571200442968056 ], [ 130.293380885230761, 33.571513519257451 ], [ 130.293236988774339, 33.571987861751225 ], [ 130.293094553383753, 33.572282796983536 ], [ 130.293281341386091, 33.572627415481548 ], [ 130.292944648379972, 33.572967198890353 ], [ 130.29288328163446, 33.573227413568496 ], [ 130.292821392239318, 33.573551656052899 ], [ 130.292636841567258, 33.573644423222717 ], [ 130.292869993877048, 33.57411885405606 ], [ 130.293123168854862, 33.574666796494149 ], [ 130.293060895471172, 33.574960535878546 ], [ 130.293105075153051, 33.575353011767227 ], [ 130.293028078686632, 33.575501907792173 ], [ 130.292816978290887, 33.576073601465893 ], [ 130.292806912989505, 33.576910257046954 ], [ 130.292361341774779, 33.57844594218561 ], [ 130.292653298524982, 33.578837133096236 ], [ 130.292653327292044, 33.578837153073579 ], [ 130.292722766371668, 33.578906967923601 ], [ 130.292807541037746, 33.578947128576381 ], [ 130.292827970969626, 33.578953891230185 ], [ 130.292946132290069, 33.578993008078996 ], [ 130.292994348932723, 33.579024843374135 ], [ 130.293083116827688, 33.579103798330721 ], [ 130.293159252359118, 33.579146613443996 ], [ 130.29329641447714, 33.579235764763446 ], [ 130.293309222792118, 33.579250266395533 ], [ 130.293370701772005, 33.579373244139795 ], [ 130.293446225796231, 33.579427166775417 ], [ 130.293457410858935, 33.5794417405206 ], [ 130.293466842010446, 33.579472979309976 ], [ 130.293503275600017, 33.579496632074047 ], [ 130.293507858773523, 33.579517326158907 ], [ 130.293528700726455, 33.579611457070143 ], [ 130.293530168665768, 33.579620367141466 ], [ 130.293530276917636, 33.579620315480994 ], [ 130.293586613860043, 33.579603952101344 ], [ 130.293687696634606, 33.579587191635746 ], [ 130.293907923724731, 33.579545840453882 ], [ 130.294057706468664, 33.579540387696575 ], [ 130.29448458154701, 33.579505866232282 ], [ 130.294615318642059, 33.579490178073776 ], [ 130.294792977621569, 33.579468861766529 ], [ 130.294750595646718, 33.579425914219108 ], [ 130.294754826046585, 33.579425588993367 ], [ 130.294421715363768, 33.5790641061486 ], [ 130.29437554276538, 33.578848144928344 ], [ 130.294339007613758, 33.578445990684969 ], [ 130.294268107998647, 33.578052513241403 ], [ 130.294251611691095, 33.577856236948669 ], [ 130.294289101537032, 33.577386216158779 ], [ 130.294281537722782, 33.577265963055744 ], [ 130.294070700791309, 33.576989395952957 ], [ 130.293974159089203, 33.576810235982144 ], [ 130.293962630883129, 33.576696230615489 ], [ 130.294004030260055, 33.576583405439187 ], [ 130.294014959306139, 33.576476220860528 ], [ 130.29401406938922, 33.576446067568256 ], [ 130.29404367949337, 33.576313274817508 ], [ 130.294126295713056, 33.576249330130054 ], [ 130.294271584411888, 33.576229839838362 ], [ 130.2944955435255, 33.576310476582883 ], [ 130.294687347040536, 33.576433618993718 ], [ 130.29484545839739, 33.576668886258958 ], [ 130.294887044683179, 33.576734951140132 ], [ 130.294937494377365, 33.576797159425077 ], [ 130.295036790461324, 33.576824214918709 ], [ 130.295100898964563, 33.576842263576815 ], [ 130.295338656678268, 33.576877013252393 ], [ 130.295598804699807, 33.576942498358434 ], [ 130.29566541450032, 33.576963378196673 ], [ 130.295748184033016, 33.576989354056167 ], [ 130.29580755304849, 33.576974370800905 ], [ 130.295817885132436, 33.576955869985191 ], [ 130.295869850400521, 33.576862899299336 ], [ 130.295897717005431, 33.576747640479923 ], [ 130.295812028578325, 33.576666844966105 ], [ 130.295772649820861, 33.576629709014661 ], [ 130.295720443157876, 33.576555479451109 ], [ 130.295815768930055, 33.576491112612253 ], [ 130.295793523507342, 33.576468795474078 ], [ 130.295380894914331, 33.576054912040071 ], [ 130.295376284799573, 33.576037099511851 ], [ 130.29536730818424, 33.576002564954273 ], [ 130.295385073660128, 33.57596529804826 ], [ 130.295414440525036, 33.575903651823666 ], [ 130.295386912697694, 33.575733833864213 ], [ 130.295353917008669, 33.575672710751405 ], [ 130.295291665197738, 33.575633330528881 ], [ 130.29526604201655, 33.575607051970252 ], [ 130.295230227808673, 33.575509458783444 ], [ 130.29526561120997, 33.575396038865861 ], [ 130.295319173551349, 33.575298077193032 ], [ 130.295367275672788, 33.575214490257238 ], [ 130.295368015574155, 33.575123448277878 ], [ 130.295345656434449, 33.575089051776452 ], [ 130.295325567326131, 33.575044733686575 ], [ 130.295335720485838, 33.574986183733039 ], [ 130.295367395868539, 33.574930467304306 ], [ 130.295433396498709, 33.574896576361276 ], [ 130.295494873336224, 33.574886113510779 ], [ 130.295566018492906, 33.574882012177341 ], [ 130.295649530278297, 33.574878439959107 ], [ 130.29571473247708, 33.57487564405475 ], [ 130.295780478335416, 33.574867918055162 ], [ 130.295830124571154, 33.574858270662496 ], [ 130.295871226258726, 33.574838674485001 ], [ 130.295906520407044, 33.574736103003382 ], [ 130.295931531351272, 33.574687496542786 ], [ 130.295942646395815, 33.574665971138025 ], [ 130.296008007102358, 33.57457617848393 ], [ 130.296094096265847, 33.574560891458994 ], [ 130.296096371661093, 33.57458633307882 ], [ 130.296114253715359, 33.574514056791052 ], [ 130.296223899580639, 33.574406130514177 ], [ 130.296471396418127, 33.574085165765936 ], [ 130.296560916128755, 33.573714444194593 ], [ 130.296609733286118, 33.573516426877454 ], [ 130.296615007947537, 33.573447144357743 ], [ 130.297168135335738, 33.573112177600152 ], [ 130.296861491235774, 33.572939288170154 ], [ 130.296453275660269, 33.572709143226042 ], [ 130.295844976949184, 33.572366172142779 ], [ 130.295878338408869, 33.571921200730436 ], [ 130.295877363286223, 33.571828915010215 ], [ 130.295944764282837, 33.571451200333435 ], [ 130.295965598607467, 33.571284549622121 ], [ 130.296049157280009, 33.570937848590226 ], [ 130.296156092439958, 33.570598505147601 ], [ 130.296171073581235, 33.570567137043646 ], [ 130.296239890014078, 33.570362087856672 ], [ 130.2963413062661, 33.570028522995869 ], [ 130.296484852885129, 33.569584456175363 ], [ 130.296438721092471, 33.569384523448853 ], [ 130.296437375317765, 33.569384445324289 ], [ 130.296278058024711, 33.568859820957421 ], [ 130.296233048289224, 33.568711603734158 ], [ 130.296230536851084, 33.568710075970735 ], [ 130.296116151908961, 33.568288207213257 ] ] ], [ [ [ 130.312221709080433, 33.582883588193255 ], [ 130.312315629733632, 33.582969203158939 ], [ 130.312529240296783, 33.583229047420943 ], [ 130.312630436200863, 33.583352634941463 ], [ 130.312794805406241, 33.583618687615164 ], [ 130.312858172075238, 33.583742206617345 ], [ 130.312959103952949, 33.584021328557441 ], [ 130.313020121285234, 33.584282090883583 ], [ 130.312441294979152, 33.584300971573541 ], [ 130.312055514558494, 33.58428104968646 ], [ 130.31195959425682, 33.584677466608625 ], [ 130.312055514558466, 33.58428104968646 ], [ 130.311696554810453, 33.584216931427363 ], [ 130.31126719103537, 33.58410518994571 ], [ 130.311013300817763, 33.584016010830261 ], [ 130.310692859342907, 33.583887015026697 ], [ 130.310440233576287, 33.583755296541469 ], [ 130.310269274722685, 33.583652135699673 ], [ 130.310229887620579, 33.583625359309792 ], [ 130.309760318042152, 33.583611293681038 ], [ 130.309540617748837, 33.583662756867589 ], [ 130.309182253913093, 33.583798819684681 ], [ 130.308962348587727, 33.58390762270772 ], [ 130.30890683763954, 33.583976731192784 ], [ 130.308868314653438, 33.584079291696405 ], [ 130.308865261654688, 33.584087550453638 ], [ 130.308725180851667, 33.584466203775051 ], [ 130.308550556754881, 33.584516543845503 ], [ 130.308142087734694, 33.584634255705474 ], [ 130.307805075672945, 33.584725526459486 ], [ 130.307669369784378, 33.584739807319885 ], [ 130.307456744455891, 33.584790037572503 ], [ 130.307203700295389, 33.584911223126063 ], [ 130.306948533843013, 33.585089817565034 ], [ 130.307119598920195, 33.585187567940217 ], [ 130.307235426742125, 33.585253138384964 ], [ 130.307332086571535, 33.585311121224301 ], [ 130.307361656380976, 33.585328858377217 ], [ 130.307396256043205, 33.58534961364321 ], [ 130.307436991132221, 33.585375088774427 ], [ 130.307927913297675, 33.585688008616778 ], [ 130.308039794288959, 33.585573224636256 ], [ 130.309174954778086, 33.58642893401943 ], [ 130.309982549140273, 33.587023130572433 ], [ 130.310414765862589, 33.587278640236043 ], [ 130.310421307780501, 33.587282799092435 ], [ 130.31040026248445, 33.587360542497677 ], [ 130.310596197447467, 33.587462221543078 ], [ 130.310689743813725, 33.587493411884118 ], [ 130.310739621382936, 33.58751004127086 ], [ 130.31088324126128, 33.587532532388693 ], [ 130.311140889952298, 33.587488878771879 ], [ 130.311205394420654, 33.587463737537099 ], [ 130.31115099698934, 33.587647044932609 ], [ 130.310838580101432, 33.588392632844858 ], [ 130.310896402265058, 33.588408768592501 ], [ 130.311209981104895, 33.588397511738194 ], [ 130.311745525187717, 33.588543478042993 ], [ 130.311659398487592, 33.588906976336403 ], [ 130.311610601323508, 33.589190906070904 ], [ 130.311556428675715, 33.589388618096514 ], [ 130.311447539607542, 33.589852088538301 ], [ 130.311425740457423, 33.589958082445342 ], [ 130.311336880166579, 33.590390113328496 ], [ 130.310803451277479, 33.592785889624871 ], [ 130.3123765427232, 33.592516930293158 ], [ 130.312537388201719, 33.592571073177787 ], [ 130.31267296915189, 33.592318759715731 ], [ 130.312997523932466, 33.592427029532793 ], [ 130.31331820699549, 33.592551162945774 ], [ 130.313187523916753, 33.592807060461347 ], [ 130.313913748196626, 33.593097071477558 ], [ 130.313870360761172, 33.59328822575926 ], [ 130.313785024317355, 33.593483299318152 ], [ 130.313696160200124, 33.593656237715173 ], [ 130.313607717669072, 33.593791208851663 ], [ 130.313518992737926, 33.59395153869476 ], [ 130.313449966363464, 33.594042522362976 ], [ 130.313274245230474, 33.594208357959239 ], [ 130.313041735166451, 33.594386416163765 ], [ 130.312904723339017, 33.594473639882125 ], [ 130.312589355136595, 33.594628841263408 ], [ 130.312369460794258, 33.594696445678771 ], [ 130.312062851379665, 33.594744408372534 ], [ 130.311934578718478, 33.594727494702546 ], [ 130.311821669858404, 33.59468861872562 ], [ 130.311697827410512, 33.594611786827699 ], [ 130.311533249532658, 33.594465198524979 ], [ 130.311524155904948, 33.594269319613943 ], [ 130.311445821975809, 33.594180266586442 ], [ 130.311453992130083, 33.594126635967562 ], [ 130.311509003445252, 33.594067840505225 ], [ 130.31152711947405, 33.594007218052049 ], [ 130.311460742890432, 33.593864556508635 ], [ 130.311415987319549, 33.593813660279835 ], [ 130.311390412244549, 33.593737652625286 ], [ 130.311242027875892, 33.593709428038117 ], [ 130.311134224160412, 33.593573792055878 ], [ 130.311026335532659, 33.593528674416518 ], [ 130.310864402163674, 33.593574265413395 ], [ 130.310756467719273, 33.593619736078089 ], [ 130.310648519400814, 33.593687888437202 ], [ 130.310238041721675, 33.593402641967486 ], [ 130.310196008990346, 33.593443338164356 ], [ 130.310345807873915, 33.593558284659657 ], [ 130.310953020956219, 33.593989734480544 ], [ 130.310845045031328, 33.594178271071634 ], [ 130.310688372431542, 33.594334840365924 ], [ 130.310546082012877, 33.594551505592008 ], [ 130.310514916746854, 33.594633327881326 ], [ 130.310508993199932, 33.594822784713998 ], [ 130.310566178402468, 33.595110578063348 ], [ 130.310557204861112, 33.595233661452092 ], [ 130.310324117931344, 33.595462222883093 ], [ 130.310312228055608, 33.595512592676421 ], [ 130.310341666504399, 33.595579185289829 ], [ 130.310472423370072, 33.59571290731207 ], [ 130.310596794478641, 33.595739238023434 ], [ 130.310815813736752, 33.595750528976026 ], [ 130.31100570416595, 33.595666907572237 ], [ 130.311062442598342, 33.595661095026337 ], [ 130.311295952988871, 33.59572938045104 ], [ 130.311667427444348, 33.595956716680107 ], [ 130.31179145341153, 33.5960692699079 ], [ 130.311874737713254, 33.596782116237364 ], [ 130.311915689701578, 33.597053053668823 ], [ 130.311972082409056, 33.597229120533683 ], [ 130.312102930619204, 33.597415673751726 ], [ 130.31229857726899, 33.597615475643458 ], [ 130.312461401719105, 33.597750359248565 ], [ 130.31271162722561, 33.59789840613751 ], [ 130.31290956580952, 33.5979788893804 ], [ 130.313113697136657, 33.598021369206641 ], [ 130.313469755397762, 33.598055108097356 ], [ 130.314265785780123, 33.598092262857058 ], [ 130.314310043104257, 33.598094831332659 ], [ 130.315097464246548, 33.598140176068043 ], [ 130.317547116681453, 33.598270457136707 ], [ 130.319271830151251, 33.598352411733799 ], [ 130.319970198017813, 33.59838688207909 ], [ 130.32143988712312, 33.598459445571663 ], [ 130.321693271037304, 33.598474778730129 ], [ 130.322401045017784, 33.598517526829703 ], [ 130.32354981767341, 33.598577529967777 ], [ 130.324853883180054, 33.598639487561329 ], [ 130.324859713496807, 33.598560838202957 ], [ 130.324128477553927, 33.598537000403248 ], [ 130.323338926731054, 33.59849981143222 ], [ 130.323468703326881, 33.596937327469597 ], [ 130.323529869117237, 33.596098901448507 ], [ 130.323591031002536, 33.595260896793725 ], [ 130.323698116936697, 33.593693076247717 ], [ 130.32452317092563, 33.593727356103798 ], [ 130.324533596216725, 33.593415423873026 ], [ 130.324627705070839, 33.593404097591403 ], [ 130.324909424136706, 33.593416053454305 ], [ 130.324932247384965, 33.593403566409002 ], [ 130.324945796895179, 33.593457952762442 ], [ 130.324994856264027, 33.593454202573518 ], [ 130.32522652014606, 33.593424818730014 ], [ 130.325252438252903, 33.593544781496597 ], [ 130.325526144375686, 33.593510126695847 ], [ 130.325554367824623, 33.593582553737065 ], [ 130.325640867314831, 33.593564920458036 ], [ 130.325823230679305, 33.594160231988752 ], [ 130.326335654903204, 33.595833059006267 ], [ 130.326378928529863, 33.595821250383246 ], [ 130.325881061690438, 33.594148850751978 ], [ 130.325859979575, 33.594078011648996 ], [ 130.32644394097693, 33.593936626488905 ], [ 130.326469745812005, 33.594022284020376 ], [ 130.326493051890594, 33.594099543703656 ], [ 130.326572260333165, 33.594093914905962 ], [ 130.326549761195594, 33.594005035474154 ], [ 130.326523380843554, 33.593900919433047 ], [ 130.326635827428447, 33.593864334305529 ], [ 130.326644222879821, 33.593894178055102 ], [ 130.326602130641419, 33.593900218556634 ], [ 130.32661897339662, 33.593953564304861 ], [ 130.326753862547633, 33.593926329602738 ], [ 130.326733765605894, 33.593874798869841 ], [ 130.326689118777495, 33.593879204849387 ], [ 130.326652058057221, 33.593855405485051 ], [ 130.326923987551794, 33.593800101066734 ], [ 130.326924316613884, 33.593757695298201 ], [ 130.327350550396375, 33.593673496587819 ], [ 130.327395733013958, 33.593822585530631 ], [ 130.327406692360313, 33.593820250270689 ], [ 130.327708512222188, 33.594855274650875 ], [ 130.326914360264084, 33.595040754464101 ], [ 130.326944693436673, 33.595156304642522 ], [ 130.327028863376825, 33.595140557043592 ], [ 130.327020691017339, 33.595081904592931 ], [ 130.327717061489068, 33.594898079516064 ], [ 130.327724092007628, 33.594919462168342 ], [ 130.3281718382012, 33.596281002184078 ], [ 130.326635996788383, 33.596618922208059 ], [ 130.326539606476985, 33.596310777709853 ], [ 130.326529791179894, 33.596279377628264 ], [ 130.326492012036141, 33.596288189764387 ], [ 130.326501499477672, 33.596318533086112 ], [ 130.326607657696513, 33.596658498434735 ], [ 130.327005940367002, 33.596571332389722 ], [ 130.327075031144176, 33.596796206641613 ], [ 130.327249732182679, 33.597367034193311 ], [ 130.327123423146872, 33.59739973976852 ], [ 130.327111805892855, 33.597367202903889 ], [ 130.326901282675095, 33.597421079693611 ], [ 130.326888461543831, 33.597424463660921 ], [ 130.326672404165549, 33.597481127263777 ], [ 130.326697705122228, 33.59755071947496 ], [ 130.326909623092064, 33.597496145061939 ], [ 130.326930921898168, 33.597490624891051 ], [ 130.326947798641015, 33.597534039483165 ], [ 130.326921734529719, 33.597541012618343 ], [ 130.326894909241503, 33.597548192957206 ], [ 130.326924401491425, 33.597636688614124 ], [ 130.326946035708687, 33.597631170256165 ], [ 130.327120881152837, 33.597586327310381 ], [ 130.327114526091265, 33.597570092244695 ], [ 130.327296999741748, 33.597524163223348 ], [ 130.327425185136804, 33.597944130546878 ], [ 130.32729784453943, 33.597968732008816 ], [ 130.327286284763773, 33.597934362863704 ], [ 130.327045050949664, 33.597986173494739 ], [ 130.326663513441616, 33.598068075961244 ], [ 130.326695059467937, 33.598168345588135 ], [ 130.327073812216867, 33.598087553951196 ], [ 130.327317824331345, 33.598035549167278 ], [ 130.327309413976366, 33.598007539087405 ], [ 130.327435700549955, 33.597977578280407 ], [ 130.327520843779411, 33.598254876799501 ], [ 130.327144439495612, 33.598336809579855 ], [ 130.325659050459819, 33.598660409439745 ], [ 130.325677947986605, 33.598720038027828 ], [ 130.327162522901915, 33.598398332758542 ], [ 130.329038284938804, 33.597991867451803 ], [ 130.329041654357042, 33.598002450914649 ], [ 130.329130443509428, 33.597983347812288 ], [ 130.3291864696576, 33.59805331766912 ], [ 130.329325710093741, 33.598024340524006 ], [ 130.334252993551786, 33.596878639318064 ], [ 130.334259361156342, 33.596877124201662 ], [ 130.334432617328446, 33.596835716195173 ], [ 130.334432617328446, 33.596835716195152 ], [ 130.337325387297938, 33.596144896001 ], [ 130.337705870313812, 33.596060839068585 ], [ 130.337726865143992, 33.596056230018618 ], [ 130.340588873947098, 33.59542969191245 ], [ 130.340419987533863, 33.597143657644942 ], [ 130.340484200959452, 33.597134135397788 ], [ 130.340623847370409, 33.595767438475043 ], [ 130.340714107622517, 33.594943870500508 ], [ 130.340752990159075, 33.59458909197042 ], [ 130.340788177274021, 33.594268038246426 ], [ 130.340789552435979, 33.594255485204336 ], [ 130.340838460288694, 33.59382371754765 ], [ 130.34049290546389, 33.593896226282773 ], [ 130.340838460288694, 33.593823717547629 ], [ 130.340842881646921, 33.593784501980032 ], [ 130.340900932357755, 33.59327184358898 ], [ 130.340927861258479, 33.593034036664193 ], [ 130.341014364282955, 33.592270073959234 ], [ 130.340997254988395, 33.592272940904266 ], [ 130.34102795614163, 33.592115206366934 ], [ 130.340468275829522, 33.592212413301382 ], [ 130.339240932283616, 33.592410719505061 ], [ 130.340468275829522, 33.592212413301375 ], [ 130.34102795614163, 33.592115206366913 ], [ 130.341142532816377, 33.591054974635803 ], [ 130.341267103896911, 33.58996415485452 ], [ 130.341302778310336, 33.589616776193068 ], [ 130.341345405197842, 33.589235166995003 ], [ 130.341390525783169, 33.588841099201787 ], [ 130.341424381413248, 33.58848388617897 ], [ 130.341463265229237, 33.588101723214905 ], [ 130.341515887242849, 33.587689486485033 ], [ 130.342097574402487, 33.587710736713291 ], [ 130.34218521835345, 33.587263672668655 ], [ 130.342224048625752, 33.58706547735185 ], [ 130.342272943028576, 33.586855600869576 ], [ 130.34239674226697, 33.586324197957332 ], [ 130.342224824130881, 33.586075684571291 ], [ 130.341953969235902, 33.5856722349846 ], [ 130.341596629317763, 33.585109196921167 ], [ 130.34109143897561, 33.58434912215295 ], [ 130.340940801561231, 33.58413657349567 ], [ 130.340824396303248, 33.58392698777056 ], [ 130.340563467401893, 33.583531372885695 ], [ 130.340337077547645, 33.58320374069762 ], [ 130.340162052476899, 33.582978139000765 ], [ 130.339872847358663, 33.582582967869513 ], [ 130.339521692357607, 33.582166904351801 ], [ 130.339344575207861, 33.582000950748188 ], [ 130.339148350703283, 33.58179703407253 ], [ 130.338781369830429, 33.581481298363677 ], [ 130.338569637112585, 33.581319142745713 ], [ 130.338533893312558, 33.581293805358683 ], [ 130.338533893312615, 33.581293805358655 ], [ 130.338397577453605, 33.581191291895117 ], [ 130.337190050666663, 33.581591186049778 ], [ 130.336958735166832, 33.581667794030196 ], [ 130.336642455240337, 33.581772552301622 ], [ 130.336958735166832, 33.581667794030189 ], [ 130.337190050666663, 33.581591186049771 ], [ 130.338397577453605, 33.581191291895109 ], [ 130.338378874063238, 33.581177101761789 ], [ 130.338278043585063, 33.581100699652808 ], [ 130.33807743438237, 33.580980865360402 ], [ 130.337625346778339, 33.580729834456605 ], [ 130.337319891392724, 33.58058031769918 ], [ 130.337038780637357, 33.580439202410233 ], [ 130.33692195100241, 33.580380500397823 ], [ 130.336214984949635, 33.580025646675026 ], [ 130.33552914014291, 33.579682948527584 ], [ 130.335510928680122, 33.579687255181121 ], [ 130.335110577921171, 33.579984114357543 ], [ 130.334413180961462, 33.580510792320958 ], [ 130.33398337738376, 33.580833409985296 ], [ 130.334413180961462, 33.580510792320943 ], [ 130.335110577921171, 33.579984114357536 ], [ 130.335510928680122, 33.579687255181106 ], [ 130.335438715365797, 33.57970430463206 ], [ 130.33511401648488, 33.579535516156312 ], [ 130.334742238080395, 33.579371124264384 ], [ 130.334354892515279, 33.579173788149625 ], [ 130.334134808773911, 33.57907593142032 ], [ 130.333847717704259, 33.578919913796611 ], [ 130.333605237163937, 33.57882904895262 ], [ 130.333563747009862, 33.578872817546753 ], [ 130.333344497813101, 33.578787043238655 ], [ 130.332546940541647, 33.578483636996239 ], [ 130.332247256275878, 33.578379185196972 ], [ 130.332247256275878, 33.578379185196987 ], [ 130.332001791893646, 33.578293619210804 ], [ 130.33167224185226, 33.578182383892909 ], [ 130.3315320684151, 33.578128729143486 ], [ 130.331422983793715, 33.578086935172152 ], [ 130.330974767149712, 33.577932761771592 ], [ 130.330586066878624, 33.577782282312768 ], [ 130.330626312561577, 33.577752350513911 ], [ 130.330535347629876, 33.577707518949545 ], [ 130.330434616169214, 33.577657876624727 ], [ 130.330241939775476, 33.577580867626175 ], [ 130.330184175673224, 33.577557770416377 ], [ 130.329970729214466, 33.577440672874765 ], [ 130.329642110993973, 33.577285902873697 ], [ 130.32948453433653, 33.577186891422912 ], [ 130.329446142401054, 33.577161925164539 ], [ 130.329381035220052, 33.577119591221255 ], [ 130.329170775171406, 33.5769608792586 ], [ 130.329072411263951, 33.576871837880006 ], [ 130.328735547302273, 33.576548660450328 ], [ 130.328615077476826, 33.576412903165732 ], [ 130.328525423626388, 33.576318305322488 ], [ 130.328498675527584, 33.576289156228711 ], [ 130.3283864749516, 33.576166880318702 ], [ 130.328193894843224, 33.575926264073622 ], [ 130.328072856416128, 33.57578782528276 ], [ 130.327973309849256, 33.575639957245926 ], [ 130.327973309849284, 33.575639957245919 ], [ 130.327804812537494, 33.575354458806871 ], [ 130.32769632600619, 33.575116691044585 ], [ 130.327433856291009, 33.574464133813557 ], [ 130.327389545097702, 33.574356079817349 ], [ 130.327279796958038, 33.573988409992921 ], [ 130.327205838712587, 33.573688487696067 ], [ 130.327174464209122, 33.573572473500349 ], [ 130.327141472948966, 33.573448174601374 ], [ 130.327091480929425, 33.573220972162467 ], [ 130.327003828891463, 33.572847466197523 ], [ 130.326940276613584, 33.572507975114917 ], [ 130.326899195978001, 33.572341683577598 ], [ 130.32686662735594, 33.572108730007017 ], [ 130.326815305698346, 33.571879545652159 ], [ 130.326756664942053, 33.571476646391517 ], [ 130.32673837130892, 33.5713128019528 ], [ 130.326682515251548, 33.570979550723763 ], [ 130.326674915644986, 33.570934110716308 ], [ 130.32666866946775, 33.570828060871953 ], [ 130.326620473399686, 33.570461987880698 ], [ 130.326616628682899, 33.570350207959557 ], [ 130.326612087559255, 33.570257762018471 ], [ 130.326601351467673, 33.570014746700494 ], [ 130.326592207585747, 33.569821365165652 ], [ 130.326588672298868, 33.569729487041236 ], [ 130.326591120408921, 33.56962006721124 ], [ 130.326589766305119, 33.569588641491862 ], [ 130.32659543394027, 33.569454828689373 ], [ 130.326635991304329, 33.569162601122208 ], [ 130.326679399821501, 33.568936712708989 ], [ 130.326716457253212, 33.568650911787323 ], [ 130.326733839534228, 33.568346793785061 ], [ 130.326745662565088, 33.568178815476742 ], [ 130.32675604738111, 33.567648781588836 ], [ 130.326741654338434, 33.567280884032606 ], [ 130.326732302555911, 33.566702489549101 ], [ 130.326676850718371, 33.566463915968612 ], [ 130.326539579198084, 33.56599081373529 ], [ 130.326437998068684, 33.565646218432541 ], [ 130.326381424659274, 33.565470965238276 ], [ 130.326349393817878, 33.565250619849927 ], [ 130.326299201033493, 33.564958148696249 ], [ 130.326277728393848, 33.564673053261821 ], [ 130.326250003519135, 33.564440156890875 ], [ 130.326246747468275, 33.56416611501102 ], [ 130.326236353816256, 33.56401463790862 ], [ 130.326226981205707, 33.563878208250664 ], [ 130.32622211790229, 33.563762128728058 ], [ 130.32621105567668, 33.563550594749479 ], [ 130.326174903502903, 33.562978220332546 ], [ 130.326147371926339, 33.562720458275287 ], [ 130.326141910551769, 33.562432559991947 ], [ 130.32612743930045, 33.562156167933701 ], [ 130.326129639991109, 33.561986656498121 ], [ 130.326119200655853, 33.561835780048341 ], [ 130.326111216050748, 33.561727189152826 ], [ 130.326074720485025, 33.561230885428401 ], [ 130.326072244057912, 33.560992067031073 ], [ 130.326067296219037, 33.560805821544584 ], [ 130.326045111110545, 33.560520721678373 ], [ 130.326021008679248, 33.560352406130036 ], [ 130.325971148228604, 33.559985583590269 ], [ 130.32592148832299, 33.559819630948475 ], [ 130.325872810749104, 33.559619764325085 ], [ 130.325767682734693, 33.55920241419561 ], [ 130.325648691527533, 33.55892869420834 ], [ 130.325467188481184, 33.55838955501455 ], [ 130.325361668664215, 33.558093294431345 ], [ 130.325271959471962, 33.557743934769491 ], [ 130.325248744694278, 33.557537515036501 ], [ 130.325212299467125, 33.557355396038957 ], [ 130.325194221190515, 33.557002514872771 ], [ 130.325137829379742, 33.556361697089478 ], [ 130.325139866411433, 33.556213458878858 ], [ 130.3250938187781, 33.556011280998831 ], [ 130.325094985082018, 33.555672135510768 ], [ 130.325089771754136, 33.555412345172101 ], [ 130.325085121956874, 33.554939429145684 ], [ 130.325083397581125, 33.554452864476332 ], [ 130.32508411450101, 33.553858003218231 ], [ 130.325066397692666, 33.553655603531752 ], [ 130.325055603421674, 33.553532292201886 ], [ 130.325015234945056, 33.553314083618197 ], [ 130.324933719711851, 33.553026195332365 ], [ 130.324830215465937, 33.552618149778652 ], [ 130.324770927892189, 33.552409348088815 ], [ 130.324711934274887, 33.552146799683719 ], [ 130.324667089572728, 33.552017290678144 ], [ 130.324576950414524, 33.551767710739981 ], [ 130.323176949819413, 33.552126899034285 ], [ 130.323176949819413, 33.552126899034278 ], [ 130.324576950414496, 33.551767710739973 ], [ 130.32448841556112, 33.551522684148836 ], [ 130.324281192180109, 33.551005025970163 ], [ 130.324149174492106, 33.550661491386734 ], [ 130.323984143582493, 33.550225072527248 ], [ 130.323781020498416, 33.549743434398117 ], [ 130.323694230804904, 33.54955029898607 ], [ 130.323426413053141, 33.548896559988165 ], [ 130.323312998891936, 33.548546645997511 ], [ 130.323282205185734, 33.548347544463496 ], [ 130.323274885172253, 33.548186081207326 ], [ 130.323242604560846, 33.547848514595401 ], [ 130.323257593225321, 33.547566359981737 ], [ 130.323292335767775, 33.54743193263036 ], [ 130.323310771503401, 33.54740350042325 ], [ 130.323310771503344, 33.547403500423236 ], [ 130.323339933366299, 33.547278057866315 ], [ 130.323508903365479, 33.546933237719081 ], [ 130.323546639540751, 33.546824784766386 ], [ 130.323391812758246, 33.546769416486974 ], [ 130.322303535481524, 33.546439793553816 ], [ 130.322278583252682, 33.546440993616308 ], [ 130.322624479568901, 33.546763929941704 ], [ 130.322278583252597, 33.546440993616308 ], [ 130.322246844752499, 33.546411338928415 ], [ 130.322011010627989, 33.546855331318312 ], [ 130.321828857931763, 33.547212158288033 ], [ 130.322082181220679, 33.548147420115093 ], [ 130.321828857931763, 33.54721215828804 ], [ 130.321815486131015, 33.547238360420494 ], [ 130.321705531651531, 33.547388864484546 ], [ 130.321534602930399, 33.547514939027174 ], [ 130.32127479094035, 33.547721506047999 ], [ 130.321130665319657, 33.54786298103803 ], [ 130.32112261987595, 33.547885549668173 ], [ 130.320958533447993, 33.548056290070058 ], [ 130.320778967814164, 33.548259244317833 ], [ 130.320688609518726, 33.548431302265293 ], [ 130.320476949856072, 33.549143889075594 ], [ 130.320483654969451, 33.549485120368303 ], [ 130.320492451324498, 33.549559698523588 ], [ 130.320771826775882, 33.550014255233904 ], [ 130.320740491771346, 33.550228550303686 ], [ 130.320631367488176, 33.550363311049416 ], [ 130.320565063855923, 33.550364322614946 ], [ 130.320326594084463, 33.550288628871094 ], [ 130.32020513163269, 33.550258729831938 ], [ 130.319971847955884, 33.550224589561509 ], [ 130.319936141776623, 33.5502183743952 ], [ 130.319820194164606, 33.550096538506189 ], [ 130.31966337958886, 33.54983278053308 ], [ 130.319523125607986, 33.549635262436581 ], [ 130.319256106482385, 33.549167246111139 ], [ 130.319120676209536, 33.549068021515815 ], [ 130.319027109109015, 33.54902675816134 ], [ 130.318818214037719, 33.548999479469906 ], [ 130.318674916452579, 33.549007920031741 ], [ 130.318519402752088, 33.548975368547211 ], [ 130.31833346208083, 33.548933772233525 ], [ 130.317983702090999, 33.548824881269759 ], [ 130.317955063255681, 33.548818628915214 ], [ 130.317441152970332, 33.548706160146367 ], [ 130.317354199230635, 33.548701138030403 ], [ 130.316795505890695, 33.548709337055605 ], [ 130.316366269805485, 33.548592150191162 ], [ 130.316324187850199, 33.548567403344016 ], [ 130.316227067227658, 33.548555597571379 ], [ 130.316161424615899, 33.548547631458696 ], [ 130.315533276869303, 33.548487216885292 ], [ 130.315367124749173, 33.548486474430909 ], [ 130.315117030902456, 33.548445824945127 ], [ 130.314961639770672, 33.548419605174871 ], [ 130.314692484823894, 33.548358490128969 ], [ 130.314494508724522, 33.548296603955507 ], [ 130.314191515547776, 33.548253545027173 ], [ 130.313941761901276, 33.54822870758268 ], [ 130.313893173988333, 33.548425824037366 ], [ 130.313735173261563, 33.54914401580465 ], [ 130.3136714382874, 33.5494104698613 ], [ 130.313665957373786, 33.549433299355599 ], [ 130.313792814754549, 33.549535968658937 ], [ 130.313900902053206, 33.549645261032133 ], [ 130.314022016894882, 33.549830354140852 ], [ 130.314042755275153, 33.549915564475242 ], [ 130.314043030898318, 33.550088084464001 ], [ 130.314041783574567, 33.550102272132705 ], [ 130.314035319972135, 33.550174899889129 ], [ 130.313991267251538, 33.550324949834149 ], [ 130.313950300311348, 33.550350928356934 ], [ 130.31370221711029, 33.550374496879215 ], [ 130.313503730576201, 33.550477868079604 ], [ 130.313375428096833, 33.550547005704416 ], [ 130.313322103690894, 33.550715072655457 ], [ 130.313215975782697, 33.5508897869816 ], [ 130.313134644103258, 33.551008670210429 ], [ 130.313014420648216, 33.551242127024047 ], [ 130.312923926171095, 33.551524672406742 ], [ 130.31285271373514, 33.551826521059994 ], [ 130.31279193225734, 33.552181612400943 ], [ 130.312767586447279, 33.55273770666151 ], [ 130.312773299881542, 33.552998840105388 ], [ 130.312846960335719, 33.553009498312854 ], [ 130.312959054239172, 33.553032660478522 ], [ 130.31349288412423, 33.553788205516383 ], [ 130.313522356697547, 33.553827642348367 ], [ 130.31359953297823, 33.553930951473241 ], [ 130.313733938290454, 33.554106539131112 ], [ 130.313850798705232, 33.554096546827104 ], [ 130.313953192737586, 33.55377194040657 ], [ 130.313850798705232, 33.554096546827125 ], [ 130.313733938290454, 33.554106539131126 ], [ 130.313771037490852, 33.554154997500184 ], [ 130.314048061361433, 33.554516041776004 ], [ 130.314336328880131, 33.554891728243092 ], [ 130.314564324238432, 33.555202484314229 ], [ 130.314557923115444, 33.555213896801604 ], [ 130.314499221134895, 33.555210649552521 ], [ 130.314817865169999, 33.555629262001311 ], [ 130.314499221134867, 33.555210649552521 ], [ 130.314272748268621, 33.555186329467276 ], [ 130.313544552815301, 33.55510538410887 ], [ 130.313475496377464, 33.555326091992491 ], [ 130.313495816716994, 33.555437472638438 ], [ 130.313459688540888, 33.555617153411205 ], [ 130.313286174193053, 33.555673112901211 ], [ 130.313270078720763, 33.555687007771745 ], [ 130.313222754681107, 33.555930907916661 ], [ 130.31322307194435, 33.556071481386091 ], [ 130.313444570781513, 33.55617710300514 ], [ 130.31348862457196, 33.556240008492914 ], [ 130.313375163746258, 33.556702342668885 ], [ 130.313325812318226, 33.556888855038409 ], [ 130.313425709352686, 33.557071682319304 ], [ 130.313367896522834, 33.557072879180602 ], [ 130.313317994101141, 33.557073903979457 ], [ 130.3130073034595, 33.557080324090954 ], [ 130.312884284356926, 33.557070735059746 ], [ 130.312493485694461, 33.556998373810103 ], [ 130.312380570719569, 33.5569772503571 ], [ 130.311830825843316, 33.556874316757288 ], [ 130.311805306345889, 33.557004779921805 ], [ 130.311705128675328, 33.557409000434482 ], [ 130.312361319615093, 33.557420873682851 ], [ 130.312284661431761, 33.55767648126286 ], [ 130.312256796433076, 33.557885265412622 ], [ 130.312231044436174, 33.558066307152714 ], [ 130.312200551280625, 33.558282861437014 ], [ 130.312597283060171, 33.558334438029817 ], [ 130.312666672570231, 33.558348417509372 ], [ 130.312660046974969, 33.558446650591641 ], [ 130.312651566119968, 33.558571783815609 ], [ 130.312615803036607, 33.558779151744879 ], [ 130.312578867495006, 33.558938116071403 ], [ 130.31294092804589, 33.558927120401592 ], [ 130.313416209937571, 33.558914741864044 ], [ 130.313396742579272, 33.559216137755278 ], [ 130.313296917827728, 33.559815456258619 ], [ 130.313504339981563, 33.559904094340396 ], [ 130.313817579034634, 33.560018253409481 ], [ 130.314156523034853, 33.560090004360987 ], [ 130.314161730872598, 33.560149734284181 ], [ 130.314106895716719, 33.560290073807678 ], [ 130.314056910770688, 33.560354571845643 ], [ 130.31377140930141, 33.560653372762303 ], [ 130.313711997017407, 33.560717993672299 ], [ 130.313602637388357, 33.560837040731514 ], [ 130.313504758429787, 33.561015113187118 ], [ 130.31346105977093, 33.561087816749506 ], [ 130.312892410357989, 33.561009864579916 ], [ 130.312848924556505, 33.5609016685111 ], [ 130.312739984343636, 33.560882679358819 ], [ 130.312598483230715, 33.560863582221707 ], [ 130.312407638699483, 33.560854003899948 ], [ 130.312215935431453, 33.560846779876613 ], [ 130.312104780214895, 33.560778221202369 ], [ 130.312153683917074, 33.560505730092451 ], [ 130.312252257604541, 33.560139364446385 ], [ 130.312321913919931, 33.559812146927918 ], [ 130.311867619159273, 33.559787477059324 ], [ 130.311423089369782, 33.559688331316316 ], [ 130.311250175374369, 33.559651625122143 ], [ 130.311193439703146, 33.559914175738555 ], [ 130.311113125937567, 33.56018437765141 ], [ 130.311084178171825, 33.560327749980303 ], [ 130.311054412205863, 33.560648493644102 ], [ 130.311046749879267, 33.560717768214076 ], [ 130.311066912105048, 33.560991876718354 ], [ 130.311124170166693, 33.561198632594156 ], [ 130.311200247229181, 33.561435393113555 ], [ 130.311241606715839, 33.561625684095581 ], [ 130.311246514831339, 33.56165934820914 ], [ 130.311271735575417, 33.561905763044848 ], [ 130.311253064128806, 33.562005444991357 ], [ 130.311171375893622, 33.562188855183855 ], [ 130.311092815367886, 33.562434132303252 ], [ 130.311063977794987, 33.56258472547141 ], [ 130.31105513214365, 33.562639755676912 ], [ 130.311032421402558, 33.562781053768859 ], [ 130.311018195912851, 33.56314693737604 ], [ 130.31097536785677, 33.563300307757046 ], [ 130.31097508055916, 33.563288892422847 ], [ 130.310975014052076, 33.563286672486271 ], [ 130.310493187035519, 33.563219582385976 ], [ 130.310260792603287, 33.563191558727283 ], [ 130.310221139850057, 33.563241675220524 ], [ 130.310077154404553, 33.563238124608233 ], [ 130.310061687024302, 33.563236207780527 ], [ 130.309990236677095, 33.564157721784753 ], [ 130.309981587482326, 33.564425152813541 ], [ 130.309948646255464, 33.564858558629581 ], [ 130.309913474304579, 33.565429318605418 ], [ 130.309902106359829, 33.56593258647974 ], [ 130.309899859882961, 33.566032308672995 ], [ 130.309898137917941, 33.566108747311688 ], [ 130.309876289380639, 33.566390474053044 ], [ 130.309868179507333, 33.566444263564179 ], [ 130.30983275923532, 33.56667916088599 ], [ 130.309674613903098, 33.567425182041958 ], [ 130.309664585147942, 33.567472488073115 ], [ 130.309625045471932, 33.567782895594206 ], [ 130.309630446914497, 33.567981789766293 ], [ 130.309679555170447, 33.568408961114152 ], [ 130.309690967434278, 33.568766991924761 ], [ 130.309698739579176, 33.56882131465246 ], [ 130.30976304263848, 33.569527989444303 ], [ 130.309767857766929, 33.569610225680769 ], [ 130.309780150850031, 33.569646502667489 ], [ 130.309816236570754, 33.569927701984135 ], [ 130.30987587085113, 33.570392362610818 ], [ 130.309966143260482, 33.570675406026837 ], [ 130.310139608574985, 33.570883545674114 ], [ 130.310426341070752, 33.57129316846185 ], [ 130.310491937248742, 33.57135678740363 ], [ 130.31056683730796, 33.571499211988289 ], [ 130.310662941245141, 33.571726812043764 ], [ 130.310671513347302, 33.571781133580004 ], [ 130.310746740391892, 33.572057258566218 ], [ 130.310800544568139, 33.572254722157609 ], [ 130.310944113808745, 33.572784216157189 ], [ 130.310962475384571, 33.572856202812062 ], [ 130.311042836936139, 33.5731853971227 ], [ 130.3110373476257, 33.573280877267123 ], [ 130.311030339056487, 33.573402748630386 ], [ 130.311001931172626, 33.57373211487073 ], [ 130.310997854953257, 33.573768369166146 ], [ 130.310985939187361, 33.573875481153863 ], [ 130.310956388778635, 33.574194768944068 ], [ 130.310934732288302, 33.574600888209943 ], [ 130.31093299871668, 33.574777087027108 ], [ 130.310928010909777, 33.575277545980128 ], [ 130.31092654239211, 33.575425502489487 ], [ 130.310926273365453, 33.575454238393078 ], [ 130.310934000928768, 33.575609394538581 ], [ 130.310960034654784, 33.575722245159639 ], [ 130.311006073210791, 33.575901843708799 ], [ 130.311062793807253, 33.576060933589368 ], [ 130.311089952517648, 33.576191117971263 ], [ 130.311103131792379, 33.576354193787481 ], [ 130.311084683256411, 33.576473032163683 ], [ 130.31105928942759, 33.576586937474147 ], [ 130.311005397896736, 33.576776301693883 ], [ 130.311000447500504, 33.576784936928597 ], [ 130.31089572045542, 33.576900551135118 ], [ 130.310706829957809, 33.577059266296203 ], [ 130.310601992211247, 33.577178047188156 ], [ 130.310507623047755, 33.577334995364772 ], [ 130.310450459385521, 33.577517756843733 ], [ 130.310416064059041, 33.577694515017001 ], [ 130.310441102076766, 33.577916476177421 ], [ 130.310532020929259, 33.578066560599197 ], [ 130.310631715476632, 33.578166119991401 ], [ 130.310798624373348, 33.578301445584131 ], [ 130.311035107704726, 33.578529617142664 ], [ 130.311123795439755, 33.578682995908274 ], [ 130.311147681806176, 33.578724306594168 ], [ 130.311230182459752, 33.578912281535963 ], [ 130.311290561240583, 33.579209777463014 ], [ 130.31130484318021, 33.579435656893907 ], [ 130.311249575068757, 33.579697572787168 ], [ 130.311014501360006, 33.580213349061864 ], [ 130.310984423841631, 33.58027038013936 ], [ 130.310835986556214, 33.580574817027085 ], [ 130.310763807048914, 33.580751051168548 ], [ 130.31072263694233, 33.580896072576522 ], [ 130.31070891454354, 33.580997151715827 ], [ 130.310724445075493, 33.581139849312542 ], [ 130.310755770448168, 33.581254243637531 ], [ 130.310806610622507, 33.581343601147722 ], [ 130.310904181040627, 33.581488547213247 ], [ 130.311074118497544, 33.581698807292781 ], [ 130.311228647362981, 33.581878303732317 ], [ 130.311457367415812, 33.582115834910667 ], [ 130.311457367415812, 33.58211583491066 ], [ 130.311793053529328, 33.582465678186985 ], [ 130.312239261507159, 33.582877734652918 ], [ 130.313001959985229, 33.582626847603372 ], [ 130.312239261507187, 33.582877734652911 ], [ 130.312221709080433, 33.582883588193255 ] ] ], [ [ [ 130.332052848017412, 33.588160753766807 ], [ 130.332230635068157, 33.588064743398625 ], [ 130.332127246538647, 33.587921258087754 ], [ 130.332001452384162, 33.587981940070755 ], [ 130.331514642193184, 33.588241729037684 ], [ 130.331636263926697, 33.588394747645808 ], [ 130.331867736821096, 33.588273384839354 ], [ 130.332052848017412, 33.588160753766807 ] ] ], [ [ [ 130.331514642193184, 33.588241729037684 ], [ 130.331316659747472, 33.588347948080035 ], [ 130.331298231590438, 33.588358167875491 ], [ 130.331043626370729, 33.588499413237486 ], [ 130.331035161102164, 33.588527687412657 ], [ 130.330913575498926, 33.588926478309915 ], [ 130.33095091321394, 33.58897444029531 ], [ 130.331109144054352, 33.5889915259717 ], [ 130.331194397307087, 33.588692637817545 ], [ 130.33123360884872, 33.588639664132231 ], [ 130.331424319235396, 33.588537981141123 ], [ 130.331652256684777, 33.588416495221331 ], [ 130.331514642193184, 33.588241729037684 ] ] ] ] } }
]
}
