{
"type": "FeatureCollection",
"name": "西区B2",
"crs": { "type": "name", "properties": { "name": "urn:ogc:def:crs:EPSG::4612" } },
"features": [
{ "type": "Feature", "properties": { "KEY_CODE": "401350874101", "PREF": "40", "CITY": "135", "K_AREA": "011002180", "S_AREA": "0874101", "PREF_NAME": "福岡県", "CITY_NAME": "福岡市西区", "S_NAME": "上山門二丁目", "KIGO_E": null, "HCODE": 8101, "AREA": 6933.525, "PERIMETER": 319.295, "KIHON1": "0110", "DUMMY1": "-", "KIHON2": "02", "KIHON3": "180", "C1": 16, "C2": 874, "DUMMY2": "-", "C3": 1, "DUMMY3": "-", "C4": 1, "KIGO_A": null, "KIGO_D": null, "N_KEN": null, "N_CITY": null, "N_C1": 0, "KIGO_I": null, "KEYCODE1": "1350874-1-01", "JINKO": 85, "SETAI": 31, "KEN_OLD": "40", "CITY_OLD": "135", "X_CODE": 130.303279, "Y_CODE": 33.574057, "KCODE1": "0110-02180", "CCODE1": "874-1- 1" }, "geometry": { "type": "MultiPolygon", "coordinates": [ [ [ [ 130.302533659847967, 33.546979459880106 ], [ 130.302422480850652, 33.546875140184632 ], [ 130.302248162512058, 33.546728971080626 ], [ 130.302102040534635, 33.546685776692804 ], [ 130.30191494446052, 33.54666401132549 ], [ 130.301690718196795, 33.546813288114713 ], [ 130.301478123942928, 33.546870699729716 ], [ 130.301323066186626, 33.546871657825925 ], [ 130.301197887664785, 33.546771766622825 ], [ 130.301050622995945, 33.546604124300295 ], [ 130.300893828947125, 33.546549138830834 ], [ 130.300770287440656, 33.546512374490526 ], [ 130.300510015681795, 33.546473006357964 ], [ 130.300327225343523, 33.546574788484556 ], [ 130.30011958999799, 33.546549277715656 ], [ 130.299759473096145, 33.546471480429481 ], [ 130.299555709154845, 33.546310384487356 ], [ 130.299324728440155, 33.546165163189968 ], [ 130.299120770614621, 33.546085570490909 ], [ 130.298884167139249, 33.546048164971531 ], [ 130.298476898186152, 33.546074707467731 ], [ 130.298183638949837, 33.546119927346574 ], [ 130.297881786360506, 33.546161506288485 ], [ 130.297585442268257, 33.546187792769175 ], [ 130.296976956153941, 33.546196947324155 ], [ 130.296856947603345, 33.546259383430481 ], [ 130.296820250742996, 33.546396434586583 ], [ 130.296776759380577, 33.546853122660245 ], [ 130.296659572586094, 33.547755972151947 ], [ 130.296854517675825, 33.54801856832762 ], [ 130.297033998953566, 33.548196296479034 ], [ 130.297179710705905, 33.548290005292507 ], [ 130.297446951105911, 33.548398808826718 ], [ 130.297795968161722, 33.548518008109227 ], [ 130.297844575804817, 33.54852046731169 ], [ 130.297918205558375, 33.548716191241418 ], [ 130.298211898779499, 33.549154255447633 ], [ 130.29821893175145, 33.549215617401224 ], [ 130.298225331024639, 33.549277397329021 ], [ 130.298717071268385, 33.550002127725655 ], [ 130.297622686382397, 33.549985853912709 ], [ 130.297608707660288, 33.550060305981461 ], [ 130.29689051688365, 33.550091728741791 ], [ 130.296525327214084, 33.550104093291878 ], [ 130.296032275697939, 33.550083254443372 ], [ 130.295393827593102, 33.55006968652124 ], [ 130.294956842887444, 33.550039231314415 ], [ 130.294531965299853, 33.550113451658582 ], [ 130.294228051739765, 33.550137888325253 ], [ 130.293733317106671, 33.550060216168276 ], [ 130.293297160638815, 33.54993328548079 ], [ 130.292689249682837, 33.550204154437438 ], [ 130.292261923539087, 33.550371902016174 ], [ 130.291917400447232, 33.550496165210994 ], [ 130.291773982731286, 33.550513377638772 ], [ 130.291574001053931, 33.550482469346342 ], [ 130.291270148567236, 33.550365308315534 ], [ 130.291101503299956, 33.550319257916087 ], [ 130.290903283305198, 33.550319952102619 ], [ 130.290760882767984, 33.550357000723352 ], [ 130.290554909539082, 33.550390088612914 ], [ 130.290394812412188, 33.550482015953548 ], [ 130.290336094565049, 33.550542998545986 ], [ 130.290295403321295, 33.550652764360933 ], [ 130.290281489185332, 33.550769902630684 ], [ 130.290254663816057, 33.550881435878367 ], [ 130.290169614457596, 33.551024440766938 ], [ 130.29014194944105, 33.551084546447782 ], [ 130.290158164790626, 33.551097389255872 ], [ 130.290346891863919, 33.551311284605056 ], [ 130.29048731113113, 33.551393557214077 ], [ 130.290759533229647, 33.55150029049512 ], [ 130.290905988297368, 33.551543960079641 ], [ 130.291014985924733, 33.55161048503728 ], [ 130.291289255201434, 33.551683204716099 ], [ 130.291632478933678, 33.551687991802979 ], [ 130.291637931778382, 33.551813551423095 ], [ 130.291695181397756, 33.551963325570483 ], [ 130.291922638153608, 33.55227757533963 ], [ 130.29201196343638, 33.552445777433185 ], [ 130.292047362333619, 33.552613353725455 ], [ 130.292006832073497, 33.552811738107032 ], [ 130.29189715137349, 33.553066079141935 ], [ 130.291786543589467, 33.553201402925751 ], [ 130.291723980274838, 33.553259406522848 ], [ 130.291686395077221, 33.553359502754546 ], [ 130.29176893521219, 33.553626992639416 ], [ 130.291767803406316, 33.553703803086826 ], [ 130.291587320068174, 33.553870354445728 ], [ 130.291548483949413, 33.553958963254679 ], [ 130.291539249939632, 33.554234520258468 ], [ 130.291595258794928, 33.554474629594282 ], [ 130.291662696028595, 33.554665141243447 ], [ 130.291714088805776, 33.554841931777666 ], [ 130.291717062975863, 33.555013691011411 ], [ 130.291635180732925, 33.555469168464029 ], [ 130.291689790871885, 33.555808664892233 ], [ 130.291665683101826, 33.555989143641433 ], [ 130.29165172369477, 33.556214940439581 ], [ 130.291654998445779, 33.556257049151242 ], [ 130.291669996521193, 33.556450115405873 ], [ 130.291720808069556, 33.55666754848739 ], [ 130.291820635505189, 33.556858423008542 ], [ 130.292001200453655, 33.557059234779906 ], [ 130.292085801603434, 33.557177644032066 ], [ 130.292140248636031, 33.557243432048132 ], [ 130.292257247681931, 33.557413061991063 ], [ 130.29244606582742, 33.557638682513016 ], [ 130.292616010500524, 33.557661279618188 ], [ 130.292791748533205, 33.557773199507842 ], [ 130.292964827373623, 33.55794279606922 ], [ 130.293160923931055, 33.558065644547753 ], [ 130.29341892175654, 33.558077722750888 ], [ 130.293655196309004, 33.558071184242948 ], [ 130.293970923575245, 33.558185698724095 ], [ 130.29428220633676, 33.558179376373374 ], [ 130.294641432164383, 33.558237326632586 ], [ 130.294857068755277, 33.55820787896333 ], [ 130.29513172405035, 33.558204938023508 ], [ 130.295383800585171, 33.558329933096942 ], [ 130.295632388171185, 33.558490942488113 ], [ 130.295810819544556, 33.558530737365487 ], [ 130.295926998600379, 33.558548517417314 ], [ 130.296040118422411, 33.558678990887366 ], [ 130.296171495218147, 33.558809602978478 ], [ 130.296263975158752, 33.558829043470539 ], [ 130.296552125916691, 33.558780845347634 ], [ 130.296725525366782, 33.558803247604679 ], [ 130.296895128197463, 33.558847780910838 ], [ 130.297068436407073, 33.558917660702917 ], [ 130.297325779355532, 33.559042332133217 ], [ 130.29768903563496, 33.559231886293084 ], [ 130.297954725508191, 33.559359981266674 ], [ 130.298296523664561, 33.559493120456835 ], [ 130.298738147117717, 33.55962203677818 ], [ 130.298806191811479, 33.559651303381905 ], [ 130.299018537292824, 33.559909697403938 ], [ 130.2991406803242, 33.560012567814724 ], [ 130.299204595835022, 33.56004762521443 ], [ 130.299521707538986, 33.560242965528808 ], [ 130.29988882233684, 33.560466448244277 ], [ 130.299952378713556, 33.56050446082849 ], [ 130.299960800238068, 33.560524408353707 ], [ 130.299971119879501, 33.560548878885712 ], [ 130.300092019753237, 33.560774875848033 ], [ 130.300147199420252, 33.560808438207339 ], [ 130.300600308536616, 33.560953968660897 ], [ 130.300792400294, 33.560996406057207 ], [ 130.30049731448554, 33.561444873622754 ], [ 130.300186553468052, 33.561828161664941 ], [ 130.29987610276774, 33.562229867868588 ], [ 130.299728425870342, 33.562418843410462 ], [ 130.299674855072112, 33.562487397449893 ], [ 130.299336064859887, 33.562917718682939 ], [ 130.299223757337558, 33.563029228611263 ], [ 130.2991372631069, 33.563080512478898 ], [ 130.298972941327833, 33.563224624211827 ], [ 130.298869971786047, 33.563304980172092 ], [ 130.29869287235104, 33.563374701030689 ], [ 130.298242975931828, 33.56358988858544 ], [ 130.298104742454683, 33.563646787207965 ], [ 130.298052554484855, 33.563668264346298 ], [ 130.297876197820074, 33.563755035292317 ], [ 130.297083951359866, 33.564230249711095 ], [ 130.296969247591761, 33.564299050004259 ], [ 130.296322217506486, 33.564702734355969 ], [ 130.295951254974483, 33.564983025312472 ], [ 130.295854134894796, 33.565067812929648 ], [ 130.295612773579393, 33.565278645060395 ], [ 130.295478728925076, 33.565475331668566 ], [ 130.295294013913747, 33.565792644158428 ], [ 130.295293032899821, 33.565794364409605 ], [ 130.295146025039003, 33.566120731988349 ], [ 130.294992460856747, 33.566461679264506 ], [ 130.29498827609936, 33.566577992578573 ], [ 130.295099457631636, 33.566932429363796 ], [ 130.295102738370474, 33.566942907806997 ], [ 130.295338721173437, 33.56730661604395 ], [ 130.295339967223867, 33.567308525677113 ], [ 130.295477481074869, 33.567441285372766 ], [ 130.295508222278357, 33.567479394595722 ], [ 130.295679954774357, 33.56771949354853 ], [ 130.296088615275522, 33.567611727248959 ], [ 130.295679954774386, 33.567719493548537 ], [ 130.295775347050949, 33.567852930382919 ], [ 130.296067436940064, 33.56818370849664 ], [ 130.296114026375221, 33.568280445784964 ], [ 130.296116151908961, 33.568288207213257 ], [ 130.296230536851084, 33.568710075970728 ], [ 130.296233048289167, 33.568711603734165 ], [ 130.296278058024711, 33.568859820957421 ], [ 130.296437375317794, 33.569384445324296 ], [ 130.296438721092471, 33.569384523448861 ], [ 130.296484852885129, 33.569584456175363 ], [ 130.2963413062661, 33.570028522995869 ], [ 130.296239890014078, 33.570362087856672 ], [ 130.296171073581235, 33.570567137043646 ], [ 130.296156092439958, 33.570598505147601 ], [ 130.296049157280009, 33.570937848590226 ], [ 130.295965598607467, 33.571284549622121 ], [ 130.295944764282837, 33.571451200333435 ], [ 130.295877363286223, 33.571828915010215 ], [ 130.295878338408869, 33.571921200730436 ], [ 130.295844976949184, 33.572366172142779 ], [ 130.296453275660269, 33.572709143226042 ], [ 130.296861491235774, 33.572939288170154 ], [ 130.297168135335738, 33.573112177600152 ], [ 130.296615007947537, 33.573447144357743 ], [ 130.296609733286118, 33.573516426877454 ], [ 130.296560916128755, 33.573714444194593 ], [ 130.296471396418127, 33.574085165765936 ], [ 130.296223899580639, 33.574406130514177 ], [ 130.296114253715359, 33.574514056791052 ], [ 130.296096371661093, 33.57458633307882 ], [ 130.296094096265847, 33.574560891458994 ], [ 130.296008007102358, 33.57457617848393 ], [ 130.295942646395815, 33.574665971138025 ], [ 130.295931531351272, 33.574687496542786 ], [ 130.295906520407044, 33.574736103003382 ], [ 130.295871226258726, 33.574838674485001 ], [ 130.295830124571154, 33.574858270662496 ], [ 130.295780478335416, 33.574867918055162 ], [ 130.29571473247708, 33.57487564405475 ], [ 130.295649530278297, 33.574878439959107 ], [ 130.295566018492906, 33.574882012177341 ], [ 130.295494873336224, 33.574886113510779 ], [ 130.295433396498709, 33.574896576361276 ], [ 130.295367395868539, 33.574930467304306 ], [ 130.295335720485838, 33.574986183733039 ], [ 130.295325567326131, 33.575044733686575 ], [ 130.295345656434449, 33.575089051776452 ], [ 130.295368015574155, 33.575123448277878 ], [ 130.295367275672788, 33.575214490257238 ], [ 130.295319173551349, 33.575298077193032 ], [ 130.29526561120997, 33.575396038865861 ], [ 130.295230227808673, 33.575509458783444 ], [ 130.29526604201655, 33.575607051970252 ], [ 130.295291665197738, 33.575633330528881 ], [ 130.295353917008669, 33.575672710751405 ], [ 130.295386912697694, 33.575733833864213 ], [ 130.295414440525036, 33.575903651823666 ], [ 130.295385073660128, 33.57596529804826 ], [ 130.29536730818424, 33.576002564954273 ], [ 130.295376284799573, 33.576037099511851 ], [ 130.295380894914331, 33.576054912040071 ], [ 130.295793523507342, 33.576468795474078 ], [ 130.295815768930055, 33.576491112612253 ], [ 130.295720443157876, 33.576555479451109 ], [ 130.295772649820861, 33.576629709014661 ], [ 130.295812028578325, 33.576666844966105 ], [ 130.295897717005431, 33.576747640479923 ], [ 130.295869850400521, 33.576862899299336 ], [ 130.295817885132436, 33.576955869985191 ], [ 130.29580755304849, 33.576974370800905 ], [ 130.295748184033016, 33.576989354056167 ], [ 130.29566541450032, 33.576963378196673 ], [ 130.29566541450032, 33.576963378196687 ], [ 130.295598804699807, 33.576942498358434 ], [ 130.295338656678268, 33.576877013252385 ], [ 130.295100898964506, 33.576842263576815 ], [ 130.295036790461324, 33.576824214918709 ], [ 130.294937494377365, 33.57679715942507 ], [ 130.294887044683179, 33.576734951140132 ], [ 130.294845458397361, 33.576668886258979 ], [ 130.294687347040536, 33.576433618993725 ], [ 130.2944955435255, 33.576310476582883 ], [ 130.294271584411888, 33.576229839838362 ], [ 130.294126295713056, 33.576249330130054 ], [ 130.29404367949337, 33.576313274817515 ], [ 130.29401406938922, 33.576446067568263 ], [ 130.294014959306139, 33.576476220860513 ], [ 130.294004030260055, 33.576583405439173 ], [ 130.293962630883129, 33.576696230615489 ], [ 130.293974159089203, 33.576810235982137 ], [ 130.294070700791366, 33.57698939595295 ], [ 130.294281537722782, 33.577265963055744 ], [ 130.294289101537032, 33.577386216158779 ], [ 130.294251611691038, 33.577856236948669 ], [ 130.294268107998619, 33.578052513241403 ], [ 130.294339007613758, 33.578445990684955 ], [ 130.29437554276538, 33.578848144928344 ], [ 130.294421715363768, 33.5790641061486 ], [ 130.294754826046585, 33.579425588993367 ], [ 130.294750595646718, 33.579425914219108 ], [ 130.294792977621569, 33.579468861766529 ], [ 130.294615318642059, 33.579490178073776 ], [ 130.29448458154701, 33.579505866232282 ], [ 130.294057706468664, 33.579540387696575 ], [ 130.293907923724731, 33.579545840453882 ], [ 130.293687696634606, 33.579587191635746 ], [ 130.293586613860043, 33.579603952101344 ], [ 130.293530276917636, 33.579620315480994 ], [ 130.293530168665768, 33.579620367141466 ], [ 130.293538483050838, 33.579670857338641 ], [ 130.293537785161959, 33.579756511668464 ], [ 130.293493606438915, 33.580022249813752 ], [ 130.29349204648409, 33.580081116106889 ], [ 130.293486810873304, 33.580227472061502 ], [ 130.293539292407445, 33.580232598542487 ], [ 130.293624318619777, 33.580242103067832 ], [ 130.293692125004014, 33.580249705303942 ], [ 130.293727636286519, 33.580254417354155 ], [ 130.293799743803419, 33.580262947851146 ], [ 130.293904123137054, 33.580277071518893 ], [ 130.293935325972683, 33.58028175879835 ], [ 130.294055827564762, 33.580300483123551 ], [ 130.294084875853457, 33.580305158010198 ], [ 130.294204292582435, 33.580324775760864 ], [ 130.294285594275891, 33.580339033710352 ], [ 130.294294654357316, 33.580340622172692 ], [ 130.29432477962996, 33.580345303174255 ], [ 130.294339299793762, 33.58034809128592 ], [ 130.294381791324724, 33.580355548588372 ], [ 130.29440760078316, 33.580361107931054 ], [ 130.2944199700529, 33.580363432983248 ], [ 130.294432339980801, 33.580365758037885 ], [ 130.294454917293024, 33.580371295545532 ], [ 130.294474270406312, 33.580375914778088 ], [ 130.294483943621088, 33.580378675647225 ], [ 130.294501134822752, 33.580384185583561 ], [ 130.294508660823141, 33.580386030499611 ], [ 130.294515102508086, 33.580388773949679 ], [ 130.294522620518137, 33.580391520264719 ], [ 130.294534433637779, 33.580396096282776 ], [ 130.294540874680365, 33.580398838076704 ], [ 130.294546238763502, 33.580401574249812 ], [ 130.294542985235097, 33.580404260495072 ], [ 130.2945386394222, 33.580408743923314 ], [ 130.294537525790616, 33.580413245871519 ], [ 130.294538573408119, 33.580416858207364 ], [ 130.294542831198726, 33.580423194374745 ], [ 130.294548180616886, 33.580427733354995 ], [ 130.294553544706616, 33.580430468977333 ], [ 130.294563225268377, 33.580432327885717 ], [ 130.294572934514179, 33.580430580074314 ], [ 130.294578349944629, 33.580427004769348 ], [ 130.294582600392602, 33.580434243989679 ], [ 130.294585787924888, 33.580439670376251 ], [ 130.294592206965319, 33.580445117478696 ], [ 130.294599710957471, 33.580449668800853 ], [ 130.294606159996732, 33.580451509191093 ], [ 130.294615847228414, 33.580452467788355 ], [ 130.294620156367984, 33.580452492476269 ], [ 130.294626626765648, 33.580451626449552 ], [ 130.294633097811783, 33.580450761526876 ], [ 130.294637420962886, 33.580448982852879 ], [ 130.294648222487126, 33.580445438402045 ], [ 130.294727658290697, 33.580480158297924 ], [ 130.294724040207427, 33.580490560880591 ], [ 130.294723195168501, 33.580499065840002 ], [ 130.294724243435013, 33.580502680378672 ], [ 130.294727430979577, 33.580508106760767 ], [ 130.294732787731675, 33.580511745979372 ], [ 130.294738144511172, 33.580515381895879 ], [ 130.294744578239204, 33.580519025081678 ], [ 130.294752104231122, 33.580520873283589 ], [ 130.294755335759902, 33.580520891793945 ], [ 130.294761799474884, 33.580520928818132 ], [ 130.294769317505938, 33.580523675116901 ], [ 130.294782931207067, 33.580528864037106 ], [ 130.294791873529789, 33.580531919524596 ], [ 130.294799399537453, 33.580533766072591 ], [ 130.294808002507239, 33.580535618238166 ], [ 130.29481231099399, 33.580535642915343 ], [ 130.294816612803345, 33.580536569549942 ], [ 130.294825223104112, 33.580537520310799 ], [ 130.29483276377789, 33.580537563499412 ], [ 130.294840311781712, 33.580536705284089 ], [ 130.294843543311174, 33.580536723792086 ], [ 130.294847859789911, 33.580535846518018 ], [ 130.294855407122554, 33.580534989948958 ], [ 130.294859723610045, 33.580534111573861 ], [ 130.294862962473729, 33.580533228127578 ], [ 130.294865095051904, 33.580535945227801 ], [ 130.294868275259688, 33.580542275210284 ], [ 130.294871477461527, 33.58054590043195 ], [ 130.294874687641908, 33.580548625354467 ], [ 130.29487898147903, 33.580550451735547 ], [ 130.294883275960416, 33.580552279771169 ], [ 130.294882176352075, 33.580554978360361 ], [ 130.294879985779829, 33.58055947414276 ], [ 130.294879896280435, 33.580570480840152 ], [ 130.294883085332714, 33.580575723414711 ], [ 130.294890567374068, 33.580582977827071 ], [ 130.294900225312091, 33.580587541464283 ], [ 130.294903449509803, 33.580588461924329 ], [ 130.294917431916986, 33.580591246884175 ], [ 130.294935736820179, 33.58059225315418 ], [ 130.294950832840556, 33.580590536159754 ], [ 130.294959472468264, 33.580587880746926 ], [ 130.294985140005451, 33.580576538974626 ], [ 130.295016836258839, 33.58055484748548 ], [ 130.295059983717522, 33.580547881322147 ], [ 130.295103109183174, 33.580543619904446 ], [ 130.295144073398546, 33.580540248094728 ], [ 130.295185022300757, 33.580538679074422 ], [ 130.295224879588233, 33.580538907232679 ], [ 130.295265747892444, 33.580547255822268 ], [ 130.29532380751192, 33.58056111311339 ], [ 130.295674374117425, 33.580637957680935 ], [ 130.295976524274664, 33.580707310616148 ], [ 130.296053923453911, 33.580727589342665 ], [ 130.296319969255364, 33.580798989130422 ], [ 130.296360350131835, 33.580809825359943 ], [ 130.29641183725326, 33.580823644554073 ], [ 130.296495873589464, 33.580846197466101 ], [ 130.296586015537827, 33.580870388316583 ], [ 130.296639428717441, 33.580884517794793 ], [ 130.296730599047379, 33.580908635160846 ], [ 130.296782291989928, 33.580922305677412 ], [ 130.296875182723767, 33.580946878525729 ], [ 130.296948908670061, 33.580966445018397 ], [ 130.297003847055379, 33.580981024955932 ], [ 130.297071363682733, 33.580998942346156 ], [ 130.297127503444074, 33.581013841122484 ], [ 130.297188838571998, 33.581048259530512 ], [ 130.297282596474304, 33.581054698617095 ], [ 130.297350322906681, 33.581072218603786 ], [ 130.297384728616379, 33.581080528479859 ], [ 130.29743101278234, 33.581085300900604 ], [ 130.297477884155796, 33.581095832573759 ], [ 130.297543316358485, 33.581110538721617 ], [ 130.297575106086612, 33.58111768122356 ], [ 130.297666466455524, 33.581138210234194 ], [ 130.297719199452814, 33.581150060588811 ], [ 130.297757891798312, 33.581161100050146 ], [ 130.297801948393669, 33.581174875418796 ], [ 130.29786211299546, 33.581195054072531 ], [ 130.29790402233354, 33.581207915756401 ], [ 130.297994349257664, 33.581228265751889 ], [ 130.298099698672786, 33.581255914224108 ], [ 130.298169558079735, 33.581276147251195 ], [ 130.29824478906184, 33.581298216386443 ], [ 130.298284544590473, 33.581311064051015 ], [ 130.298324307414049, 33.581323011401423 ], [ 130.298365139925039, 33.58133586625636 ], [ 130.298418870168746, 33.58135240176334 ], [ 130.298529540417263, 33.581388194706804 ], [ 130.298585418032076, 33.581405643773415 ], [ 130.298642358062068, 33.58142490173033 ], [ 130.298701460000842, 33.581443270489011 ], [ 130.298819634801646, 33.581483614624027 ], [ 130.298943188595047, 33.581524890605941 ], [ 130.299073184435599, 33.581568909535484 ], [ 130.299204249466271, 33.581613833077263 ], [ 130.299329936394741, 33.581657825631382 ], [ 130.299447020270151, 33.58169996583532 ], [ 130.299552297958201, 33.581736629235564 ], [ 130.299719866049003, 33.581797089168646 ], [ 130.299844461994041, 33.58184287842419 ], [ 130.299948648512242, 33.581881338170305 ], [ 130.300083980056684, 33.581931696310846 ], [ 130.300232158751584, 33.581992045670994 ], [ 130.300319146422311, 33.582025899917355 ], [ 130.30039003308508, 33.582052449194052 ], [ 130.300480245202436, 33.582087223020764 ], [ 130.300548970082644, 33.582114661954037 ], [ 130.300623067330804, 33.582143934690883 ], [ 130.300702528375609, 33.582175942614199 ], [ 130.30074225561637, 33.582192397257792 ], [ 130.300826018713963, 33.58222533143649 ], [ 130.300966694619859, 33.582281128550044 ], [ 130.301060124290416, 33.582317723566817 ], [ 130.301107377317777, 33.582336024091504 ], [ 130.30120188409191, 33.582372625087785 ], [ 130.301295313967017, 33.582409219918034 ], [ 130.301340420393728, 33.582426606768614 ], [ 130.301429562927069, 33.582460472374777 ], [ 130.301473592431194, 33.58247785253505 ], [ 130.301517628554194, 33.582494331275029 ], [ 130.301560580436274, 33.58251170751204 ], [ 130.301646491554806, 33.582545553035864 ], [ 130.301808632999894, 33.582611389061718 ], [ 130.301885933703034, 33.582644287065492 ], [ 130.302002962214118, 33.582693636484407 ], [ 130.302083494683785, 33.582726552613487 ], [ 130.302167251603407, 33.582760385586788 ], [ 130.302252086221415, 33.582794226236793 ], [ 130.302334772859382, 33.582827154357176 ], [ 130.302450761151817, 33.582871989149879 ], [ 130.302563510028165, 33.582917708634838 ], [ 130.302682693287721, 33.582967070635092 ], [ 130.302827456357079, 33.583024899481501 ], [ 130.302867386592936, 33.583042050715015 ], [ 130.302918927977004, 33.583063077922816 ], [ 130.30299624402943, 33.583094170745831 ], [ 130.303063908041253, 33.583119800436911 ], [ 130.303110092221203, 33.583137191033231 ], [ 130.303178833964864, 33.58316282508526 ], [ 130.303263661487335, 33.583197568052597 ], [ 130.30336351368021, 33.583239605534011 ], [ 130.303463372539909, 33.583280743178435 ], [ 130.30350203043136, 33.58329628941555 ], [ 130.303577199510812, 33.583326467762369 ], [ 130.303680276401138, 33.583369426788167 ], [ 130.303722151540171, 33.583386794512016 ], [ 130.303780121084202, 33.583412369162787 ], [ 130.303868566318442, 33.58344947482653 ], [ 130.303910006007698, 33.583470805704451 ], [ 130.303978697630271, 33.583502750733444 ], [ 130.304034505463676, 33.58352921286982 ], [ 130.304090319905725, 33.583554773576815 ], [ 130.304143987618204, 33.583579420728576 ], [ 130.304208391794248, 33.583608638259427 ], [ 130.304266347189468, 33.583636014366228 ], [ 130.304312481292698, 33.583659715382964 ], [ 130.304370447634597, 33.583689096899448 ], [ 130.304373639475273, 33.583690717976822 ], [ 130.304443379547166, 33.583726273839687 ], [ 130.304509924155582, 33.583757304478517 ], [ 130.304556072832895, 33.583779204251812 ], [ 130.304593639704564, 33.583796546865216 ], [ 130.304630129573894, 33.583813885607285 ], [ 130.304666618827298, 33.583831221032362 ], [ 130.304712760361355, 33.583854022142305 ], [ 130.304747102862848, 33.58387044512466 ], [ 130.304780361152808, 33.583887763436415 ], [ 130.304825439536529, 33.583908755641524 ], [ 130.304905930947086, 33.583947077674999 ], [ 130.304975693112567, 33.583979930123292 ], [ 130.305018617580458, 33.584000911239549 ], [ 130.305077628858839, 33.584030996094526 ], [ 130.305119454718437, 33.584054674762221 ], [ 130.305151628272313, 33.584072888856539 ], [ 130.305194516738311, 33.584098376349665 ], [ 130.305235286655261, 33.584119345271148 ], [ 130.305272839390057, 33.584138489361571 ], [ 130.305312546791043, 33.584157647753436 ], [ 130.305336160171947, 33.584168600512072 ], [ 130.305381225067009, 33.584191395302284 ], [ 130.305427345336227, 33.584216900873628 ], [ 130.305473436758206, 33.584246013120477 ], [ 130.305520598659427, 33.584276032803167 ], [ 130.30557741952623, 33.584310616688306 ], [ 130.305622462926124, 33.584336114478447 ], [ 130.30567181502667, 33.584361638110039 ], [ 130.305725469270982, 33.58438808952998 ], [ 130.305780193356838, 33.584415446722545 ], [ 130.305808094574672, 33.584429128337817 ], [ 130.305849941839028, 33.584450099790764 ], [ 130.305919690365499, 33.584484754468001 ], [ 130.305996958345219, 33.584522156746843 ], [ 130.306047402760981, 33.584545882924111 ], [ 130.306107498981817, 33.584575075205834 ], [ 130.306142905293569, 33.584593307172732 ], [ 130.306187948357888, 33.584618804738852 ], [ 130.306240482670233, 33.584650657712011 ], [ 130.306295142204476, 33.584686129444492 ], [ 130.306328365087353, 33.584707955401726 ], [ 130.306362664981833, 33.584729789595364 ], [ 130.3063969714743, 33.584750718524973 ], [ 130.306440923913556, 33.584778014947794 ], [ 130.30648597500354, 33.584802614304522 ], [ 130.306547141393622, 33.584832710497423 ], [ 130.306607253076493, 33.584860097526331 ], [ 130.30667218317592, 33.584901076054301 ], [ 130.306690862614772, 33.584912862669817 ], [ 130.306741141726292, 33.584957327847 ], [ 130.306783973498483, 33.584990025928867 ], [ 130.30683112121406, 33.585021848413938 ], [ 130.306893315779035, 33.585058263556498 ], [ 130.306948533843013, 33.585089817565034 ], [ 130.307203700295389, 33.584911223126063 ], [ 130.307456744455891, 33.584790037572503 ], [ 130.307669369784378, 33.584739807319885 ], [ 130.307805075672945, 33.584725526459486 ], [ 130.308142087734694, 33.584634255705474 ], [ 130.308550556754881, 33.584516543845503 ], [ 130.308725180851667, 33.584466203775051 ], [ 130.308865261654688, 33.584087550453638 ], [ 130.308868314653438, 33.584079291696405 ], [ 130.30890683763954, 33.583976731192784 ], [ 130.308962348587727, 33.58390762270772 ], [ 130.309182253913093, 33.583798819684681 ], [ 130.309540617748837, 33.583662756867589 ], [ 130.309760318042152, 33.583611293681038 ], [ 130.310229887620579, 33.583625359309792 ], [ 130.309818612542642, 33.583345804944251 ], [ 130.309588378311759, 33.583171548527446 ], [ 130.309818612542642, 33.583345804944237 ], [ 130.310229887620608, 33.583625359309799 ], [ 130.310269274722685, 33.58365213569968 ], [ 130.310440233576287, 33.583755296541476 ], [ 130.310692859342907, 33.583887015026697 ], [ 130.311013300817763, 33.584016010830275 ], [ 130.31126719103537, 33.58410518994571 ], [ 130.311696554810453, 33.58421693142737 ], [ 130.312055514558494, 33.58428104968646 ], [ 130.312441294979152, 33.584300971573541 ], [ 130.313020121285234, 33.584282090883583 ], [ 130.312959103952949, 33.584021328557441 ], [ 130.312858172075238, 33.583742206617345 ], [ 130.312794805406241, 33.583618687615164 ], [ 130.312630436200863, 33.583352634941463 ], [ 130.312529240296783, 33.583229047420943 ], [ 130.312315629733632, 33.582969203158939 ], [ 130.312221709080433, 33.582883588193255 ], [ 130.312239261507187, 33.582877734652911 ], [ 130.311793053529328, 33.582465678186985 ], [ 130.311457367415812, 33.582115834910667 ], [ 130.311228647362981, 33.581878303732317 ], [ 130.311074118497544, 33.581698807292781 ], [ 130.310904181040627, 33.581488547213247 ], [ 130.310806610622507, 33.581343601147722 ], [ 130.310755770448168, 33.581254243637531 ], [ 130.310724445075493, 33.581139849312542 ], [ 130.31070891454354, 33.580997151715827 ], [ 130.31072263694233, 33.580896072576522 ], [ 130.310763807048914, 33.580751051168548 ], [ 130.310835986556214, 33.580574817027085 ], [ 130.310984423841631, 33.58027038013936 ], [ 130.311014501360006, 33.580213349061864 ], [ 130.311249575068757, 33.579697572787168 ], [ 130.31130484318021, 33.579435656893899 ], [ 130.311290561240583, 33.579209777463014 ], [ 130.311230182459752, 33.578912281535963 ], [ 130.311147681806176, 33.578724306594168 ], [ 130.311123795439755, 33.578682995908274 ], [ 130.311035107704726, 33.578529617142664 ], [ 130.310798624373348, 33.578301445584131 ], [ 130.310631715476632, 33.578166119991401 ], [ 130.310532020929259, 33.578066560599197 ], [ 130.310441102076766, 33.577916476177421 ], [ 130.310416064059041, 33.577694515017015 ], [ 130.310450459385521, 33.577517756843733 ], [ 130.310507623047755, 33.57733499536478 ], [ 130.310601992211247, 33.577178047188156 ], [ 130.31070682995778, 33.57705926629621 ], [ 130.31089572045542, 33.576900551135111 ], [ 130.311000447500504, 33.576784936928604 ], [ 130.311005397896736, 33.576776301693883 ], [ 130.31105928942759, 33.576586937474147 ], [ 130.311084683256411, 33.576473032163669 ], [ 130.311103131792379, 33.576354193787481 ], [ 130.311089952517648, 33.576191117971263 ], [ 130.311062793807253, 33.576060933589361 ], [ 130.311006073210791, 33.575901843708806 ], [ 130.310960034654784, 33.575722245159646 ], [ 130.310934000928768, 33.575609394538567 ], [ 130.310926273365453, 33.575454238393085 ], [ 130.310817684042348, 33.575468041760409 ], [ 130.310926273365453, 33.575454238393078 ], [ 130.31092654239211, 33.575425502489487 ], [ 130.310928010909777, 33.575277545980128 ], [ 130.31093299871668, 33.574777087027108 ], [ 130.310934732288302, 33.574600888209943 ], [ 130.310956388778635, 33.574194768944068 ], [ 130.310985939187361, 33.573875481153863 ], [ 130.310997854953257, 33.573768369166146 ], [ 130.311001931172626, 33.57373211487073 ], [ 130.311030339056487, 33.573402748630386 ], [ 130.3110373476257, 33.573280877267123 ], [ 130.311042836936139, 33.5731853971227 ], [ 130.310962475384571, 33.572856202812062 ], [ 130.310944113808745, 33.572784216157189 ], [ 130.310800544568139, 33.572254722157609 ], [ 130.310746740391892, 33.572057258566218 ], [ 130.310671513347302, 33.571781133580004 ], [ 130.310662941245141, 33.571726812043764 ], [ 130.31056683730796, 33.571499211988289 ], [ 130.310491937248742, 33.57135678740363 ], [ 130.310426341070752, 33.57129316846185 ], [ 130.310139608574985, 33.570883545674114 ], [ 130.309966143260482, 33.570675406026851 ], [ 130.309875870851158, 33.570392362610839 ], [ 130.309816236570725, 33.569927701984128 ], [ 130.309780150850031, 33.569646502667489 ], [ 130.309767857766929, 33.569610225680769 ], [ 130.30976304263848, 33.569527989444303 ], [ 130.309698739579176, 33.56882131465246 ], [ 130.309690967434278, 33.568766991924761 ], [ 130.309679555170447, 33.568408961114152 ], [ 130.309630446914497, 33.567981789766293 ], [ 130.309625045471932, 33.567782895594206 ], [ 130.309664585147942, 33.567472488073115 ], [ 130.309674613903098, 33.567425182041958 ], [ 130.30983275923532, 33.56667916088599 ], [ 130.309868179507333, 33.566444263564179 ], [ 130.309876289380639, 33.566390474053044 ], [ 130.309898137917941, 33.566108747311688 ], [ 130.309899859882961, 33.566032308672995 ], [ 130.309902106359829, 33.56593258647974 ], [ 130.309913474304579, 33.565429318605418 ], [ 130.309948646255464, 33.564858558629581 ], [ 130.309981587482326, 33.564425152813534 ], [ 130.309990236677095, 33.564157721784753 ], [ 130.310061687024302, 33.563236207780527 ], [ 130.310077154404553, 33.563238124608233 ], [ 130.310221139850057, 33.563241675220524 ], [ 130.310260792603287, 33.563191558727283 ], [ 130.310493187035519, 33.563219582385976 ], [ 130.310975014052076, 33.563286672486271 ], [ 130.31097508055916, 33.563288892422847 ], [ 130.31097536785677, 33.563300307757046 ], [ 130.311018195912851, 33.56314693737604 ], [ 130.311032421402558, 33.562781053768859 ], [ 130.31105513214365, 33.562639755676912 ], [ 130.311063977794987, 33.56258472547141 ], [ 130.311092815367886, 33.562434132303252 ], [ 130.311171375893622, 33.562188855183855 ], [ 130.311253064128806, 33.562005444991357 ], [ 130.311271735575417, 33.561905763044848 ], [ 130.311246514831339, 33.56165934820914 ], [ 130.311241606715839, 33.561625684095581 ], [ 130.311200247229181, 33.561435393113555 ], [ 130.311124170166693, 33.561198632594156 ], [ 130.311066912105048, 33.560991876718354 ], [ 130.311046749879267, 33.560717768214076 ], [ 130.311054412205863, 33.560648493644102 ], [ 130.311084178171825, 33.560327749980303 ], [ 130.311113125937567, 33.56018437765141 ], [ 130.311193439703146, 33.559914175738555 ], [ 130.311250175374369, 33.559651625122143 ], [ 130.311423089369782, 33.559688331316316 ], [ 130.311867619159273, 33.559787477059324 ], [ 130.312321913919931, 33.559812146927918 ], [ 130.312252257604541, 33.560139364446385 ], [ 130.312153683917074, 33.560505730092451 ], [ 130.312104780214895, 33.560778221202369 ], [ 130.312215935431453, 33.560846779876613 ], [ 130.312407638699483, 33.560854003899948 ], [ 130.312598483230715, 33.560863582221707 ], [ 130.312739984343636, 33.560882679358819 ], [ 130.312848924556505, 33.5609016685111 ], [ 130.312892410357989, 33.561009864579916 ], [ 130.31346105977093, 33.561087816749506 ], [ 130.313504758429787, 33.561015113187118 ], [ 130.313602637388357, 33.560837040731514 ], [ 130.313711997017407, 33.560717993672299 ], [ 130.31377140930141, 33.560653372762303 ], [ 130.314056910770688, 33.560354571845643 ], [ 130.314106895716719, 33.560290073807678 ], [ 130.314161730872598, 33.560149734284181 ], [ 130.314156523034853, 33.560090004360987 ], [ 130.313817579034634, 33.560018253409481 ], [ 130.313504339981563, 33.559904094340396 ], [ 130.313296917827728, 33.559815456258619 ], [ 130.313396742579272, 33.559216137755278 ], [ 130.313416209937571, 33.558914741864044 ], [ 130.31294092804589, 33.558927120401592 ], [ 130.312578867495006, 33.558938116071403 ], [ 130.312615803036607, 33.558779151744879 ], [ 130.312651566119968, 33.558571783815609 ], [ 130.312660046974969, 33.558446650591641 ], [ 130.312666672570231, 33.558348417509372 ], [ 130.312597283060171, 33.558334438029817 ], [ 130.312200551280625, 33.558282861437014 ], [ 130.312231044436174, 33.558066307152714 ], [ 130.312256796433076, 33.557885265412622 ], [ 130.312284661431761, 33.55767648126286 ], [ 130.312361319615093, 33.557420873682851 ], [ 130.311705128675328, 33.557409000434482 ], [ 130.311805306345889, 33.557004779921805 ], [ 130.311830825843316, 33.556874316757288 ], [ 130.312380570719569, 33.5569772503571 ], [ 130.312493485694461, 33.556998373810103 ], [ 130.312884284356926, 33.557070735059746 ], [ 130.3130073034595, 33.557080324090954 ], [ 130.313317994101141, 33.557073903979457 ], [ 130.313367896522834, 33.557072879180602 ], [ 130.313425709352686, 33.557071682319304 ], [ 130.313325812318226, 33.556888855038409 ], [ 130.313375163746258, 33.556702342668885 ], [ 130.31348862457196, 33.556240008492914 ], [ 130.313444570781513, 33.55617710300514 ], [ 130.31322307194435, 33.556071481386091 ], [ 130.313222754681107, 33.555930907916661 ], [ 130.313270078720763, 33.555687007771745 ], [ 130.313286174193053, 33.555673112901211 ], [ 130.313459688540888, 33.555617153411205 ], [ 130.313495816716994, 33.555437472638438 ], [ 130.313475496377464, 33.555326091992491 ], [ 130.313544552815301, 33.55510538410887 ], [ 130.314272748268621, 33.555186329467276 ], [ 130.314499221134867, 33.555210649552521 ], [ 130.314557923115444, 33.555213896801604 ], [ 130.314564324238432, 33.555202484314229 ], [ 130.314336328880131, 33.554891728243085 ], [ 130.314048061361461, 33.554516041776004 ], [ 130.313771037490852, 33.554154997500198 ], [ 130.313733938290454, 33.554106539131112 ], [ 130.31359953297823, 33.553930951473241 ], [ 130.313522356697547, 33.553827642348367 ], [ 130.31349288412423, 33.553788205516383 ], [ 130.312959054239172, 33.553032660478522 ], [ 130.312846960335719, 33.553009498312854 ], [ 130.312773299881542, 33.552998840105388 ], [ 130.312767586447279, 33.55273770666151 ], [ 130.31279193225734, 33.552181612400943 ], [ 130.31285271373514, 33.551826521059994 ], [ 130.312923926171095, 33.551524672406742 ], [ 130.313014420648216, 33.551242127024047 ], [ 130.313134644103258, 33.551008670210429 ], [ 130.313215975782697, 33.5508897869816 ], [ 130.313322103690894, 33.550715072655457 ], [ 130.313375428096833, 33.550547005704416 ], [ 130.313503730576201, 33.550477868079604 ], [ 130.31370221711029, 33.550374496879215 ], [ 130.313950300311348, 33.550350928356934 ], [ 130.313991267251538, 33.550324949834149 ], [ 130.314035319972135, 33.550174899889129 ], [ 130.314041783574567, 33.550102272132705 ], [ 130.314043030898318, 33.550088084464001 ], [ 130.314042755275153, 33.549915564475242 ], [ 130.314022016894882, 33.549830354140852 ], [ 130.313900902053206, 33.549645261032133 ], [ 130.313792814754549, 33.549535968658937 ], [ 130.313665957373786, 33.549433299355599 ], [ 130.3136714382874, 33.5494104698613 ], [ 130.313659847181981, 33.5493975133707 ], [ 130.313589673680923, 33.549334712870234 ], [ 130.313477423921285, 33.54919345061171 ], [ 130.313398814029625, 33.549176143513471 ], [ 130.313262638019864, 33.549129777828085 ], [ 130.313266030163163, 33.548998770388174 ], [ 130.313248363473036, 33.548828548709452 ], [ 130.31320073008348, 33.548686940085794 ], [ 130.313123686848542, 33.548424106059812 ], [ 130.313145737811681, 33.548316660366851 ], [ 130.313132276708131, 33.548200141709536 ], [ 130.313062104255806, 33.548137374425174 ], [ 130.312820650735858, 33.548073272017021 ], [ 130.312626024920519, 33.547966069719507 ], [ 130.312399493393059, 33.547951397092056 ], [ 130.312350405537671, 33.547876842089735 ], [ 130.312325695149042, 33.547736026984808 ], [ 130.312278982216867, 33.547600691463927 ], [ 130.312225641001078, 33.547574367899045 ], [ 130.312129730523878, 33.547542945095692 ], [ 130.311852178777485, 33.54751766922751 ], [ 130.31168797366044, 33.547435957091778 ], [ 130.311653361570563, 33.54738219380846 ], [ 130.311659601434712, 33.547168076947358 ], [ 130.311600233860361, 33.54710096531079 ], [ 130.311182717524673, 33.54715715317942 ], [ 130.310994096445739, 33.547141739372769 ], [ 130.310945900098062, 33.547124457379866 ], [ 130.310912745942687, 33.547003637613763 ], [ 130.31086087160196, 33.546935722942479 ], [ 130.310742000735587, 33.546903504019532 ], [ 130.310364705585073, 33.546974599509831 ], [ 130.31023555395106, 33.546949828651968 ], [ 130.310198661110718, 33.546854874075443 ], [ 130.310086427911443, 33.546739108994466 ], [ 130.310039692783704, 33.546654735783363 ], [ 130.310023814088282, 33.546599030826876 ], [ 130.309961612465543, 33.546513094356357 ], [ 130.309700009190834, 33.54649251305063 ], [ 130.309391075988742, 33.546562891014595 ], [ 130.309340024290123, 33.546603254716679 ], [ 130.30918036215499, 33.546680416944767 ], [ 130.309107816987165, 33.546678391802601 ], [ 130.308828432075018, 33.546640555170598 ], [ 130.308716049048087, 33.546728723211942 ], [ 130.308591380787703, 33.546964721463091 ], [ 130.308473852899738, 33.547043879967312 ], [ 130.30840031931541, 33.547086582807303 ], [ 130.308313597708377, 33.547068768395214 ], [ 130.307874824008422, 33.546978723307234 ], [ 130.307795166798769, 33.547082603999272 ], [ 130.307711253293178, 33.547234719186839 ], [ 130.30758334387528, 33.547423288979083 ], [ 130.307494801213551, 33.547544028665087 ], [ 130.307482704442918, 33.547557594278928 ], [ 130.307247010678282, 33.547821534024976 ], [ 130.307144876831359, 33.547953223091305 ], [ 130.307006710213074, 33.548161739925185 ], [ 130.306870372061098, 33.548078169974858 ], [ 130.306710989991728, 33.547946111408649 ], [ 130.30670916549758, 33.547758542857196 ], [ 130.306543302964656, 33.547595557418703 ], [ 130.30642311283799, 33.547528385280081 ], [ 130.306167048493734, 33.547435515638149 ], [ 130.306072802357562, 33.547438122193249 ], [ 130.305965248048381, 33.547474326583412 ], [ 130.305956949990218, 33.547475654329403 ], [ 130.305896490990222, 33.547482466390655 ], [ 130.30570614345686, 33.547503906053826 ], [ 130.305604052385775, 33.547488082858258 ], [ 130.305102163732016, 33.547368825707835 ], [ 130.304752636201357, 33.547275921162601 ], [ 130.304574385755672, 33.547246920548098 ], [ 130.304524758726643, 33.547256327618996 ], [ 130.304273101126455, 33.547642534644517 ], [ 130.304183653137898, 33.547707722362219 ], [ 130.304025066523167, 33.547791929160717 ], [ 130.304011172584637, 33.547798648459811 ], [ 130.303720227969677, 33.547497413872755 ], [ 130.303494437899104, 33.547621432535578 ], [ 130.302948297067388, 33.547240568063302 ], [ 130.302533659847967, 33.546979459880106 ] ] ] ] } }
]
}
