{
"type": "FeatureCollection",
"name": "鞍手",
"crs": { "type": "name", "properties": { "name": "urn:ogc:def:crs:OGC:1.3:CRS84" } },
"features": [
{ "type": "Feature", "properties": { "id": "鞍手.1", "Name": null, "description": null, "timestamp": null, "begin": null, "end": null, "altitudeMode": null, "tessellate": -1, "extrude": 0, "visibility": -1, "drawOrder": null, "icon": null, "KEY_CODE": "404020063101", "PREF": "40", "CITY": "402", "K_AREA": "008000010", "S_AREA": "0063101", "PREF_NAME": "福岡県", "CITY_NAME": "鞍手町", "S_NAME": "大字新延", "KIGO_E": null, "HCODE": 8101, "AREA": 237557.58, "PERIMETER": 2450.729, "KIHON1": "0080", "DUMMY1": "-", "KIHON2": "00", "KIHON3": "010", "C1": 5, "C2": 63, "DUMMY2": "-", "C3": 1, "DUMMY3": "-", "C4": 1, "KIGO_A": null, "KIGO_D": null, "N_KEN": null, "N_CITY": null, "N_C1": 0, "KIGO_I": null, "KEYCODE1": "4020063-1-01", "JINKO": 11, "SETAI": 6, "KEN_OLD": "40", "CITY_OLD": "402", "X_CODE": 130.666043, "Y_CODE": 33.779566, "KCODE1": "0080-00010", "CCODE1": "63-1- 1" }, "geometry": { "type": "MultiPolygon", "coordinates": [ [ [ [ 130.662732155145989, 33.7604272012629 ], [ 130.662162654006011, 33.759658120773899 ], [ 130.662470514094991, 33.759035067572803 ], [ 130.662983600436007, 33.759014349644801 ], [ 130.663944402862001, 33.758446046436902 ], [ 130.664061653013988, 33.758212219518803 ], [ 130.662569860367, 33.758479771489597 ], [ 130.661625541926014, 33.7583911094409 ], [ 130.661326581037997, 33.758186855414799 ], [ 130.661233975894987, 33.757308485437001 ], [ 130.658890361695001, 33.756601354551798 ], [ 130.65867502390401, 33.756204952197997 ], [ 130.654685754475992, 33.756292822024299 ], [ 130.652881400529992, 33.757405867339799 ], [ 130.652879885705005, 33.757992496144098 ], [ 130.652685115112007, 33.758186434336899 ], [ 130.652543325180005, 33.758826553810799 ], [ 130.652647027695991, 33.7591490430219 ], [ 130.652082762177002, 33.759556362811502 ], [ 130.651861657092013, 33.760623271011703 ], [ 130.651632109133999, 33.760948624748501 ], [ 130.651914605830996, 33.761077130688903 ], [ 130.651934655594999, 33.761480391407503 ], [ 130.652605299225002, 33.762711822994603 ], [ 130.65186216942601, 33.763330239166102 ], [ 130.651547374724998, 33.764414066860198 ], [ 130.651634875988009, 33.764791733059702 ], [ 130.651230725809995, 33.765113773472898 ], [ 130.651738796424013, 33.765627029875503 ], [ 130.651757102119007, 33.766181802340398 ], [ 130.650947005734992, 33.766698026547999 ], [ 130.650969231313013, 33.767131790427101 ], [ 130.650592047305992, 33.767273717830498 ], [ 130.650523004060005, 33.767693841193399 ], [ 130.650225034341986, 33.768003710768397 ], [ 130.650501760806009, 33.768511244885701 ], [ 130.649949778720014, 33.768791934873001 ], [ 130.650056841141009, 33.769186000712601 ], [ 130.649317452639991, 33.769864427501197 ], [ 130.649248700866991, 33.770203615164597 ], [ 130.649408876402987, 33.77062601123 ], [ 130.650263774371012, 33.771202809456497 ], [ 130.650787863114999, 33.771907502782703 ], [ 130.650871348761996, 33.772218031142302 ], [ 130.650519773250011, 33.772620942105704 ], [ 130.650477069169995, 33.772984577192098 ], [ 130.650712393580989, 33.7734736077904 ], [ 130.649851178409989, 33.773885781105697 ], [ 130.649691483307009, 33.774697579518197 ], [ 130.648540197261013, 33.774742416622999 ], [ 130.648641580916006, 33.7751659836781 ], [ 130.648332675658992, 33.776533273240503 ], [ 130.647214773150012, 33.777842115156503 ], [ 130.646439617466001, 33.779435379224502 ], [ 130.646208351917011, 33.780060512114098 ], [ 130.646087706228997, 33.781178757817102 ], [ 130.645278858607014, 33.781753772279302 ], [ 130.644786752921988, 33.783416372894401 ], [ 130.644923226743003, 33.784964546378902 ], [ 130.643491382989993, 33.786605142513203 ], [ 130.643442505493994, 33.787059054941402 ], [ 130.642358097243999, 33.787691718789802 ], [ 130.642324962185995, 33.788051147403102 ], [ 130.64174775587, 33.788706891832803 ], [ 130.641592503318009, 33.789146831913698 ], [ 130.641048596409007, 33.789634529888303 ], [ 130.641065647033997, 33.790378421987498 ], [ 130.641238862640989, 33.790697663588602 ], [ 130.640408008247988, 33.790543876514 ], [ 130.639773252350011, 33.790633531133402 ], [ 130.639172635174987, 33.790860147689997 ], [ 130.639044839084988, 33.791237471384598 ], [ 130.638591332520008, 33.791508467555502 ], [ 130.638914044737987, 33.792317492105802 ], [ 130.638828600166988, 33.793867545711201 ], [ 130.638584309094995, 33.794420204906103 ], [ 130.638171960432999, 33.794910878706297 ], [ 130.637687143399006, 33.795120283678202 ], [ 130.637685223053012, 33.7955770047028 ], [ 130.637336055172995, 33.796050248410801 ], [ 130.636809945757989, 33.796066314946202 ], [ 130.636714174645988, 33.796329545348499 ], [ 130.636176264509999, 33.796652901075298 ], [ 130.636185027799002, 33.7970657700522 ], [ 130.636510784957011, 33.797154565324398 ], [ 130.636737775853987, 33.797596604163203 ], [ 130.636677899313014, 33.798070763624501 ], [ 130.635851623055004, 33.798169345008603 ], [ 130.635706842203007, 33.798818861114597 ], [ 130.635747840781988, 33.799699540656398 ], [ 130.635077263493002, 33.800286083115502 ], [ 130.634909423213998, 33.8001714068184 ], [ 130.634366494934994, 33.801054729800299 ], [ 130.635566376231992, 33.801632911917103 ], [ 130.636892106136003, 33.801728732081102 ], [ 130.640435994928993, 33.8006282551193 ], [ 130.641453591765014, 33.799601389327101 ], [ 130.642227554942991, 33.798300157708503 ], [ 130.644244752183994, 33.7964344821224 ], [ 130.641781098378004, 33.792408802978798 ], [ 130.644320477098006, 33.792597089833102 ], [ 130.647091044685993, 33.792111732764099 ], [ 130.647378713786992, 33.792192712891399 ], [ 130.648186799063012, 33.792913645977499 ], [ 130.649159359737013, 33.792900988179298 ], [ 130.649097473696997, 33.793343597296698 ], [ 130.648539622516012, 33.793712101734599 ], [ 130.648924285209006, 33.793939237285102 ], [ 130.648226033073001, 33.797125186684603 ], [ 130.647555017699005, 33.797921061469701 ], [ 130.650228196155012, 33.800613252349599 ], [ 130.651880144914003, 33.799350101888798 ], [ 130.652165299902009, 33.798616155487501 ], [ 130.652892312772991, 33.798468945183203 ], [ 130.653224166850009, 33.797236065175703 ], [ 130.653797666759004, 33.796355986156897 ], [ 130.654790168190004, 33.796179219360198 ], [ 130.655874525248009, 33.797483693650904 ], [ 130.656444320639991, 33.797517967639401 ], [ 130.659435773187994, 33.796515034377499 ], [ 130.665558750732998, 33.798064715062402 ], [ 130.669854723435009, 33.7994405100916 ], [ 130.669899515455995, 33.798836466018599 ], [ 130.669449373812995, 33.798355490914503 ], [ 130.669931795860009, 33.796290347817802 ], [ 130.670100561239991, 33.796572630907299 ], [ 130.672715682995999, 33.796485280277103 ], [ 130.673262550253014, 33.797125274447097 ], [ 130.676640262659987, 33.798726619684501 ], [ 130.677762502092008, 33.799537364975201 ], [ 130.676869802140999, 33.801049637989898 ], [ 130.677870414419999, 33.8015398424944 ], [ 130.677353111349987, 33.802122791406902 ], [ 130.680628686033003, 33.804113156141803 ], [ 130.682339531069005, 33.803322164495398 ], [ 130.682874760152998, 33.803410464957899 ], [ 130.68336260172299, 33.803777445506199 ], [ 130.68413947193099, 33.803769153794399 ], [ 130.684449013694007, 33.802957910603297 ], [ 130.684818912916995, 33.8027202749008 ], [ 130.686058063048989, 33.803140020994597 ], [ 130.686642163265986, 33.803948752231797 ], [ 130.687583028240994, 33.803875136010298 ], [ 130.688037461818993, 33.803331148673401 ], [ 130.691068765052989, 33.801178094300703 ], [ 130.691364309211991, 33.800796695177503 ], [ 130.693033548171002, 33.800299044798201 ], [ 130.697617324263007, 33.8045608239347 ], [ 130.697943932198996, 33.805102678941203 ], [ 130.698052022388993, 33.8057639593396 ], [ 130.69791708579001, 33.806115620400597 ], [ 130.69758589013199, 33.806241319571598 ], [ 130.699658297778996, 33.806765178137297 ], [ 130.700563574334012, 33.806835355994103 ], [ 130.700596413194006, 33.803687933559402 ], [ 130.700726439054989, 33.8029972965494 ], [ 130.701219242216013, 33.802489134883203 ], [ 130.702489359790007, 33.801780894141501 ], [ 130.704715513789012, 33.801095499229099 ], [ 130.705544376792005, 33.7992191049929 ], [ 130.707295189760998, 33.796055120917998 ], [ 130.707273975735006, 33.795799299875398 ], [ 130.707005559180004, 33.795671800658297 ], [ 130.705306191940991, 33.795209470048597 ], [ 130.704326971173998, 33.7947752596545 ], [ 130.704024461601989, 33.793683418985999 ], [ 130.704089698762999, 33.7930056587617 ], [ 130.703487750510988, 33.792383357418601 ], [ 130.702531775562989, 33.792248067136001 ], [ 130.702061104182008, 33.792009970481303 ], [ 130.701375560402994, 33.793742551984401 ], [ 130.702061104182008, 33.792009970481402 ], [ 130.700220138827007, 33.791096553929002 ], [ 130.700552313663991, 33.790066961493203 ], [ 130.699879020337988, 33.789876262945299 ], [ 130.700172275124004, 33.788373990849301 ], [ 130.698679172061986, 33.787662427622401 ], [ 130.697635056221003, 33.787521881053998 ], [ 130.697190570732005, 33.7872078934328 ], [ 130.696536135543994, 33.787174376315399 ], [ 130.696861223380012, 33.786881862302302 ], [ 130.696333921151989, 33.7857866285893 ], [ 130.696339509588995, 33.785035184850997 ], [ 130.695136995847008, 33.784637963828899 ], [ 130.695060775016998, 33.784494924439002 ], [ 130.695180951393013, 33.783889081756797 ], [ 130.694978401787012, 33.783590477029897 ], [ 130.694934028478997, 33.783124194568501 ], [ 130.695643865227993, 33.782339272344998 ], [ 130.696668772325012, 33.781876400351798 ], [ 130.696241764781007, 33.7813628247889 ], [ 130.696525001421008, 33.780296493986498 ], [ 130.697381469225007, 33.779547877061503 ], [ 130.697443436154003, 33.778809589953497 ], [ 130.697762015653012, 33.7784839800726 ], [ 130.698637974994, 33.778046959449298 ], [ 130.698713713225999, 33.777765594185603 ], [ 130.69853043466199, 33.777245226273102 ], [ 130.698682877642, 33.776918684027997 ], [ 130.699832921980999, 33.776613246169902 ], [ 130.699746516492013, 33.775326512334402 ], [ 130.699873923107987, 33.774531200921302 ], [ 130.700123808818006, 33.7741298060932 ], [ 130.700699606373007, 33.773755972071498 ], [ 130.699058038893014, 33.772780034695401 ], [ 130.698905126826986, 33.7724068199378 ], [ 130.699050663952988, 33.771941422297701 ], [ 130.698906380392998, 33.7711003651076 ], [ 130.699289404036989, 33.770151976074096 ], [ 130.698741317761005, 33.768797404323003 ], [ 130.698680714532003, 33.7681499069148 ], [ 130.697965648784987, 33.767696279712098 ], [ 130.697067132412997, 33.767468311366699 ], [ 130.696648967572003, 33.767176855286102 ], [ 130.696531640649994, 33.766781395965602 ], [ 130.696281024462991, 33.7668570632758 ], [ 130.695340465680005, 33.766613834268 ], [ 130.695007421155992, 33.766607022104097 ], [ 130.694540230300987, 33.767137479827298 ], [ 130.694136795884987, 33.767310465444602 ], [ 130.693213809270986, 33.767309437119501 ], [ 130.693068050541996, 33.767663438350802 ], [ 130.693124741450987, 33.767422766086902 ], [ 130.692883300933005, 33.767680329243298 ], [ 130.69184665551299, 33.767555456093 ], [ 130.691445089924997, 33.767243665814 ], [ 130.691469036711993, 33.766920262091404 ], [ 130.691697864729008, 33.766664007826897 ], [ 130.691301036144012, 33.766172676398902 ], [ 130.689341987196002, 33.765746583338696 ], [ 130.688618747594006, 33.7659892564565 ], [ 130.687715509122, 33.766006552615103 ], [ 130.687148257762004, 33.765279711991703 ], [ 130.68646361028101, 33.765042907902597 ], [ 130.685701454307008, 33.765358512724703 ], [ 130.685027190581991, 33.765322978746802 ], [ 130.683876976569991, 33.765960700089501 ], [ 130.682703592261987, 33.7657996186825 ], [ 130.680878303562992, 33.7663164583997 ], [ 130.68035665799701, 33.7653776812909 ], [ 130.680481951482989, 33.764817086667399 ], [ 130.680235731827992, 33.764094993818397 ], [ 130.676111272693987, 33.764608463668303 ], [ 130.673851119527001, 33.764429228939001 ], [ 130.67170888375901, 33.764456024302604 ], [ 130.671727693891995, 33.764322236936103 ], [ 130.670212001842998, 33.764393779664402 ], [ 130.66939050444401, 33.761437439366397 ], [ 130.67075497337899, 33.757844657002401 ], [ 130.671359325834999, 33.757562741472903 ], [ 130.671059593477992, 33.756454048977197 ], [ 130.670250626707997, 33.755205087671101 ], [ 130.669888158459003, 33.755115362993003 ], [ 130.668820042499988, 33.755902567795502 ], [ 130.666605424413007, 33.756882710248099 ], [ 130.665865451146999, 33.758085179066597 ], [ 130.66472138928799, 33.759276684260101 ], [ 130.664115269516998, 33.760717876201198 ], [ 130.663549773787992, 33.761371789579201 ], [ 130.662856108721002, 33.7611873845904 ], [ 130.662732155145989, 33.7604272012629 ] ] ] ] } }
]
}
